{"type": "FeatureCollection", "features": [{"type": "Feature", "properties": {"source": "Tang & Werner 2023", "polygons": 17}, "geometry": {"type": "MultiPolygon", "coordinates": [[[[125.658633110041, 10.398348959884363], [125.65870284948977, 10.398243440117982], [125.65893351959065, 10.39819066989198], [125.65919101008504, 10.398275100345915], [125.65943241020885, 10.398264539766826], [125.6595236097035, 10.398111529704728], [125.6598132799025, 10.398401730136424], [125.6599903102529, 10.398691919678402], [125.66066623018502, 10.399578339974596], [125.66084861984656, 10.399741909771143], [125.66113292969798, 10.39975773995872], [125.66148161968701, 10.399868540141167], [125.6620609797769, 10.400617769924942], [125.66242576013643, 10.40096600969261], [125.66265105952554, 10.401366999867152], [125.66305875997679, 10.401567499922256], [125.6637346695448, 10.40150417961565], [125.66315531981905, 10.400987110317303], [125.66313385977321, 10.400670530194633], [125.66343427035929, 10.40025898024679], [125.66378831965947, 10.400090139824378], [125.66408873024558, 10.400353959944033], [125.66413163997314, 10.40080772000091], [125.66448569030972, 10.401092639749717], [125.66471100006305, 10.401082079874408], [125.6650114096127, 10.401430320146654], [125.66529036015295, 10.402042360001877], [125.66582680015108, 10.403034299722313], [125.66625595028404, 10.403604129890619], [125.6666207296072, 10.404374459697694], [125.66677093956409, 10.405092019994592], [125.66676556988877, 10.406490209917042], [125.66667437972184, 10.406606290066545], [125.66663681997771, 10.406885930159428], [125.66663681997771, 10.407281639737993], [125.66688895012446, 10.40766152002322], [125.6673181095852, 10.408141650071535], [125.66749512957138, 10.408468769814174], [125.66827296969339, 10.409608420229867], [125.66877186031157, 10.410246829949672], [125.66871821952468, 10.410368179602061], [125.66845000004376, 10.410684750190516], [125.668160320517, 10.41049481018978], [125.6676506998759, 10.409961920380539], [125.66743612014557, 10.40992499006707], [125.66706598047485, 10.409930259794224], [125.66661537029603, 10.410067440023724], [125.66632568973284, 10.410262659859763], [125.66612184002543, 10.41047370017577], [125.6662344902382, 10.410932719616937], [125.6660896499566, 10.41133898007038], [125.66644906996854, 10.411497270186961], [125.66660999958424, 10.411222910154704], [125.66664218965305, 10.411054070325944], [125.66679775995756, 10.411122659877469], [125.66692649950446, 10.411397019823807], [125.66730200988694, 10.411423399650433], [125.6674897702602, 10.411581680249117], [125.6681656798282, 10.41234671964774], [125.66846609041433, 10.412610520387755], [125.66899717006484, 10.412811009955947], [125.66929757961455, 10.412847939805708], [125.669673089997, 10.412172610258732], [125.67000568028776, 10.411734690372484], [125.67006468971361, 10.41158168024912], [125.67007541973652, 10.410748060362597], [125.66992520977962, 10.40969284015023], [125.66973209009512, 10.409376269745911], [125.66941022982732, 10.409017490173413], [125.66904545050421, 10.408088890164604], [125.66908836023178, 10.407033660393013], [125.67005395969065, 10.405809589865127], [125.67028999013915, 10.40530306964906], [125.67134142045376, 10.403741309800322], [125.67149162004652, 10.402918220070568], [125.67194223022535, 10.402074019808497], [125.6725430503611, 10.401989600302924], [125.67295074044823, 10.401862969891358], [125.67286490959248, 10.401103190066056], [125.67277907977319, 10.400702189865713], [125.67241430045006, 10.399857989865476], [125.67247867955125, 10.398866040061854], [125.6730151195494, 10.398401730136422], [125.67357301959343, 10.397810780124049], [125.67449569999701, 10.397156510160219], [125.67526817044364, 10.396713299867892], [125.67516087954206, 10.39579522033869], [125.67510723979154, 10.395710789741276], [125.67502140997223, 10.395278129978973], [125.6751501598833, 10.394391700064954], [125.67560077006213, 10.393610800367444], [125.67575096965487, 10.393420849776245], [125.6758368005106, 10.393188679952424], [125.67579388974663, 10.39243943009057], [125.67599773012627, 10.39222838014355], [125.67640542954113, 10.392006769962427], [125.6770491604409, 10.391975110353435], [125.67762851949438, 10.39215451006617], [125.67824006032534, 10.392439430090569], [125.67864775974017, 10.39243943009057], [125.67904471980437, 10.392376120349361], [125.67922711050234, 10.391859029926755], [125.6792485695118, 10.391246960123874], [125.67891598025747, 10.390656000196135], [125.67930221962646, 10.389748449714048], [125.67900181007676, 10.388714259852463], [125.67850827980622, 10.388292140304987], [125.67814350048309, 10.38774339010468], [125.67805766962734, 10.387300160160338], [125.67816495949255, 10.38647702979065], [125.67852973985208, 10.385780519967337], [125.67852973985208, 10.385041810110545], [125.67831516012171, 10.384176460204698], [125.6778216402153, 10.383374419787796], [125.6750106799493, 10.381833659783354], [125.67383051008777, 10.38096828984918], [125.67355155954758, 10.380862759868187], [125.67153454013824, 10.380883870322354], [125.67086935022904, 10.381432639861293], [125.67080498045557, 10.382466850069978], [125.67138433018131, 10.383501059627505], [125.67022562036568, 10.384429730211533], [125.66977501018685, 10.384915169662946], [125.66919565009695, 10.386181539745236], [125.66898107969433, 10.38715241990238], [125.6688308697374, 10.388756469846312], [125.6681442301465, 10.389980609878483], [125.66767215992178, 10.390276100236314], [125.66687822010152, 10.390423840339514], [125.6665992695613, 10.390624339923896], [125.66520451996946, 10.391257510116223], [125.66402435010795, 10.391268069667937], [125.66368102979429, 10.391183640262419], [125.66315531981905, 10.390571579714148], [125.66275835042714, 10.391574100062295], [125.66183567002359, 10.391816820321251], [125.6611812101373, 10.392048980389513], [125.66061258007035, 10.39215451006617], [125.65992594047944, 10.39248163977799], [125.65914272964572, 10.39270325028724], [125.6583488001896, 10.392819339781978], [125.65732955994378, 10.392724359927167], [125.65673946983098, 10.392566070321775], [125.65663217996577, 10.392492200166616], [125.65627812962919, 10.392376120349361], [125.65577387969982, 10.392312800265005], [125.65560222006118, 10.392312800265008], [125.65502285997131, 10.39251330023358], [125.65461515952003, 10.392376120349361], [125.65431476033453, 10.39240776964228], [125.65396069963377, 10.39262938010048], [125.65356373956958, 10.39261883006301], [125.65339207993098, 10.39250275019992], [125.65319896024647, 10.392270589803205], [125.65343498965854, 10.392091190025551], [125.65348863977323, 10.391943449950992], [125.65348863977323, 10.391690180385867], [125.65302729957143, 10.391194199811718], [125.65281271984107, 10.390888160220793], [125.65241575044915, 10.390128349845577], [125.65190077049685, 10.389632370093123], [125.651450160318, 10.388999190363116], [125.65128922033817, 10.388830339937781], [125.6509459000245, 10.388587629904269], [125.65060257971084, 10.388460989650502], [125.65021634034183, 10.388429330391446], [125.65007686973561, 10.388503199611014], [125.64969063036662, 10.388978089730722], [125.64990519973283, 10.389220800059634], [125.6502699904565, 10.389400199825134], [125.65073132962189, 10.389716790327947], [125.65137505948525, 10.389991170184766], [125.6515574501832, 10.390107249935518], [125.65198660031619, 10.390582129684281], [125.65232991959341, 10.39104646015032], [125.65157889986487, 10.39086706026074], [125.65048455982271, 10.390444940270411], [125.65033436022995, 10.390539920246827], [125.65031290018408, 10.390888160220792], [125.65060257971084, 10.39108866965443], [125.65123557955123, 10.391848470355566], [125.65148234002262, 10.392207269739686], [125.65148234002262, 10.392344459907335], [125.65138578018038, 10.392544959895682], [125.6513321404299, 10.39285098991521], [125.65208316015843, 10.393178129896555], [125.65270542997591, 10.393294210004077], [125.65322042029231, 10.39306204983103], [125.65407871952186, 10.392945969807524], [125.65492630012906, 10.392924860153013], [125.65506576969887, 10.392956519855755], [125.65550566021894, 10.393325869743288], [125.65522670967874, 10.39355803010734], [125.65495849019786, 10.393695220056204], [125.65494776017495, 10.393959039692758], [125.65522670967874, 10.394412809816027], [125.65535545026202, 10.394782150228554], [125.65544128008136, 10.395605270046675], [125.65539837035378, 10.39608013961495], [125.65522670967874, 10.396343959620594], [125.65488338003732, 10.396639430350513], [125.6551301498365, 10.39675551011793], [125.65558076001533, 10.397040430247605], [125.65547347015016, 10.397346459778149], [125.65606356026298, 10.397979620142351], [125.6562352199016, 10.398412280364184], [125.65662146030702, 10.398971570389072], [125.65700769034824, 10.398939910092341], [125.65813422045923, 10.398676099899332], [125.658633110041, 10.398348959884363]]], [[[125.66452593022767, 10.371726180094191], [125.66454469973556, 10.371786860373305], [125.66446423959162, 10.371897670016303], [125.66447496028678, 10.37195570980206], [125.66453664988644, 10.371990010352578], [125.66492825996721, 10.371879199881228], [125.66506772953701, 10.3718554598489], [125.6651911097727, 10.371879199881224], [125.66531985968376, 10.371836989716247], [125.66573559962002, 10.371567869776433], [125.66604674022902, 10.371660220372956], [125.66637397017219, 10.371691880368372], [125.66660464027306, 10.371860729747207], [125.66671193013825, 10.37204541998355], [125.66692114019328, 10.37262322026517], [125.66685677041984, 10.372947739723754], [125.66699087964207, 10.373322389881256], [125.6673583401754, 10.373794660020941], [125.66753267998781, 10.373910749846731], [125.66776603026251, 10.374433140244061], [125.66747366952552, 10.374551870051054], [125.66754877968606, 10.374638939613027], [125.66752464050282, 10.374715450190976], [125.66736102034916, 10.374939709695617], [125.6675139104799, 10.375076899652523], [125.6676346095054, 10.375087460265108], [125.66775798974112, 10.375219369976524], [125.66769898031522, 10.375475290201102], [125.66798597966819, 10.375615129704542], [125.66812545027445, 10.376142800010681], [125.6681120400777, 10.376435649813498], [125.66801011988784, 10.37675753016806], [125.66807448966132, 10.376899999644323], [125.66826761038222, 10.377142730314029], [125.66834806948978, 10.37731685971429], [125.66840171960445, 10.37755958990246], [125.66828369971633, 10.37792367995279], [125.66831588978516, 10.378050309677198], [125.66844463036843, 10.378277209698023], [125.66848217974838, 10.37865712970833], [125.66873967957052, 10.378984279914663], [125.6689703496714, 10.378931520025164], [125.66900253041244, 10.379052880130578], [125.66893815960262, 10.379332540009882], [125.66873967957052, 10.379295599682436], [125.66850901050604, 10.379147859922147], [125.66820323024459, 10.378799600027188], [125.6681898200479, 10.378548959906908], [125.66798597966819, 10.378203339645355], [125.66799938986493, 10.377775929671845], [125.66752464050282, 10.377498899770965], [125.66739053024416, 10.377343239923599], [125.66733956030332, 10.377140089745684], [125.66727518949347, 10.376464669716663], [125.66698550996671, 10.376472589812014], [125.66650808043082, 10.37665463974539], [125.66636592032303, 10.376538549724625], [125.66625058993648, 10.376269440184728], [125.66603064985851, 10.376221949914468], [125.66561489955812, 10.376298460072878], [125.66552906973878, 10.37667047038704], [125.6655612598076, 10.376834039657485], [125.66580265993142, 10.377192859696075], [125.66609234049454, 10.3772192398952], [125.66624254008734, 10.377340600150163], [125.66650270971905, 10.377628180255437], [125.66628814035286, 10.37814001996741], [125.66619158051061, 10.378493549950798], [125.66622376021529, 10.378752110179395], [125.66635251012629, 10.378868200203666], [125.66669047009235, 10.378868200203664], [125.66710352985483, 10.378815429978019], [125.66755950038126, 10.378678240017502], [125.66781700020339, 10.378667680083408], [125.6682193299429, 10.379147859922147], [125.66849828048308, 10.379422240303025], [125.6688147804033, 10.379606930107254], [125.66899717006484, 10.379659690107719], [125.66916347039232, 10.379643860115268], [125.66939414049318, 10.379506669800845], [125.66941022982732, 10.379105640040013], [125.66937803975848, 10.378775849924805], [125.66934049037853, 10.378599090304974], [125.66911787012677, 10.378179590383622], [125.66915274036937, 10.37793687008209], [125.66925198038541, 10.377723159625663], [125.6694075496535, 10.377541120238433], [125.66916077985434, 10.377390730359625], [125.66914468948382, 10.377269370085726], [125.66924930021162, 10.377148000299059], [125.66955507010888, 10.377002899704202], [125.67011028997914, 10.377008169686952], [125.67022829950307, 10.37689735987452], [125.67013443019879, 10.376807660286543], [125.66979377969476, 10.376704760289192], [125.66982061045238, 10.376607150214744], [125.67022562036568, 10.376306369808992], [125.6704670204895, 10.376232500209559], [125.67042678989932, 10.37606101036348], [125.67032218020793, 10.375963390129503], [125.66958456963977, 10.375633600054373], [125.66939144995526, 10.375427800048257], [125.66935657971264, 10.375216739779098], [125.66987693037669, 10.374702260193942], [125.67000836046152, 10.374448969979717], [125.6698554796586, 10.37428540033055], [125.6698018295439, 10.37404794016083], [125.66970258952786, 10.373987260251274], [125.6689247504423, 10.374034750191203], [125.66858411030242, 10.374148200356522], [125.66843390034549, 10.374248459786964], [125.66820591974616, 10.374340800002253], [125.66798329016665, 10.37416139033081], [125.66784114042305, 10.373992539743082], [125.66758096042713, 10.37353082031546], [125.66769898031522, 10.373303919664288], [125.66771506964936, 10.373142979981925], [125.66767484009559, 10.373032169909521], [125.66755682020745, 10.372908169951968], [125.66739053024416, 10.37282902006799], [125.66735029032624, 10.372675990270206], [125.66743343997175, 10.372478109765721], [125.6674066195783, 10.37233036039608], [125.66724837013639, 10.37220899964403], [125.66720008969708, 10.37206389012818], [125.66723764011348, 10.371755200368556], [125.66742002977506, 10.371747280389481], [125.66769630014149, 10.37191877988131], [125.66781968037715, 10.37194780017305], [125.6679350097273, 10.371852820120546], [125.6680262102584, 10.371668129994875], [125.66801011988784, 10.371261820216711], [125.66773652969525, 10.370842320317069], [125.66768288994471, 10.370707759938893], [125.66739321041796, 10.370459749917273], [125.66709279983186, 10.370341020029102], [125.66687017958016, 10.370351570131104], [125.66674680038084, 10.370298810066137], [125.66668778991857, 10.370211740087024], [125.66631763988372, 10.369887220204953], [125.66606550973695, 10.369581160297532], [125.66591262997042, 10.369478260224682], [125.66591262997042, 10.369348979833068], [125.66600918981264, 10.369195959657556], [125.6659984597897, 10.369129999659027], [125.66589653027211, 10.36910625027138], [125.66568732021709, 10.369156379992763], [125.66563635960397, 10.368399160371851], [125.66544323991948, 10.36801658969362], [125.6648236502758, 10.367904450389208], [125.66460639037166, 10.367732960207894], [125.66459700043562, 10.3675865201216], [125.6645044701818, 10.367537709694915], [125.66437304009696, 10.367602359874894], [125.66437170001007, 10.368012630148389], [125.66421077039436, 10.367973049832754], [125.664153100019, 10.367911049629063], [125.66398144038038, 10.367871470122465], [125.6638392802726, 10.367678870370808], [125.66373065032052, 10.367606309856738], [125.66355227988326, 10.367407110237746], [125.66342755956065, 10.367387319718333], [125.66328272031545, 10.36740579039182], [125.66324516989907, 10.367473069882793], [125.66334575000201, 10.367620820205888], [125.66320628043218, 10.367651170311392], [125.66309363021942, 10.36771581015932], [125.66289379973627, 10.367888620179357], [125.6626765398321, 10.367847730386131], [125.66261485023244, 10.3677065696361], [125.66263899045212, 10.367478350064113], [125.66261082997175, 10.3673582998383], [125.66235334051383, 10.36714987022058], [125.66241234993969, 10.367083909845315], [125.66238820972002, 10.367052239948894], [125.66226079989586, 10.366998159784641], [125.66217228990278, 10.367128759872221], [125.66207036038517, 10.367065439986826], [125.66193222986584, 10.36703772962542], [125.66156611045581, 10.367058839967802], [125.66151917010336, 10.36713140035832], [125.66152453045096, 10.367205270255452], [125.66163316040304, 10.367409749929593], [125.66170423993871, 10.367500780281738], [125.66209719010638, 10.367761980121747], [125.66214143992084, 10.367838489859121], [125.66198452952943, 10.367866200289555], [125.66171496996165, 10.367979649870563], [125.66140920006441, 10.368000760274793], [125.66123888051267, 10.368133999670897], [125.66126033952212, 10.368182810188111], [125.66135286977593, 10.36828570028792], [125.66163048022926, 10.368139270304736], [125.66189735962323, 10.36811947974025], [125.66217899033725, 10.368046930278137], [125.6624109994886, 10.368151149741795], [125.66244185050694, 10.368391239678939], [125.66240966043814, 10.36872763989874], [125.66142261026111, 10.368748750352085], [125.66129923002542, 10.368860880392647], [125.66130861996147, 10.368946630153614], [125.66146687043977, 10.369009949612973], [125.6616720602341, 10.369019179818755], [125.66174313044205, 10.369119440038736], [125.66177799964824, 10.369334470202462], [125.66161036027029, 10.369384599959451], [125.66143468037095, 10.369644479881888], [125.66133142009421, 10.369575889640068], [125.6612308296271, 10.369567969714696], [125.6611087905147, 10.369658999881418], [125.66094785986263, 10.369709120130617], [125.66076413011416, 10.369676139678749], [125.66071852984864, 10.369693289831906], [125.66071852984864, 10.369839730081374], [125.66077082951223, 10.369920199881948], [125.66081910995155, 10.369933389682702], [125.6612134002061, 10.369914919660507], [125.66144273022012, 10.36982257992041], [125.6615258798656, 10.369846319802576], [125.6617578900534, 10.369995390276438], [125.66198319047894, 10.370199870132229], [125.66206231986378, 10.370360809933821], [125.6620797503212, 10.370562650304326], [125.66252634023937, 10.371019090007039], [125.6627811495235, 10.371044149838426], [125.66305607980301, 10.371133859765479], [125.66317946003873, 10.371280290316296], [125.66337928015771, 10.371364720064001], [125.66343427035929, 10.371364720064003], [125.66351339041637, 10.371297439758525], [125.6638352600119, 10.371329099718197], [125.66386877980344, 10.371451780000479], [125.66408068039641, 10.371614040292142], [125.6641517599321, 10.371648340009672], [125.6643086703235, 10.371650979736346], [125.66436231007403, 10.371623280131152], [125.66452593022767, 10.371726180094191]]], [[[125.65256058969429, 10.405851799720143], [125.65259277976313, 10.406099779743291], [125.65269469995295, 10.406242230388228], [125.652823449864, 10.406548250384855], [125.65283417988694, 10.40673818963786], [125.65294146975212, 10.407118079634596], [125.65294146975212, 10.407951709986149], [125.65302729957143, 10.408605950214152], [125.65302729957143, 10.408885589663281], [125.65286635959158, 10.409344610014152], [125.65286100028038, 10.40965590030822], [125.65244256980617, 10.41043676980327], [125.65217435032531, 10.411360090141446], [125.6522762798429, 10.41147089035425], [125.65244256980617, 10.411502539939994], [125.65274298039226, 10.411629170179776], [125.65332769979337, 10.412214820155896], [125.65346717972733, 10.412177880022883], [125.65386951050326, 10.411829659929943], [125.65393388027672, 10.411618620313332], [125.65416992005294, 10.411497270186963], [125.6543201196457, 10.411486709968592], [125.65457761014005, 10.411687209985832], [125.65484047030974, 10.41169247974199], [125.65515160988235, 10.411797999955573], [125.65531789984566, 10.411924630312233], [125.65559685038588, 10.412061809803031], [125.65604745952825, 10.412061809803035], [125.65636396048491, 10.411898249647662], [125.6565570801694, 10.411834940044752], [125.65687894976494, 10.411391750072514], [125.65725446014744, 10.411381189857623], [125.65754413967414, 10.411718860389605], [125.65761924050697, 10.412119849687535], [125.65799474985302, 10.412225370041986], [125.65829515007492, 10.412510280032278], [125.65852045982822, 10.412900710056604], [125.65865993043447, 10.41324892972144], [125.65916418969157, 10.413333340245522], [125.65923928948797, 10.413101199806572], [125.65925001951085, 10.412731870139524], [125.65913199962276, 10.412278129833942], [125.6591534596686, 10.412014319808208], [125.65907835987227, 10.411697759854523], [125.65847753973647, 10.411054070325944], [125.65832734014373, 10.41079027007193], [125.65875649027672, 10.410547569696528], [125.65909981991811, 10.410452599722774], [125.65903543978051, 10.410241549861059], [125.65885305011896, 10.409903880090633], [125.65857409957871, 10.409661180387173], [125.65816640949163, 10.409830020278003], [125.6576514202116, 10.409798359704732], [125.65747975953656, 10.40974560032145], [125.6572222700786, 10.409840570085485], [125.65608500994469, 10.41041039005794], [125.65585970951913, 10.410368179602063], [125.65617085012816, 10.410199349783673], [125.65625131027213, 10.410093819740787], [125.65644442995662, 10.409935539877704], [125.6566053595723, 10.409286580192369], [125.65666973970993, 10.408822279859493], [125.65663754964112, 10.40798337037681], [125.65673946983098, 10.407402989859921], [125.65661073028406, 10.407107529916805], [125.65615475042988, 10.40657990984015], [125.65590798995845, 10.406147260098074], [125.65572022958516, 10.405704059675594], [125.65573633031984, 10.405566879721992], [125.6560045498007, 10.405134229755033], [125.65599918012538, 10.404807110231706], [125.65582216013917, 10.404696309934701], [125.65555929996948, 10.404617160174514], [125.6549423904996, 10.404590780111944], [125.6548512003327, 10.404532750354875], [125.6548512003327, 10.404332250037351], [125.65468490000522, 10.40412120022588], [125.65457761014005, 10.40370966018499], [125.65442740951089, 10.403482779614661], [125.65455078974661, 10.403377250191637], [125.65531253949806, 10.403345599815657], [125.65558612036293, 10.403292830342687], [125.65552174955305, 10.40308706038991], [125.65488338003732, 10.402654409788937], [125.65473855011992, 10.402475020132364], [125.65470099037577, 10.402248139639717], [125.654835099598, 10.40201070975776], [125.65511941981356, 10.40166775039516], [125.65525889041979, 10.401293130073837], [125.65515697022997, 10.401219269856876], [125.65471172039868, 10.401324789806408], [125.6543898601309, 10.401498910027106], [125.65426647989518, 10.401483079753522], [125.65421820049228, 10.401335340130391], [125.65425574987225, 10.401092639749715], [125.65450251034368, 10.400881589682333], [125.65443276985849, 10.400702189865713], [125.65415382035465, 10.400623049854897], [125.65381586971634, 10.400596670121178], [125.65362275003186, 10.400691640359188], [125.65360665033357, 10.400944900306609], [125.65369248015291, 10.4012034403937], [125.65384269010981, 10.40129841001492], [125.6541162699383, 10.401609710014956], [125.65421820049228, 10.402010709757763], [125.65402507977137, 10.402569990130468], [125.65398215967961, 10.403034299722313], [125.65398753039139, 10.403308659909088], [125.65407871952186, 10.403588300309636], [125.65410553991534, 10.403931260134799], [125.65387486981446, 10.404089540216967], [125.65387486981446, 10.40378880016155], [125.65380513969343, 10.403604129890622], [125.65367638978235, 10.403509160382605], [125.65354763987129, 10.403461670062839], [125.65346717972733, 10.403208409719383], [125.65325528017078, 10.402876009805489], [125.65304338994197, 10.402720359949148], [125.65274835006763, 10.402588459642319], [125.65244256980617, 10.40256471016841], [125.65234600996392, 10.402482929717257], [125.65225213962324, 10.402314089716285], [125.65202682986997, 10.402116229967922], [125.65202414969615, 10.402039730381166], [125.65235673998689, 10.401741620274839], [125.65242915960945, 10.401556950387242], [125.65262228033036, 10.401556950387242], [125.65255523038311, 10.401440869677504], [125.65234332979014, 10.401274670195964], [125.65206170011253, 10.401282579751237], [125.65199195962735, 10.401311600308699], [125.6519275898539, 10.401754809790253], [125.65183907986082, 10.401789099983704], [125.65151989043905, 10.401504179615648], [125.6511068296402, 10.401509460356822], [125.65106391991262, 10.401520009890277], [125.65097809009333, 10.401625540294813], [125.65068840953015, 10.401013490083164], [125.65042019004929, 10.400955449821463], [125.65034509025288, 10.401393379664286], [125.6502378003877, 10.401641369778826], [125.64991592975574, 10.40157805025423], [125.64946531957689, 10.401546389700005], [125.64920783011895, 10.401440869677502], [125.64912200029967, 10.401250920022816], [125.64906835951275, 10.40097656000478], [125.64891814955583, 10.400776060319421], [125.64890741953288, 10.400280090384236], [125.6491649203914, 10.399879089620601], [125.64900398041155, 10.399520299972824], [125.64899325038861, 10.39935145993956], [125.64917564005016, 10.399129859970486], [125.64963698025194, 10.399087650204413], [125.65001248959798, 10.398570569669397], [125.65016269955491, 10.39846504027083], [125.65082788013638, 10.397768569735058], [125.6508386101593, 10.396787170198913], [125.65154672016025, 10.396628880181103], [125.65166472968421, 10.396470590241467], [125.65162181995666, 10.39606959026054], [125.65139651020333, 10.395742449719084], [125.65099955013918, 10.395404769738054], [125.65079570043173, 10.395341449852266], [125.65014123950904, 10.395351999979313], [125.64955115043263, 10.39584797981462], [125.64920783011895, 10.396090689766302], [125.64898252036566, 10.396882140104768], [125.64898252036566, 10.39712485960198], [125.64890741953288, 10.39727259011487], [125.64824223998782, 10.397219829607888], [125.64825295964658, 10.397546959707888], [125.64848900045925, 10.398127359811786], [125.6485211801639, 10.398486150290095], [125.6486767504684, 10.398771070364832], [125.6485211801639, 10.398797449948287], [125.64832270013181, 10.398908249798762], [125.64816177051611, 10.399066540145515], [125.64811885042435, 10.39965221016927], [125.6480062002116, 10.399620549805308], [125.64774334004193, 10.399731360296224], [125.64751803961636, 10.39999516976462], [125.64731955958425, 10.400079590337995], [125.64713716992271, 10.400280090384234], [125.64696549991992, 10.400828819818566], [125.64718007965028, 10.401097910128184], [125.64767360992089, 10.401398659607027], [125.6477379796943, 10.40151474030149], [125.64794183043817, 10.401641369778826], [125.64838170955765, 10.401715239652424], [125.6486767504684, 10.401725789989266], [125.6489020602217, 10.401889349729329], [125.64895569997219, 10.402279789907283], [125.64912200029967, 10.402575259736603], [125.64886450980529, 10.402728279896088], [125.64888060017586, 10.403113440328656], [125.64896106964754, 10.403276999980472], [125.64898789004101, 10.403524989959676], [125.64891279024461, 10.40369382980216], [125.64895033962463, 10.40388904973625], [125.64912200029967, 10.403973469742308], [125.64938486046935, 10.40383100975027], [125.64978719020887, 10.403699100223417], [125.64984619963468, 10.403567200310261], [125.6497710905106, 10.40335615020618], [125.65008223008323, 10.403408910130162], [125.65021097999423, 10.403625240248449], [125.650361179587, 10.403794069787734], [125.65075815001535, 10.403799349770047], [125.65076888003827, 10.40388904973625], [125.65054892959616, 10.40417924026442], [125.65052747991444, 10.404416670160199], [125.65070449990068, 10.404701580372445], [125.6509459000245, 10.404944289859928], [125.65112828968604, 10.405107849649882], [125.65147160999972, 10.405113129653838], [125.65166472968421, 10.40508147034352], [125.65185249005752, 10.405340000226147], [125.65256058969429, 10.405851799720143]]], [[[125.65270542997591, 10.443811669918718], [125.652823449864, 10.443764190343579], [125.65291464003093, 10.443642850319742], [125.65313994978418, 10.443510960219562], [125.65309167038129, 10.443368520056138], [125.65278590048405, 10.442930649844046], [125.65254450036021, 10.442461119611101], [125.6523942904033, 10.442086559852807], [125.65241039010155, 10.441527349789904], [125.65263568949068, 10.441147500171086], [125.65261423980897, 10.440846800152523], [125.65268396993, 10.44052497965491], [125.65308094035834, 10.440018530324812], [125.65289854966036, 10.439691439647678], [125.65233529030517, 10.439522619837865], [125.65202951004375, 10.439575369794566], [125.65078497040882, 10.439633409894443], [125.64903079976857, 10.439622859900494], [125.64796864979519, 10.439559550383603], [125.64738393039413, 10.439559550383601], [125.64700305033632, 10.439617580123397], [125.64669192009146, 10.439733639634664], [125.6465631701804, 10.439986869948592], [125.64655780983283, 10.440350889972288], [125.64666509969801, 10.440588290159978], [125.64691186016942, 10.440704350024168], [125.64696013957231, 10.440846800152523], [125.64679384028129, 10.440778209799902], [125.6465631701804, 10.440783490392885], [125.64631104003364, 10.44121081000292], [125.64630032037488, 10.441347979754886], [125.64643442959711, 10.441580100077902], [125.64647734036112, 10.441833330263252], [125.64665973002266, 10.441907190300233], [125.64711034020148, 10.44200214970173], [125.64747511952464, 10.442049629811436], [125.64801693023455, 10.442065459703088], [125.64824223998782, 10.442186790363333], [125.64832806980716, 10.442403090151062], [125.64848900045925, 10.442519160235706], [125.64915954967965, 10.442566639625609], [125.65010905047667, 10.443099469862972], [125.65111220035193, 10.443516240061067], [125.6519973303391, 10.443816940204574], [125.65270542997591, 10.443811669918718]]], [[[125.65186322008047, 10.44384332031701], [125.65160840975989, 10.443856509975673], [125.65118193980074, 10.443935639971988], [125.65080910959203, 10.444202060105964], [125.65066962965807, 10.444355049994773], [125.65086007020516, 10.444573979629231], [125.65143943029507, 10.444951180247953], [125.6517881202841, 10.445114719874367], [125.65175593021526, 10.445286179789107], [125.65136163996074, 10.445404880103089], [125.65127849964298, 10.445484009686671], [125.65104782954205, 10.445600069737894], [125.65093517000155, 10.445605349613949], [125.65085202035607, 10.445499839748697], [125.6507501001662, 10.445436529862688], [125.65061062955998, 10.445647550382933], [125.65044165009513, 10.445586880007145], [125.65030485033493, 10.445441809736057], [125.65025926043359, 10.445133190250559], [125.65018683977456, 10.445064610130753], [125.65006077003736, 10.445017130369187], [125.64987838037577, 10.445138459761537], [125.64951628019001, 10.44569238990116], [125.64958869981261, 10.445913970352883], [125.64970939987451, 10.446003650267269], [125.65014123950904, 10.446048489835562], [125.65022707036479, 10.446088059883406], [125.65066694948426, 10.44598782018025], [125.65084934018225, 10.445979910315737], [125.65084934018225, 10.446124990392175], [125.65077691952322, 10.446320179670808], [125.6505918496879, 10.446518010209532], [125.65039336965582, 10.446644620065912], [125.65018147009927, 10.446639349733346], [125.64988105951315, 10.446755410204851], [125.6497979202318, 10.446903119826947], [125.64980595971677, 10.447087760137665], [125.64992130046753, 10.447211740227885], [125.65014123950904, 10.44728822990927], [125.65039604982961, 10.447222289675993], [125.6505918496879, 10.447161619797448], [125.65091907963102, 10.44693213974521], [125.65109342047988, 10.446897850286842], [125.65124630957416, 10.447478150349939], [125.65169691975302, 10.44713524020739], [125.65180688979198, 10.446929500194553], [125.65191685983096, 10.446866190024844], [125.65211803040098, 10.44686619002484], [125.65235405981309, 10.446779150214107], [125.65267860958244, 10.446486360342645], [125.65268396993, 10.446193569943189], [125.65257131971723, 10.446111799843], [125.65233529030517, 10.446124990392173], [125.65214752993187, 10.446378209843212], [125.65187125956544, 10.446670999615417], [125.65170764977594, 10.446715840074228], [125.65160304008455, 10.446620880066687], [125.65162181995666, 10.446359749752354], [125.65150916974385, 10.44631754012521], [125.65108269045692, 10.446525920087401], [125.6509405396769, 10.446383489732165], [125.65096467989656, 10.446222580236222], [125.65105855023727, 10.446030029763778], [125.65135360047574, 10.446030029763774], [125.65150111989473, 10.446095969750615], [125.65171837979888, 10.446127620375497], [125.65175861038908, 10.446090700223841], [125.65177739026113, 10.445948259705508], [125.6516995999268, 10.445679209727276], [125.65187663027717, 10.445476099834652], [125.65230845954757, 10.445702949656434], [125.65261155030745, 10.445626449997736], [125.65274565952967, 10.445557869771909], [125.65281271984107, 10.445449720383944], [125.65279393996899, 10.445149020295178], [125.65284759008368, 10.445030320076382], [125.65287708961449, 10.4448061102659], [125.65277249028728, 10.444682130313797], [125.65283954023451, 10.444165129819778], [125.6525981401107, 10.443954110279948], [125.6525900995893, 10.443869699634888], [125.65206706978789, 10.443872339956968], [125.65186322008047, 10.44384332031701]]], [[[125.64824626024854, 10.444686090010256], [125.64848900045925, 10.444647840300524], [125.64853593977526, 10.444588490278822], [125.64851046050512, 10.444518590112368], [125.64861237965857, 10.444515949784961], [125.64875721994014, 10.444592449974122], [125.64892352026756, 10.444558159970489], [125.6492748904304, 10.444154579676026], [125.64936607956085, 10.443932999649407], [125.64949213997036, 10.443758909701259], [125.64973890976952, 10.443571630200639], [125.64996689969662, 10.44352151034204], [125.65035312973787, 10.443365879738248], [125.65026461974476, 10.443210250007072], [125.64995079999835, 10.443154859930221], [125.6498435101332, 10.443168050357158], [125.64940899965261, 10.443263010133819], [125.64896374982133, 10.443489859975669], [125.64839779992819, 10.443352690099852], [125.6481939595485, 10.443199699894897], [125.64815371963057, 10.443094190028377], [125.64807325948658, 10.443125849916097], [125.64766556007173, 10.443437099811435], [125.64752071979015, 10.443363249777692], [125.64734101030241, 10.44320234021141], [125.64727931966632, 10.443241909906305], [125.6471854399979, 10.443400169613762], [125.64697622994288, 10.44348195017308], [125.64685552988095, 10.44348195017308], [125.64679652045507, 10.443418639890726], [125.64667046004561, 10.443590090130195], [125.64643442959711, 10.444049070290518], [125.64646929983972, 10.444194139928385], [125.64674287966815, 10.44420469963407], [125.64687967010063, 10.444307570338783], [125.64703256023134, 10.444360320289604], [125.6473007797122, 10.44437350996965], [125.64779162048124, 10.444518590112366], [125.64807861983418, 10.444661029992442], [125.64824626024854, 10.444686090010256]]], [[[125.64376830961268, 10.432505970132649], [125.64323186961451, 10.43234769033084], [125.64260959979705, 10.43236880019537], [125.64214825959526, 10.43243210988015], [125.6413757798209, 10.432664239655912], [125.64082860979977, 10.432917469940888], [125.64044237043082, 10.433487249770511], [125.64016341989057, 10.434078130236978], [125.64018487993644, 10.434690109864063], [125.64063549011527, 10.435407609905488], [125.64111829036295, 10.436346679792306], [125.64163327031522, 10.43708526983084], [125.6421697103134, 10.43763393971183], [125.6428349002226, 10.438161509847253], [125.64362884004285, 10.43852024962407], [125.64484118960897, 10.439374900087802], [125.645538569587, 10.439617580123397], [125.64596771972, 10.439269389892196], [125.64597844974293, 10.438425289664929], [125.64567804019326, 10.437538980016287], [125.64469099001623, 10.435629190388285], [125.64447641028589, 10.434700670052061], [125.64444422954485, 10.43431025961552], [125.64465879994744, 10.433824899828602], [125.64459443017401, 10.43355055967695], [125.64430474961085, 10.432938579843073], [125.64406872019877, 10.432674790216675], [125.64376830961268, 10.432505970132649]]], [[[125.6449980005044, 10.454216970084465], [125.64458900038647, 10.454849969819556], [125.64431499977282, 10.455768970298966], [125.6447640003964, 10.455807970285168], [125.6457199995266, 10.455136970248276], [125.6460900003175, 10.454350969608832], [125.64605099995403, 10.45348896971657], [125.64480299972345, 10.453009969819838], [125.6449980005044, 10.454216970084465]]], [[[125.64382732007496, 10.404137029833196], [125.64392387991721, 10.404042060167194], [125.64396143033359, 10.40378880016155], [125.6441867400869, 10.403509160382608], [125.64435303005017, 10.403340319840819], [125.64478754985849, 10.403345599815655], [125.64498602989056, 10.402955150372733], [125.64492702046472, 10.40262274992499], [125.64476608981265, 10.402427529965877], [125.64455152044643, 10.40189462968024], [125.64431012032261, 10.401794379932964], [125.64429401958789, 10.402084570157133], [125.64405262050049, 10.402385319765443], [125.64382732007496, 10.402422250006186], [125.64370393983926, 10.402258689994085], [125.64391314989427, 10.40192101031742], [125.64402043975946, 10.401293130073837], [125.64421891979151, 10.400966009692613], [125.64443349952188, 10.400812990374693], [125.64443885986948, 10.400512250208212], [125.64470172003917, 10.400005720044827], [125.64464808028868, 10.399784119623387], [125.64426183988327, 10.399673320266732], [125.64410626957877, 10.39967858982525], [125.64399362040238, 10.399884370335014], [125.64393997028772, 10.400090139824375], [125.64393460994012, 10.400359230310341], [125.64387560051426, 10.400580839892164], [125.64371466986215, 10.400591390191652], [125.64355909955766, 10.400950180241956], [125.64330161009974, 10.401213989917078], [125.64326405968332, 10.401140120159027], [125.64309238968052, 10.400987110317299], [125.64258277007582, 10.400776060319421], [125.64242721013548, 10.400786609828728], [125.64237356002081, 10.401071530355374], [125.64240038041429, 10.401498910027108], [125.64237356002081, 10.402174269643261], [125.64240575008964, 10.402554159803946], [125.64224482047393, 10.402575259736606], [125.64189075977318, 10.402554159803946], [125.64160644992178, 10.402459189810553], [125.64094662968789, 10.402643860218152], [125.64088762026208, 10.402775759751158], [125.64093052998963, 10.403134549857539], [125.64161181026938, 10.403947089732748], [125.64229309987688, 10.40410010019141], [125.64255594968238, 10.404126480213575], [125.64288317962554, 10.404094820204138], [125.64315676981815, 10.404195069874605], [125.64382732007496, 10.404137029833196]]], [[[125.63960100003297, 10.451693970110476], [125.63868500037198, 10.45215396980551], [125.63958200044054, 10.454203969622263], [125.63909400048988, 10.455161969739862], [125.64004999962013, 10.456847970349335], [125.64026399999351, 10.455832969829371], [125.63981599951214, 10.454988969983814], [125.64057599979205, 10.454184969683142], [125.63960100003297, 10.451693970110476]]], [[[125.63595772039687, 10.442814589967037], [125.63524961039592, 10.442793489769178], [125.63486338035472, 10.442730179623407], [125.63483119028591, 10.442645770098807], [125.63493848015106, 10.442329240356592], [125.63478827019415, 10.44172782005174], [125.6349170201052, 10.440693799994813], [125.63485265033178, 10.440683249965822], [125.63457369979153, 10.44079932022175], [125.63401579974754, 10.44188609016236], [125.63301801954758, 10.442265930302915], [125.63333987981538, 10.442540259618708], [125.63364029040144, 10.442677420381468], [125.63397287965579, 10.442888450231102], [125.63448786997225, 10.443732530392536], [125.6344985999952, 10.443964659620343], [125.63420892046845, 10.444755990213404], [125.63429475028774, 10.44506196979883], [125.63486338035472, 10.44585329992643], [125.63495994019696, 10.44613816978776], [125.63509940976674, 10.44641250004247], [125.63516377954022, 10.447140520108853], [125.63526034041887, 10.447393740365987], [125.63521742965492, 10.447689169830443], [125.63502430997042, 10.447836879884917], [125.63426256021891, 10.448047899602736], [125.63374758026666, 10.44813230975981], [125.63356518956866, 10.448206169661455], [125.63351154049042, 10.44836443023796], [125.63342570963468, 10.448480489743655], [125.63298583051521, 10.448343329673072], [125.63198805031526, 10.44839608029119], [125.63102244981997, 10.448311679625078], [125.6304860098218, 10.448111210006983], [125.62917709004927, 10.44810065973275], [125.62854409020885, 10.44825892025689], [125.62835096948794, 10.44825892025689], [125.62784671955856, 10.448353879955333], [125.62772869967047, 10.448501590317619], [125.6275785000777, 10.449092439621397], [125.62791109036844, 10.449641090310298], [125.62812567009881, 10.449767699812867], [125.62834024050143, 10.449831009761763], [125.62827586969155, 10.450189740349595], [125.62843680034368, 10.45030579972279], [125.62844753036659, 10.450442959840617], [125.62828659971451, 10.450643430127634], [125.62802911025656, 10.450801690320098], [125.62803984027947, 10.450959949794376], [125.62865138007403, 10.450801690320098], [125.62904835050234, 10.450653979689255], [125.6293594797108, 10.450464059747702], [125.62960624950998, 10.45041131038101], [125.63030362016025, 10.450580120017461], [125.63088298025014, 10.450643430127636], [125.63114046970809, 10.450727829817355], [125.63126921961913, 10.450875539685672], [125.63138723017947, 10.451234269855027], [125.63152671011346, 10.45138197995793], [125.63163399997867, 10.450938849854497], [125.63179492959438, 10.450516809919852], [125.63194513022351, 10.45035854986876], [125.63214897993095, 10.45041131038101], [125.632277729842, 10.45054846974749], [125.6322455397732, 10.451002149678322], [125.63225626979613, 10.45150859015168], [125.63239574040234, 10.451550799669088], [125.63228845986491, 10.451856769837988], [125.6313979602024, 10.45281689019791], [125.63133359042897, 10.453080659823694], [125.63149452004465, 10.453059559743464], [125.63307166033451, 10.452331559628288], [125.63367248047025, 10.452331559628291], [125.63387631981354, 10.452384310109379], [125.63406943949803, 10.452468719820757], [125.63420892046845, 10.452648080174024], [125.63436985008413, 10.45277469007377], [125.63471317039779, 10.452437070160062], [125.63502430997042, 10.452342110042494], [125.63534617023817, 10.452743040382716], [125.63563584976491, 10.452785239705914], [125.6357109495613, 10.452626980122433], [125.635764599676, 10.452226049928157], [125.63594699037397, 10.452046689812313], [125.63638686949345, 10.451371430372228], [125.63642978958516, 10.451170969985123], [125.6365907202373, 10.450822790250914], [125.63690185980991, 10.450696180329457], [125.63694476953746, 10.450337449968673], [125.63689112978696, 10.449999819887768], [125.63689112978696, 10.449693849907124], [125.63700914034732, 10.44829057029965], [125.6371808103501, 10.448121760281584], [125.63732800018853, 10.447814969879847], [125.63732027991995, 10.447530910385696], [125.6372559101465, 10.447172170040643], [125.6374704795127, 10.446792339994131], [125.6374704795127, 10.446623519614786], [125.63712716023544, 10.446370299969024], [125.637062790462, 10.445979910315735], [125.63710570018957, 10.445505110062449], [125.63703060039319, 10.444597720272874], [125.63710570018957, 10.444428909818676], [125.63729881987408, 10.444281190187974], [125.63712716023544, 10.44419678025313], [125.63700914034732, 10.443996310033809], [125.637062790462, 10.443700880005235], [125.63705206043907, 10.44346875973317], [125.6369554995604, 10.443352690099852], [125.63693403951453, 10.44318388030429], [125.63654780014554, 10.44287788977226], [125.63595772039687, 10.442814589967037]]], [[[125.63367248047025, 10.437269920395853], [125.63361883035559, 10.437232990114957], [125.63344181036939, 10.43720134037209], [125.63337206988416, 10.437217159666226], [125.63327551004191, 10.437301570145516], [125.63278197977135, 10.43797157981346], [125.63261032013274, 10.438071820185804], [125.63259422976223, 10.438161509847253], [125.63265324022444, 10.438335599929385], [125.63285172025655, 10.438451670128467], [125.6327498000667, 10.438609940208185], [125.6327551604143, 10.438726000149844], [125.63292682005293, 10.438752379841524], [125.63357591959162, 10.438583559731581], [125.6337529395778, 10.438483319995273], [125.63399971041343, 10.438272289871051], [125.634251830196, 10.437950479935735], [125.63442885950994, 10.437538980016289], [125.63445031955584, 10.43733849963763], [125.63461660951911, 10.437027239754581], [125.63468098965672, 10.436715980174924], [125.63465415993552, 10.436478570119336], [125.63454150972275, 10.436357229678006], [125.63456296976862, 10.43615147988188], [125.63452542038864, 10.435945730218329], [125.63442885950994, 10.435856040382548], [125.63431083962185, 10.435803279886523], [125.63414991000614, 10.435861320097434], [125.63408554023273, 10.435998480380803], [125.63394606029874, 10.436135650283457], [125.63380122001712, 10.436378330247162], [125.63381731971543, 10.436599909810079], [125.63401579974754, 10.437138029741956], [125.6340587105115, 10.437507330243095], [125.63397825036752, 10.437691969898346], [125.63382268006305, 10.43774472990971], [125.6337583102896, 10.43742291014899], [125.63367248047025, 10.437269920395853]]], [[[125.62848767090416, 10.355448326963801], [125.62836599960409, 10.35583496994182], [125.62959400010004, 10.358273969889156], [125.63142799970639, 10.358330970166753], [125.63396299949461, 10.35662097021265], [125.63360235152162, 10.355406495337956], [125.62848767090416, 10.355448326963801]]], [[[125.63370999979419, 10.362036969670063], [125.63287099968149, 10.360362969792682], [125.63045199980512, 10.358464970202375], [125.62937999972664, 10.36005597030689], [125.63035499948575, 10.362016969997924], [125.63164300022198, 10.364949970366055], [125.63236400013845, 10.365236969871233], [125.63376799975005, 10.363741969988983], [125.63370999979419, 10.362036969670063]]], [[[125.62802911025656, 10.452932949730586], [125.62819003987227, 10.45277469007377], [125.62809348003002, 10.452489819861876], [125.62794328043722, 10.452204949904493], [125.6279754601419, 10.451941180206441], [125.62830805976036, 10.451709060311877], [125.62835096948794, 10.45149803976504], [125.62825440964569, 10.451392539901565], [125.62799692018775, 10.451339780023714], [125.62744975016666, 10.451297580095076], [125.62734246030148, 10.451044359925428], [125.62717079962644, 10.450928300283438], [125.62696694991902, 10.450981049735647], [125.62681675032626, 10.451170969985125], [125.62664508965122, 10.45151915009951], [125.62645196996672, 10.452500370281326], [125.62646269998969, 10.453091219823571], [125.62654852980897, 10.453481590295914], [125.62668800041519, 10.454515569741451], [125.62675237951639, 10.454716029841272], [125.6269133101685, 10.455560090313618], [125.62687039007677, 10.455834410348787], [125.62695621989607, 10.455897710347916], [125.62710642985301, 10.455939910088722], [125.62716006960348, 10.456066519702429], [125.62720298969523, 10.456330289626905], [125.62704206007956, 10.456551850381262], [125.62624812025932, 10.456805070145137], [125.62577605003456, 10.457005530091388], [125.62522888001348, 10.457322049700986], [125.6250679503978, 10.457554160138049], [125.62503576032898, 10.457659670008308], [125.6251859702859, 10.457796830103216], [125.62551855954024, 10.45779683010322], [125.62664508965122, 10.4575963600982], [125.6272244497411, 10.45758581030682], [125.62825440964569, 10.457628019832192], [125.62856555025468, 10.45758581030682], [125.62894105960075, 10.45742754993337], [125.62923074016393, 10.45724819007777], [125.62949895964479, 10.456931669744762], [125.62960624950998, 10.456604599967234], [125.62978864020798, 10.456330289626903], [125.62979937023088, 10.45597156009719], [125.62970281038864, 10.455676139690572], [125.6297457201162, 10.455444029824472], [125.62989593007313, 10.455422930384566], [125.63006758971177, 10.4554756797837], [125.63050746986764, 10.455686699776432], [125.63076496036201, 10.455728900286063], [125.63089371027309, 10.455813299728584], [125.63102244981997, 10.455918809819249], [125.6310975599805, 10.456182579621482], [125.63095808004651, 10.456562400138415], [125.63097954009238, 10.456878920104655], [125.63115119973102, 10.457089929871964], [125.63183784035833, 10.457691320187546], [125.63203096004283, 10.457775729710784], [125.63234209961543, 10.457807379901572], [125.6324708495265, 10.457955089863317], [125.63246011950355, 10.458123900307589], [125.6323635596613, 10.45817665015377], [125.63179492959438, 10.458261050244527], [125.63063621977871, 10.459136749712993], [125.62964916027396, 10.459811989750296], [125.62945603955306, 10.460107399649445], [125.63038944997955, 10.460603279999717], [125.63088298025014, 10.460571630327978], [125.63117265977688, 10.460402820180368], [125.63133359042897, 10.460666580149413], [125.63130140036019, 10.460824839741399], [125.63096881006942, 10.461236309949234], [125.63066839948334, 10.461236309949236], [125.63036798993367, 10.46118356039325], [125.63050746986764, 10.461879890293131], [125.63052892991355, 10.462206950347392], [125.63082933013546, 10.46221750029179], [125.63105463988876, 10.462133099949673], [125.6316125399328, 10.461257409774069], [125.63190222049596, 10.460993650112632], [125.63215970995388, 10.460856490235066], [125.63250303026756, 10.46076154035703], [125.63286780959066, 10.460350069965633], [125.63288926963651, 10.460054650280375], [125.63302874957054, 10.45991749001032], [125.63328624006488, 10.459833090277572], [125.63356518956866, 10.459695930102894], [125.6338441401089, 10.459073449867242], [125.63383341008596, 10.45878857960301], [125.63377975997128, 10.458651430235776], [125.6339299699282, 10.458514269773017], [125.63403725979342, 10.458292710044557], [125.63388704983646, 10.457944540060062], [125.63367248047025, 10.457258739857952], [125.63368320012903, 10.456720660082246], [125.63360810033268, 10.456446340081033], [125.63347935974937, 10.456509649762681], [125.63325404999604, 10.456994980319568], [125.63300728952463, 10.457058279752447], [125.63241720044823, 10.457016079863543], [125.63169836975212, 10.45658349965375], [125.63156961984104, 10.456256430233523], [125.63182711966317, 10.456055969961687], [125.63183784035833, 10.455876610081232], [125.63164473000158, 10.455686699776432], [125.63155890018227, 10.4554545803417], [125.63003539964296, 10.45503255036421], [125.62993883980072, 10.454895389865419], [125.62959551948704, 10.45470548014523], [125.62933803002909, 10.455053649778272], [125.6291663600263, 10.455211909769702], [125.62891959955489, 10.455560090313622], [125.62855482023177, 10.45546513006252], [125.62845826038952, 10.455285769717799], [125.62827586969155, 10.454716029841272], [125.6281793098493, 10.45422014988749], [125.62834024050143, 10.453724260347412], [125.62889813950905, 10.453281130175597], [125.62873720989334, 10.453059559743464], [125.62868357014283, 10.452837999822949], [125.62845826038952, 10.452837999822945], [125.62824367962276, 10.45292240009356], [125.62802911025656, 10.452932949730586]]], [[[125.61811899974641, 10.432506969977617], [125.61811899974641, 10.430685969860944], [125.61755400024742, 10.430704969994514], [125.61749500014932, 10.432410969737242], [125.61811899974641, 10.432506969977617]]], [[[125.61320499955109, 10.4349399701406], [125.61299000007192, 10.43618596975049], [125.61410199961963, 10.436568969989098], [125.61616900022823, 10.43486397019893], [125.61646100029212, 10.433540969897576], [125.61482299953609, 10.433502970090917], [125.61320499955109, 10.4349399701406]]]]}}]}