{"type": "FeatureCollection", "features": [{"type": "Feature", "properties": {"source": "Tang & Werner 2023", "polygons": 4}, "geometry": {"type": "MultiPolygon", "coordinates": [[[[120.6661087299178, 16.251197180094785], [120.66645205023148, 16.251583429764533], [120.66705287036723, 16.252170539913312], [120.66754639027364, 16.252520740327874], [120.6675571202966, 16.252422890114797], [120.66749274948673, 16.25231474010627], [120.66733180950688, 16.252196290318892], [120.6672191603305, 16.252026339823555], [120.66684364994804, 16.251073580258943], [120.66689730006271, 16.249842700040077], [120.66697776020669, 16.249271039677627], [120.66701530958667, 16.248709669991637], [120.66709578009481, 16.248359459886675], [120.66705822967839, 16.248024699824768], [120.66744447008384, 16.247787799652745], [120.66753029990313, 16.247849599777165], [120.66805064953074, 16.247659039870893], [120.66824377025169, 16.24772598975988], [120.6683456904415, 16.24758694020354], [120.6683456904415, 16.247396379729953], [120.66838860949683, 16.247210979830385], [120.66861927959773, 16.24693287010554], [120.66869438043052, 16.246469350128283], [120.66849589003427, 16.24579981971006], [120.6684851600113, 16.244996390221218], [120.66841006021495, 16.244553470324927], [120.66853344045064, 16.244543160276237], [120.66876410951512, 16.244589520020742], [120.66935419962796, 16.244749169683264], [120.6695204999554, 16.24474916968326], [120.66963315016818, 16.244707970231826], [120.66967607025992, 16.244574070033813], [120.66956878039471, 16.244476209813026], [120.66941857043784, 16.244398959933566], [120.66916644961881, 16.244316549763806], [120.6688606703938, 16.24395603971849], [120.66870511045343, 16.243523410082428], [120.66871046976463, 16.243410110261014], [120.66907525012417, 16.24342040964898], [120.66903769970774, 16.24319894029962], [120.66927373015622, 16.24319894029962], [120.67013203974994, 16.243322549988132], [120.6703788002214, 16.24339466036444], [120.6707382202333, 16.243605819928007], [120.67139268011954, 16.243698520237857], [120.67147850993888, 16.24347706037022], [120.67143558984715, 16.243317400296583], [120.67121564976922, 16.243018680078517], [120.67091524954726, 16.24285386987251], [120.67061483999761, 16.24276631962832], [120.67044318035897, 16.24261180979085], [120.67017495984169, 16.242508800035914], [120.6701910502122, 16.242040129967613], [120.67065239041399, 16.241782609671393], [120.67092597024248, 16.24172596024178], [120.67082405005262, 16.24161265001203], [120.67052364050296, 16.241416939832703], [120.67051291048, 16.241231520147995], [120.67074357954448, 16.241216069602768], [120.67092060989486, 16.24129848013658], [120.67108153951054, 16.241422090291312], [120.67126393020854, 16.2412727303074], [120.67133366965732, 16.2412521301202], [120.67161262019752, 16.241283030401796], [120.67200958958948, 16.24150963995189], [120.6723529099031, 16.24187017009119], [120.67278742971142, 16.24189077034153], [120.67307173956283, 16.24196802007567], [120.67317367011682, 16.242112230098197], [120.6731629400939, 16.24226158988829], [120.67346334031582, 16.242261589888287], [120.67351699043049, 16.24233883976449], [120.67343115957478, 16.24259635995544], [120.6730556502287, 16.242925980081214], [120.67309319960867, 16.243101089717822], [120.67338823948303, 16.243580069804207], [120.67342578989944, 16.243811830008536], [120.67360817956099, 16.244203250312328], [120.6735491804993, 16.244362910271825], [120.67320049051031, 16.244687369693672], [120.67296444969764, 16.245032439996237], [120.67314684039565, 16.245063340041543], [120.67336678980132, 16.24519209979676], [120.67352234974169, 16.245305399803918], [120.67360282024983, 16.24540841017201], [120.67353307976462, 16.245768920367464], [120.67368328972152, 16.24576892036746], [120.67383884966186, 16.24571742038621], [120.67396224026176, 16.245593810045065], [120.67399978964174, 16.24540324982428], [120.6741499902709, 16.24521785012646], [120.67444503014524, 16.24499639022122], [120.67487418960597, 16.24487793005343], [120.67505120959218, 16.244790379745975], [120.67526579035899, 16.24474916968326], [120.67539454026999, 16.244857330313515], [120.67536770951239, 16.24521785012646], [120.67521750991962, 16.24542900996823], [120.67491710036994, 16.24547536012915], [120.67468643026908, 16.24545476032819], [120.67458451007923, 16.24553200979656], [120.67460060044974, 16.24572257013907], [120.67456305003336, 16.245820420361884], [120.67462206049561, 16.24583586962874], [120.67497075048463, 16.24625304024593], [120.67477762976372, 16.246598100178513], [120.67478299011131, 16.246819560211986], [120.67498147014338, 16.24700497035456], [120.67499220016634, 16.247092519992535], [120.67484199953718, 16.247262480193175], [120.67475080004253, 16.247319130362797], [120.67465960987559, 16.247458190337383], [120.67469716029198, 16.247581790403075], [120.67478299011131, 16.247633290044988], [120.67531406976187, 16.247473639729733], [120.67567348044608, 16.247324280156544], [120.67612946030026, 16.247200680248756], [120.6761026399068, 16.247489089938888], [120.6759953500416, 16.24784959977716], [120.675989989694, 16.24812256013685], [120.6760811798609, 16.248112259693038], [120.67624211051303, 16.247937149781954], [120.67676246014067, 16.24757663978711], [120.6769824002186, 16.2475714899869], [120.67710042010673, 16.247602389605774], [120.67729890013884, 16.247519990360747], [120.6769824002186, 16.24696376962652], [120.67710578045433, 16.246793809677715], [120.67722917001781, 16.246701110391495], [120.67738472995812, 16.24667021009516], [120.67752957023968, 16.246402399841045], [120.67768513950779, 16.246361200051755], [120.67781389045527, 16.246283939662717], [120.67809283995908, 16.246026430258436], [120.6784415195839, 16.24583586962874], [120.67905306974264, 16.245640170031177], [120.67925692048648, 16.245815269790924], [120.67925692048648, 16.246134589942695], [120.67921400039472, 16.24638179994534], [120.67903160969676, 16.246659909725555], [120.67892431983157, 16.24735002994299], [120.67935348032873, 16.246938019889438], [120.67987919030394, 16.246639309803555], [120.6801474097848, 16.24665990972555], [120.68004011991964, 16.247308829960037], [120.68052292016726, 16.247298530373417], [120.68083405041213, 16.247041019673137], [120.68128466991872, 16.24628909024565], [120.68161726020945, 16.245980079970824], [120.6820249596243, 16.24583586962874], [120.68264723047821, 16.245794669955238], [120.68315148040756, 16.245959480118273], [120.68367719971053, 16.246350889910616], [120.68364500964172, 16.247195529642532], [120.6838059402938, 16.24733973035426], [120.68418144963987, 16.24733973035426], [120.6844925902489, 16.24741182993319], [120.68463205981875, 16.247628140243332], [120.68464278984166, 16.248194659995775], [120.68475007970684, 16.248472769830194], [120.68506122031586, 16.248699370333437], [120.68534016981968, 16.249028980047132], [120.68611264026629, 16.249286490024556], [120.68647741958942, 16.249276190336886], [120.68699240990588, 16.24875088004835], [120.68706750970226, 16.24846247018413], [120.68692802976825, 16.2476487402664], [120.68692802976825, 16.247401530341307], [120.68704604965637, 16.247041019673137], [120.68719625028554, 16.246855610313013], [120.68726063042317, 16.24661870988365], [120.68709969977104, 16.246412700197485], [120.68655252042221, 16.245959480118273], [120.68635941006546, 16.245475360129156], [120.68629502992788, 16.245022139710322], [120.68604827049286, 16.244805829749502], [120.6853723495243, 16.244785230016948], [120.6854367296619, 16.244548309999082], [120.68503976027, 16.243950880223544], [120.68448186022596, 16.242931129762773], [120.68426728049559, 16.242313089802465], [120.68424582044975, 16.241777460019172], [120.6844925902489, 16.24134483016362], [120.68505049029292, 16.24097400985585], [120.68579077999851, 16.240170549844102], [120.68645596990771, 16.23932588978787], [120.68684219994896, 16.239016869793968], [120.6868851200407, 16.23856362963603], [120.68677783017553, 16.238100089748606], [120.68645596990771, 16.237657159715713], [120.68584441974903, 16.237461440325422], [120.68513632011225, 16.237409940018953], [120.68411707986643, 16.237286329876405], [120.68299054975543, 16.23681248000846], [120.68266868948763, 16.236719779601394], [120.68221806998105, 16.236709479740032], [120.68196057948673, 16.236740380141274], [120.6816762696353, 16.236580709904736], [120.68141341050202, 16.236307739885174], [120.68064094005538, 16.23598841001021], [120.68052828051488, 16.235885400375714], [120.680463909705, 16.235499109821394], [120.68068384978294, 16.235138579651906], [120.68123101980404, 16.23484499981735], [120.68127393989582, 16.234299050164516], [120.68066776044886, 16.233948809626025], [120.68054973952431, 16.233691280086255], [120.68048000007556, 16.233341050389484], [120.68030834043692, 16.23328953971703], [120.68015813980773, 16.233382249965768], [120.67994356007739, 16.233603729741215], [120.6796753395601, 16.234031219637508], [120.67957342040667, 16.234278449873944], [120.67911208020489, 16.234396910340802], [120.67842543024979, 16.234371149974777], [120.67804991986732, 16.234572019912886], [120.67782997978941, 16.23448447000123], [120.67748128980037, 16.234422660107807], [120.67720770997191, 16.23458747973598], [120.67673563974719, 16.234304199625825], [120.67642986984993, 16.233984869659857], [120.67612409995269, 16.233897310216268], [120.67565202972794, 16.233912760200926], [120.67557156025623, 16.233371950274805], [120.67533016013242, 16.233238039659977], [120.67516923051674, 16.233196830326445], [120.67485808990769, 16.23338740021922], [120.67462206049561, 16.234082729683752], [120.67437530002421, 16.234190890302937], [120.67395151023881, 16.234139380229063], [120.67382276032781, 16.234000319651233], [120.67365646000032, 16.233371950274805], [120.67354380978756, 16.23324318990976], [120.67316830044152, 16.233191680077844], [120.67269623021677, 16.2331762301484], [120.67259431002691, 16.233495559650084], [120.67324340023787, 16.233552219817255], [120.67341505987648, 16.23368098037951], [120.67349553038461, 16.233799450282298], [120.6735491804993, 16.23406211962853], [120.67387103973068, 16.23501497008557], [120.67413389990037, 16.2351282798713], [120.67428945984074, 16.234757440000468], [120.67447185986644, 16.234927410194917], [120.67485808990769, 16.234778050126724], [120.67491710036994, 16.234515370061654], [120.67513168010034, 16.234314500179945], [120.67523896996552, 16.234402059804605], [120.67507266963803, 16.234994369721885], [120.67517995950324, 16.235051019707612], [120.67537308022415, 16.23527764019876], [120.67504047956923, 16.23557121984734], [120.67479372013425, 16.23630259037275], [120.67475080004253, 16.23656011019674], [120.67441820975176, 16.23660132021728], [120.6744343001223, 16.237126660023307], [120.67468643026908, 16.237533550237234], [120.67480981050475, 16.237816820201818], [120.67483664022598, 16.238203099698474], [120.67471862033786, 16.238208250075008], [120.67469179994438, 16.238069189954658], [120.67443966979766, 16.23784257040535], [120.67410170983158, 16.23770866008531], [120.67376911954084, 16.237688060262112], [120.67356526983342, 16.237713809633647], [120.67326486028377, 16.237955880148185], [120.67242265038833, 16.23765201016882], [120.6722295296674, 16.237693209809926], [120.67224025969033, 16.237914679637843], [120.67212760014982, 16.237966180073176], [120.67169308966925, 16.237708660085307], [120.67118883041213, 16.237626250202695], [120.67001401986185, 16.237646859806482], [120.67001401986185, 16.23811554984208], [120.66987990960317, 16.2381773502645], [120.66978334976092, 16.238146449643143], [120.66907525012417, 16.237358429938723], [120.66847444035255, 16.23699789970857], [120.66814721040944, 16.23669401975433], [120.66794335966559, 16.23684339021236], [120.66807210024885, 16.23713695990597], [120.66798091008197, 16.237394489766448], [120.6683456904415, 16.2378631702443], [120.66851198973252, 16.23833701034678], [120.66879094027277, 16.23842457008625], [120.6688660400691, 16.238749050130295], [120.6688606703938, 16.239130180196504], [120.66904306005534, 16.23930528979952], [120.66803991950783, 16.23974822018939], [120.66797554040666, 16.240041790032983], [120.66782533977747, 16.240113900051753], [120.66751956988017, 16.240196300348146], [120.66733718021862, 16.240376570280173], [120.66703676963255, 16.24042806971298], [120.66689193038741, 16.240361119800433], [120.66681682955456, 16.239758520205925], [120.66669880966644, 16.239691569700067], [120.66622138013055, 16.23973276975778], [120.66600680040021, 16.23970186971371], [120.66584051043695, 16.239583410209402], [120.66574394955825, 16.239248629647623], [120.66558838029017, 16.239001420233965], [120.66534161981876, 16.238805700354874], [120.66469252028007, 16.238414270137834], [120.66452621995265, 16.238440019602056], [120.66436529033695, 16.23868209017256], [120.66397904993151, 16.2387541997052], [120.66410779984257, 16.238944760167428], [120.66424191010124, 16.239320740198362], [120.66425800047176, 16.23961431023532], [120.66417216961601, 16.239815179685483], [120.6639683199086, 16.239943940167525], [120.66385031038465, 16.239959389799708], [120.66371620012603, 16.239882130232377], [120.66366255001134, 16.23971216972788], [120.66360891026082, 16.239233180069867], [120.66354454048738, 16.239140480181455], [120.66338897018285, 16.23916622973839], [120.66330314036357, 16.239253789837846], [120.66342114988753, 16.23939284995934], [120.66330314036357, 16.240206600387562], [120.6634908903727, 16.24038171989664], [120.66371083045065, 16.24049503025037], [120.66398441960686, 16.240458969868314], [120.66438675038282, 16.240247810337536], [120.66482127019113, 16.239902730279642], [120.66491783003337, 16.239928479933898], [120.665051940292, 16.240170549844105], [120.6649339204039, 16.24068558991066], [120.66477835009937, 16.24097916030315], [120.66480517049284, 16.241082170092316], [120.66510021969492, 16.24124183002737], [120.66539525956925, 16.24121091996501], [120.66573857988293, 16.241349979804802], [120.66580296002053, 16.24155085016812], [120.66585124045986, 16.2419268203769], [120.66633940001871, 16.24189591999665], [120.66667199030942, 16.2419216699054], [120.66680074022045, 16.24196802007567], [120.66691874974443, 16.242096780301065], [120.66694558050207, 16.242277039698045], [120.66673099973528, 16.242622109953647], [120.66641986016266, 16.242972329666735], [120.66629111957936, 16.24321439996837], [120.66638768045803, 16.243337999879166], [120.66642522983801, 16.243492510273107], [120.66622138013055, 16.243837580161937], [120.66619455973711, 16.244059039609954], [120.6663125796252, 16.244254749906823], [120.66650568998197, 16.24438865968001], [120.66665053026357, 16.244563769771304], [120.66709041974721, 16.244769780015005], [120.6671011404424, 16.24489338006366], [120.66658080014254, 16.244898529795464], [120.66641449981505, 16.24499639022122], [120.66659153016545, 16.24515604020592], [120.66660224982422, 16.245331150148097], [120.66677391982698, 16.24577407012163], [120.66673099973528, 16.245985229730383], [120.66682755957753, 16.246160340392752], [120.6667792801746, 16.24631998966796], [120.66675782012872, 16.24671655972584], [120.66645740954263, 16.24678351011741], [120.666216019783, 16.246690810020308], [120.66580832036813, 16.24637665017566], [120.66547573007742, 16.246227289784002], [120.66518067983888, 16.246222140018272], [120.66491783003337, 16.2463354397887], [120.6645476799985, 16.246371500406102], [120.6638717704305, 16.2465877998126], [120.66370010042772, 16.246608399729332], [120.66324949024889, 16.246598100178517], [120.66286861951885, 16.246489950032927], [120.66300272977745, 16.24669595979803], [120.6632924103406, 16.246989520182503], [120.66346406997923, 16.247025570313927], [120.66412389021313, 16.24699466996786], [120.66452085960503, 16.247061619636177], [120.66473544037181, 16.247159480296336], [120.66504656958026, 16.24720068024876], [120.66535771018924, 16.247283080178875], [120.66556692024432, 16.24750968994774], [120.6655991103131, 16.247715690151942], [120.66508411999668, 16.248065909741445], [120.66477298975181, 16.248354310066457], [120.66449939955918, 16.248668469730784], [120.66405952043965, 16.248920830228567], [120.66371620012603, 16.24903412988458], [120.66379666026997, 16.249204090091098], [120.66413462023604, 16.249142290367026], [120.66446721985453, 16.24912684003114], [120.66492856005631, 16.248761179709163], [120.66509485001959, 16.248565469931137], [120.66558300957843, 16.248550019639474], [120.66575467958121, 16.248627270293987], [120.66585124045986, 16.248756029878685], [120.66591023952155, 16.24900837988302], [120.66578686032229, 16.249245289645806], [120.66570640017828, 16.24990964983873], [120.66561519964719, 16.25037315978337], [120.66556155989672, 16.25045556019476], [120.66550121481278, 16.250754856927507], [120.66530942974994, 16.25061522021258], [120.6646227797949, 16.251006620286088], [120.66381812031581, 16.251840939743225], [120.66324949024889, 16.251861540196867], [120.6624019096417, 16.25213963959409], [120.66115737000678, 16.253252049992955], [120.66066383973616, 16.253777349991932], [120.6602776096949, 16.253797949827874], [120.65966605953625, 16.253890649931346], [120.65919399034796, 16.254117250001308], [120.65888286010309, 16.254632249847496], [120.65834640974073, 16.255126650220483], [120.65774559996916, 16.255353250049197], [120.65684437961146, 16.255590140354823], [120.6558573201067, 16.25636264014759], [120.65515995049283, 16.257073330142475], [120.65480590015625, 16.257681019816697], [120.65449475954726, 16.258309309989983], [120.65431236988566, 16.258844889909216], [120.65421581004341, 16.258937589887967], [120.6535291704525, 16.25886549026332], [120.65269231986827, 16.258710999893783], [120.65238118029568, 16.25875219976107], [120.65250993020672, 16.259112689782967], [120.65327167995818, 16.25978216981771], [120.65411925020119, 16.260348650332748], [120.65465569019933, 16.260369250024976], [120.65525114998754, 16.25992120984521], [120.65550326977012, 16.259591619833735], [120.65615772965641, 16.259164189924988], [120.65644204987194, 16.25906633974796], [120.65676927981507, 16.25909209021924], [120.6570857797353, 16.25932898002745], [120.65727352974442, 16.259040590095648], [120.65798700009297, 16.25851014994779], [120.65822302950507, 16.258494699709274], [120.65837859980954, 16.2586749501188], [120.65894186020118, 16.25918992980515], [120.65919936002328, 16.2585925496086], [120.65921009004622, 16.25838654970411], [120.65991282000766, 16.25799000969797], [120.66035806983892, 16.257799470381535], [120.66068529978202, 16.257711920170113], [120.66152215036631, 16.25782006981307], [120.66155969974629, 16.257634670111106], [120.66166698961148, 16.257382319907315], [120.66170454002786, 16.257083630228692], [120.66181182989305, 16.256887930312086], [120.66209078043323, 16.256851880047673], [120.6627667003654, 16.25716603012165], [120.66311001964266, 16.257418370266645], [120.66317439045251, 16.25793850985613], [120.66333532006819, 16.25793850985613], [120.66360353954907, 16.257124829763118], [120.66378593024706, 16.2570321298029], [120.66435456031401, 16.2570321298029], [120.66477298975181, 16.25713512985197], [120.66506267031497, 16.256929129806508], [120.66542744963806, 16.25674373010882], [120.66587805981693, 16.256898230388813], [120.66601753042315, 16.25650684007808], [120.66606045051488, 16.255796139846808], [120.6660282604461, 16.255559240326836], [120.66586732979397, 16.255126650220486], [120.66563129001776, 16.254930949757853], [120.66527723968113, 16.254549850175167], [120.66537379952338, 16.254446849816482], [120.66578149997468, 16.254323249618704], [120.66584586974813, 16.25416874968201], [120.66556692024432, 16.253797949827867], [120.66565275006363, 16.253282949667103], [120.66598534968209, 16.252912149811714], [120.66632866999576, 16.252829740239502], [120.66673636008285, 16.25278853995203], [120.66704749965548, 16.25257223960054], [120.66692947976736, 16.252222039912127], [120.6661087299178, 16.251197180094785]], [[120.66560241222501, 16.250828537574495], [120.6656688497619, 16.250862420213497], [120.6661087299178, 16.251197180094785], [120.66560241222501, 16.250828537574495]]], [[[120.65081477002876, 16.278845999848006], [120.65141559016455, 16.279288840178133], [120.65179109951059, 16.279474219852798], [120.65219878959768, 16.279525709705254], [120.65304637020488, 16.279463920252386], [120.65353990047547, 16.27950510968396], [120.65397977959495, 16.27887689039846], [120.65258503000308, 16.27782642019829], [120.65207005005081, 16.27749685960292], [120.65094351993982, 16.27663175979639], [120.65034269980404, 16.276044730048888], [120.64962387014432, 16.275488589597103], [120.64870118974078, 16.27487066019302], [120.64790726028468, 16.27446900004191], [120.64704894965456, 16.273789269744167], [120.64643740986003, 16.273480299664687], [120.6459009594977, 16.273305219902767], [120.64546108037823, 16.27308893993081], [120.64486026957019, 16.273016840132733], [120.64434528029015, 16.272996249750733], [120.64409851981874, 16.273161029966094], [120.64416288959215, 16.2734700003711], [120.64459205008933, 16.273727469817118], [120.64498901015348, 16.27391285986651], [120.64543962033231, 16.27402614013832], [120.64612627028741, 16.274324810087094], [120.64656615044332, 16.274613180311352], [120.64728498010304, 16.274963349605017], [120.64755320994807, 16.275169319975074], [120.6477785103736, 16.275365000138407], [120.64775705032775, 16.275838749809694], [120.64798236008106, 16.276044730048888], [120.64814328969676, 16.27660087040638], [120.64829349965369, 16.276786250051423], [120.6485402601251, 16.277187900145034], [120.64886212039288, 16.277404169839542], [120.64910889019205, 16.277465970080094], [120.64976335007832, 16.277950010353194], [120.6501925002113, 16.278135379821006], [120.65081477002876, 16.27886659001289], [120.65081477002876, 16.278845999848006]]], [[[120.62595605961145, 16.267826070032548], [120.62641739981323, 16.265992790318837], [120.62722206032869, 16.265210040365105], [120.62759756967473, 16.265014349681532], [120.62766194048461, 16.26459206991826], [120.62788725023786, 16.264087399701786], [120.6282198394922, 16.26360332016932], [120.62856317017003, 16.263016250110784], [120.62870263973986, 16.26269696030164], [120.62889576046074, 16.26210988962264], [120.6295716803929, 16.26140951968567], [120.6297862497591, 16.26104902963132], [120.62936782964906, 16.25953498008008], [120.6287240997857, 16.258010609964646], [120.62824129953808, 16.257248420260456], [120.62781215044149, 16.256815829789716], [120.62702893960774, 16.256434739692118], [120.62609553021771, 16.25615664007637], [120.624207259683, 16.256094839851382], [120.62284470015993, 16.256342040049436], [120.62244772973159, 16.255827039911125], [120.6218683696417, 16.255631340399503], [120.62139630045341, 16.25560044036521], [120.62094569027457, 16.255868240004254], [120.6199479100746, 16.256857030085055], [120.61940074005355, 16.2575677201927], [120.61874628016726, 16.257825219875205], [120.61805963953992, 16.257629520053854], [120.61756611030576, 16.25784581033714], [120.61722278999211, 16.25850499986815], [120.61693311046535, 16.258824290372885], [120.6167507197674, 16.26008086023509], [120.61643958019476, 16.26063703969041], [120.61593533026543, 16.261213819644553], [120.61580658035435, 16.2617803001079], [120.61612843958576, 16.262357080073485], [120.61583877042318, 16.26273816016859], [120.61583877042318, 16.263108950378133], [120.61602116008474, 16.263572419727705], [120.6162893795656, 16.263809309911732], [120.61678290050844, 16.264077100073077], [120.61738371960782, 16.264540570019587], [120.61756611030576, 16.26515854030836], [120.61804890951701, 16.265580819628273], [120.61875701019022, 16.265982489776977], [120.61910033050385, 16.266724050199763], [120.62003373989391, 16.267630389857416], [120.62049508009571, 16.26785697031126], [120.62093496025163, 16.268227750370688], [120.62185763961875, 16.268495530094842], [120.62265158047543, 16.26854702040108], [120.62313437035893, 16.268680909615288], [120.62387466006452, 16.269123779781545], [120.62469005993066, 16.26880449986369], [120.62570930017645, 16.268196850035043], [120.62595605961145, 16.267826070032548]]]]}}]}