{"type": "FeatureCollection", "features": [{"type": "Feature", "properties": {"source": "Tang & Werner 2023", "polygons": 6}, "geometry": {"type": "MultiPolygon", "coordinates": [[[[119.95737522996133, 15.984604009878222], [119.9576809998586, 15.984854119641094], [119.95783388998933, 15.98485411964109], [119.95795995039879, 15.984928899789017], [119.95822548970588, 15.98548070031652], [119.95840520023006, 15.98555289037399], [119.95858222021627, 15.985555470103561], [119.9587324301732, 15.9854858499991], [119.95911598004064, 15.985470379773059], [119.95924472995168, 15.985509060227747], [119.95976507957931, 15.985867470184768], [119.96014058996178, 15.98562250968664], [119.96055901007182, 15.985135179881764], [119.96063410986822, 15.985006249912106], [119.96059120014064, 15.984838650277267], [119.96064215971737, 15.984640109636837], [119.96081649952974, 15.98444671965966], [119.9607199396875, 15.98434357993357], [119.9604383100099, 15.984436399982792], [119.96034443034146, 15.984423510365804], [119.96025324017455, 15.984155349659883], [119.96010839989299, 15.984052210080309], [119.95984285954951, 15.984080569793997], [119.95967388008467, 15.984052210080309], [119.95963900984205, 15.98381239976174], [119.95956659021951, 15.983740210316913], [119.95948343953758, 15.983711840061012], [119.9592474101255, 15.983732470382225], [119.95910793951924, 15.983582919946233], [119.9589631002741, 15.983518450144533], [119.95817989047676, 15.983490089694016], [119.95786338952016, 15.983221919619231], [119.95773196047172, 15.983219349693675], [119.95761931025895, 15.983325059595824], [119.95742351040066, 15.983325059595824], [119.95738327981044, 15.983157459705664], [119.95716333040477, 15.982920239904315], [119.95697290022181, 15.982850619879814], [119.95684147013696, 15.982894450272498], [119.95658397964259, 15.983077529766813], [119.95633720984344, 15.983332800329697], [119.95641232000398, 15.983461730061958], [119.9562486998503, 15.983778879856024], [119.9562513800241, 15.984111510037575], [119.95638817978433, 15.984299740271043], [119.95701849012316, 15.984457030376884], [119.95732157984665, 15.984454449846563], [119.95737522996133, 15.984604009878222]]], [[[119.9572867199682, 15.953324319893804], [119.95729476048959, 15.953597679618754], [119.95741278037771, 15.953726629772836], [119.95745300993147, 15.954363610351601], [119.95741545951512, 15.954693709640829], [119.95745300993147, 15.954840710186275], [119.95757102981959, 15.954923229652966], [119.95746642012821, 15.955026389620704], [119.9573805903089, 15.95517854014094], [119.9573644999384, 15.955302330144688], [119.9566993100292, 15.955830999727146], [119.95670199020299, 15.955957359708224], [119.95679586987144, 15.956047620142922], [119.95684683048455, 15.956075989833877], [119.95686561035663, 15.955988310373646], [119.95712309981458, 15.955926419635286], [119.95727062026992, 15.955921260106363], [119.95743154988563, 15.956008940352426], [119.9575683496458, 15.956008940352426], [119.957608580236, 15.955763950325638], [119.9578902099136, 15.955650479902147], [119.95808600977192, 15.955415800375931], [119.95820134948622, 15.955534430188939], [119.95836496031214, 15.955557640289227], [119.95866000951419, 15.955392590291666], [119.95895237025114, 15.955312640212716], [119.95920717953528, 15.95529458965316], [119.95940833974117, 15.955196589875854], [119.95942174993789, 15.954969649718091], [119.95949954027222, 15.954786549677877], [119.95968997045519, 15.95460602995594], [119.95981067051711, 15.954546710014968], [119.95983750023831, 15.954389399657622], [119.95993136954259, 15.954224349783916], [119.95993674025435, 15.954036090111705], [119.95984823026124, 15.953920039681286], [119.95974629970726, 15.953847829797505], [119.95933860962015, 15.953814309896956], [119.95923399992874, 15.953754990184507], [119.95900332982787, 15.953538369742116], [119.95902210037217, 15.95342488995979], [119.95927155034515, 15.9531154297268], [119.95929301039102, 15.952883320198008], [119.95914548993564, 15.95274663995071], [119.95888799011357, 15.952710540098414], [119.95878875009753, 15.952591910286602], [119.95873511034698, 15.952465540158308], [119.95868682990766, 15.952166379877907], [119.95855807999659, 15.951965229624735], [119.95842934044971, 15.95185433001716], [119.95767295000944, 15.951797599949025], [119.95754153028876, 15.951890440306693], [119.95745032975768, 15.952009069713617], [119.95742618953803, 15.952187020060656], [119.95735108974166, 15.952341750234398], [119.95725721007324, 15.952442330407225], [119.957297439627, 15.952535170241685], [119.95742351040066, 15.952537750370842], [119.95755761962289, 15.952635749694723], [119.95754956977372, 15.952674429664775], [119.95725989024697, 15.9528936399179], [119.95725452989942, 15.952981319686664], [119.9573242703846, 15.95319020971735], [119.9572867199682, 15.953324319893804]]], [[[119.95660275018695, 15.986976220164197], [119.95668321965863, 15.986759620054944], [119.95688974953988, 15.986396059647705], [119.95703190964765, 15.986223300215599], [119.95737522996133, 15.986099529849216], [119.95786874986773, 15.98601444010755], [119.9580135901493, 15.9860196003929], [119.9585553998228, 15.986246509713148], [119.95881289031715, 15.986396059647705], [119.95898724049376, 15.986429579981184], [119.95916963015533, 15.986292919755842], [119.959330559771, 15.986104690136715], [119.95925009029929, 15.985916459875806], [119.9589255498577, 15.985668930177484], [119.95870560045196, 15.985661190170008], [119.95866268968801, 15.98572822978765], [119.9585607601704, 15.985774639713057], [119.95822012003052, 15.985730810333992], [119.95799214046758, 15.985627669962124], [119.95761394991135, 15.98522541974924], [119.95741278037771, 15.985070710406704], [119.9569460705006, 15.985050089725659], [119.9566912695078, 15.985081030115502], [119.95602070992325, 15.98527698982754], [119.95562911020664, 15.98529762030618], [119.95550572997094, 15.985276989827536], [119.95538502990901, 15.98519448015218], [119.9553742998861, 15.985091340050033], [119.95504438976916, 15.984776770389947], [119.95464206002964, 15.984776770389947], [119.95443821032222, 15.984941790252323], [119.95423168044101, 15.9852718401502], [119.95410292949353, 15.985578680340073], [119.95396077974993, 15.98555547010356], [119.95384007968799, 15.985800429707053], [119.95357721951828, 15.985907440174074], [119.95346992965312, 15.985919039609957], [119.95333180017019, 15.985863600177252], [119.95322719047884, 15.98586360017725], [119.95306223956604, 15.985907440174074], [119.95288387016515, 15.985908719858983], [119.95277390012618, 15.98586747018477], [119.95242521013718, 15.985636689651564], [119.95212212041373, 15.985594149759724], [119.95196521002228, 15.985632830237755], [119.95157629047952, 15.985849420196637], [119.95113909049738, 15.985862309903233], [119.95070456965267, 15.98602991037464], [119.95049134037338, 15.986051830389648], [119.95046451997987, 15.986127899620838], [119.95050742970746, 15.986307099767105], [119.95042293997506, 15.986639720201536], [119.95005548047813, 15.986679690341353], [119.94998305981916, 15.986739000018636], [119.94978994013466, 15.986772519593604], [119.94973630038412, 15.98681892975535], [119.9496907001186, 15.986940119994333], [119.94947076004065, 15.987069039775822], [119.94935005997871, 15.987195389662983], [119.94935005997871, 15.987283049871095], [119.94966655989894, 15.987440339821374], [119.94984359024933, 15.987636300158751], [119.95022982029059, 15.987896730212077], [119.95044976036853, 15.987986969665618], [119.9506777502956, 15.988025649780413], [119.9509593799732, 15.988200989679266], [119.95101034991409, 15.988190669813475], [119.95137781044741, 15.98871926037762], [119.95151191966964, 15.988845599877534], [119.95208859025799, 15.989100870289219], [119.95275109999342, 15.98917048021691], [119.95310783050381, 15.98930713991634], [119.9533867800076, 15.98950309959409], [119.953673780397, 15.98955209015374], [119.95397955029424, 15.989510839746595], [119.95408684015942, 15.98944379970685], [119.95421731893266, 15.989206084619997], [119.95434970032915, 15.989407699917125], [119.95453745033826, 15.989466999793933], [119.95485395025844, 15.989461850011384], [119.95548158975126, 15.98954177999492], [119.95570957967838, 15.989678439941823], [119.95634257951878, 15.989696490267018], [119.95646060044332, 15.989745480058291], [119.95655714992137, 15.989905340277668], [119.9567824596747, 15.990034260294367], [119.95687366020577, 15.989925969592804], [119.95762466957014, 15.989472160166185], [119.9578070602681, 15.989291670216586], [119.95793581017912, 15.98908024024251], [119.95811819984073, 15.988461409860292], [119.95811551966693, 15.988216460111303], [119.9582603599485, 15.987858050121602], [119.95840250969212, 15.987718810002], [119.95847493035109, 15.986769939848717], [119.958453479633, 15.986656479980214], [119.95833277957107, 15.9865610799985], [119.95798141044467, 15.986548190247985], [119.95721160980766, 15.98660234040166], [119.95709360028374, 15.986566240297622], [119.9569380299792, 15.986365119874032], [119.95689242971365, 15.98650692985571], [119.95659738983935, 15.986991689689258], [119.95651424019384, 15.98705357024491], [119.95634734328526, 15.98710020870872], [119.95660275018695, 15.986976220164197]], [[119.95605289999205, 15.987208280268757], [119.95602840226917, 15.987207039993116], [119.95609010959583, 15.987193721897054], [119.95605289999205, 15.987208280268757]], [[119.9557334667183, 15.987192113859699], [119.95564519954075, 15.98718764959789], [119.95556577651064, 15.987162750116395], [119.95568544049513, 15.987185069847797], [119.9557334667183, 15.987192113859699]], [[119.95478958048501, 15.986885969751455], [119.95478958048501, 15.986816350009878], [119.95485663043226, 15.986736420274172], [119.95537161971231, 15.98680346024331], [119.9554064899549, 15.9871180297539], [119.95545321064628, 15.98713381068056], [119.95542526049923, 15.987277900143399], [119.95546012970541, 15.987411979643053], [119.95522678046713, 15.987948300147584], [119.9552187295816, 15.988224189625743], [119.95508462035934, 15.988293809845285], [119.95460986996086, 15.988332490017983], [119.95417535015254, 15.98879661030128], [119.95412706971318, 15.988935850338196], [119.95413732141405, 15.989051627696176], [119.95389104030114, 15.988788870175755], [119.95385348988475, 15.98861612013177], [119.95376497989164, 15.988507820404298], [119.95366037020024, 15.988415000141378], [119.95334387028002, 15.988358269744152], [119.95330095018831, 15.98829123008129], [119.95339482985675, 15.988198409916407], [119.95337873948623, 15.988110740356637], [119.95347530036489, 15.988043699960102], [119.95376766006542, 15.988025649780413], [119.9538749499306, 15.98796892030549], [119.95398491996961, 15.987852889789973], [119.95404660956925, 15.987649199752566], [119.95403320040893, 15.987414560210588], [119.95440602025343, 15.987316570349563], [119.95456426969531, 15.98723148010291], [119.95471983999984, 15.987048409933536], [119.95478958048501, 15.986885969751455]]], [[[119.95388566958937, 15.992447659763267], [119.95446770985306, 15.99239609032517], [119.95449721974808, 15.992241390234682], [119.95441943045017, 15.992035110323984], [119.95444356963338, 15.99173343963671], [119.95449185007271, 15.99160194037499], [119.95460718978707, 15.991545219685579], [119.95470107049191, 15.991431770207976], [119.9549746503204, 15.991313160374425], [119.95504438976916, 15.991202290011273], [119.95500684038917, 15.990890299733275], [119.95474666039328, 15.990841309668443], [119.95445161948255, 15.990684020367482], [119.95418340000164, 15.990372039838634], [119.95401441950042, 15.990049730050156], [119.9538776301044, 15.98993112020161], [119.95371400995076, 15.989900179894523], [119.9531185594903, 15.989951750333931], [119.9528261997898, 15.98989503010108], [119.9526250395839, 15.989895030101083], [119.95215297039562, 15.989789310295494], [119.95225488954904, 15.990250850014943], [119.95226963983265, 15.990631170029483], [119.95213552957402, 15.990642769732572], [119.95211139039077, 15.990539630148275], [119.95190755001111, 15.990422310319007], [119.9518552399833, 15.990428760203443], [119.95163663999229, 15.990489349864113], [119.95149851050932, 15.990781999619076], [119.95149313979759, 15.990986990406373], [119.95166614988725, 15.99114040983267], [119.95174392985741, 15.991161030311616], [119.95182170982761, 15.991252569655702], [119.95190889009798, 15.991292530105117], [119.95190889009798, 15.991342809771677], [119.95181501042954, 15.991503959916914], [119.95203361042057, 15.991699920065294], [119.95212883017595, 15.991714099635939], [119.95216637955593, 15.991627730287341], [119.95218112983954, 15.991378909902137], [119.95239570956991, 15.99133893966082], [119.95250701969579, 15.991852049713437], [119.95265990049877, 15.99233807991586], [119.95299250011726, 15.992528879597705], [119.95310381024312, 15.992539189906752], [119.95364427982973, 15.992393509694931], [119.95388566958937, 15.992447659763267]]], [[[119.95306491973983, 15.95505733037257], [119.95373278982284, 15.955031549941623], [119.95386421990767, 15.954840710186275], [119.95363891015438, 15.95446160973169], [119.95291202960911, 15.953999990032885], [119.95261698973476, 15.953858150380261], [119.95234877025392, 15.953780780228593], [119.95215564953297, 15.953801409985761], [119.95153069021399, 15.954139249634101], [119.95124102001499, 15.954074780118592], [119.95101839043548, 15.954198559684166], [119.95105325964167, 15.9543636103516], [119.95072334952475, 15.95460602995594], [119.95060802017457, 15.954636979603382], [119.95051949981729, 15.954732389998206], [119.95051414050612, 15.95485360038937], [119.95045513004384, 15.955003180394865], [119.95031296993606, 15.955108909976401], [119.95011717007777, 15.955083119765632], [119.94983286022637, 15.954647289638027], [119.949685339771, 15.95465244994943], [119.94915962046802, 15.95527395974611], [119.94884849022316, 15.955998619661631], [119.94883238948847, 15.956357089678173], [119.94889408012456, 15.956511819733876], [119.9490255102094, 15.956633030360223], [119.94956195020754, 15.956669130087132], [119.94974703040708, 15.956535029944563], [119.94977384976416, 15.956467980313327], [119.95007156981224, 15.956186880317322], [119.95035320985403, 15.955820679859757], [119.95061070034836, 15.955686580270902], [119.95076894979027, 15.955642740211971], [119.95128930045433, 15.95566337015605], [119.95150386982054, 15.955366800045308], [119.95166480980038, 15.955353909810025], [119.95188474987832, 15.955467380069747], [119.95200813011404, 15.955480270312167], [119.95296299022225, 15.955364219880623], [119.9530005499664, 15.955093439596], [119.95306491973983, 15.95505733037257]]]]}}]}