{"type": "FeatureCollection", "features": [{"type": "Feature", "properties": {"source": "Tang & Werner 2023", "polygons": 25}, "geometry": {"type": "MultiPolygon", "coordinates": [[[[125.91144650666264, 9.465666967684498], [125.91108799001627, 9.4656348203253], [125.9105515500181, 9.464999859787179], [125.90962886961452, 9.463645260046583], [125.90919971015381, 9.463200780284781], [125.90877056002086, 9.462904460224976], [125.9080410003382, 9.462248319863054], [125.90720414975394, 9.46176150978122], [125.90662478966406, 9.46176150978122], [125.9061527298035, 9.4627986301037], [125.90636730020611, 9.46358175961242], [125.90677499962095, 9.464364890064514], [125.9062385596228, 9.464745869854463], [125.9056591995329, 9.465296169690497], [125.9054231597567, 9.465232680080803], [125.9042429898952, 9.465042189871623], [125.90338468962923, 9.465296169690497], [125.90286970034921, 9.465592490169778], [125.90224742949529, 9.46631212018682], [125.90173244021528, 9.467412720042015], [125.90164661039594, 9.468449829964612], [125.9019684799915, 9.469169449922266], [125.9023761700786, 9.469423430329275], [125.9025692897631, 9.469762069832425], [125.90304135998782, 9.470206540383563], [125.9034276003932, 9.470968489954695], [125.90344906043912, 9.472026750374118], [125.90437173980624, 9.47192091989945], [125.90505838043359, 9.471666940077005], [125.90570211029691, 9.471518789965316], [125.90604543993831, 9.471285970289152], [125.90613126975765, 9.47037586960613], [125.90626001034094, 9.469783239926157], [125.90668916980167, 9.46914827986537], [125.90724706984568, 9.469084780029592], [125.90844869975305, 9.468513320153265], [125.90900659979707, 9.468407489938498], [125.9093713801566, 9.468534490172035], [125.91001511001993, 9.468576819886174], [125.91070174961087, 9.468555649864868], [125.91110945006214, 9.468703809853452], [125.91147416859128, 9.468949958507988], [125.91144650666264, 9.465666967684498]]], [[[125.90981126031252, 9.488799700228887], [125.90908169959344, 9.488831440005228], [125.90845942044822, 9.489677999812594], [125.90896904005292, 9.490212400309566], [125.91000437999702, 9.4907838199103], [125.91084122954486, 9.49160922015772], [125.91076612042072, 9.491889640305232], [125.91098070015109, 9.492244130136754], [125.91116845948798, 9.492894920072324], [125.90947330034645, 9.494656809947084], [125.90954840014284, 9.49564091961692], [125.90982734964663, 9.496159430351115], [125.91010630018687, 9.496254659625231], [125.91029405952378, 9.49612768038013], [125.91060518976862, 9.495397539885175], [125.9107446697026, 9.494349929683457], [125.911028979554, 9.49419119974088], [125.91168337964733, 9.493741217324898], [125.91164960198716, 9.489743192648135], [125.9112167399273, 9.489688589827159], [125.91086268026297, 9.489212400167157], [125.90981126031252, 9.488799700228887]]], [[[125.90598105980071, 9.479265139615775], [125.90516567029874, 9.479116990282558], [125.90426444994102, 9.479328639696531], [125.90422152984932, 9.479963579962586], [125.9048008899392, 9.480619680201094], [125.90550899994017, 9.481339279721436], [125.90576649043449, 9.48241866984183], [125.90455413050421, 9.483762609678728], [125.90451121041248, 9.483953090143446], [125.90454340048127, 9.484524520239235], [125.90476871023458, 9.485000720241253], [125.90524077009512, 9.485318190180003], [125.90555190966775, 9.485635650077272], [125.90599178982362, 9.48627058026382], [125.90612053973469, 9.487498100163316], [125.90632439047853, 9.487730909897445], [125.9068286404079, 9.487931969759657], [125.90749383031707, 9.487434609731753], [125.90796589950538, 9.487254710174852], [125.90825558006857, 9.48709598025491], [125.90855598029047, 9.486598619819247], [125.90880275008965, 9.486090679712875], [125.90881348011256, 9.485667399896057], [125.9087061902474, 9.48539225978749], [125.90810537011166, 9.485201780133151], [125.90769768002453, 9.485434589937638], [125.90708612986582, 9.485371099878193], [125.90692520025014, 9.485180620235283], [125.90681791038494, 9.484767909929202], [125.90687156049961, 9.48434463011366], [125.90719341973099, 9.483794349795394], [125.90781568954847, 9.48362504034175], [125.90812683015751, 9.483900179863891], [125.90845942044822, 9.484005999636517], [125.90885638984014, 9.484027160258222], [125.90924263024557, 9.483921339684798], [125.90973616051613, 9.483879009716581], [125.91068028956497, 9.48387900971658], [125.91137766954303, 9.483836679753447], [125.91160218433666, 9.484127722181103], [125.91156429064769, 9.47963763153378], [125.9112167399273, 9.479561450385484], [125.91046572019881, 9.479540279704516], [125.90907096957051, 9.479730769802314], [125.90801954029232, 9.480154059961697], [125.907332899665, 9.480746669740322], [125.9068608304767, 9.480513859856993], [125.90651751016303, 9.479900079767392], [125.90598105980071, 9.479265139615775]]], [[[125.89966178001902, 9.441992130017466], [125.899522300085, 9.441198370036075], [125.89937210049229, 9.440944370204896], [125.89900732013275, 9.44088086034634], [125.8987176395696, 9.440965529833854], [125.89862107972735, 9.441219540006667], [125.89829922049597, 9.441187790214471], [125.8978593299759, 9.440870279739887], [125.89773059042899, 9.440669190290738], [125.89734435002359, 9.440478690288016], [125.896850819753, 9.440510440016562], [125.89649677045286, 9.440605690013648], [125.89582085984843, 9.441018450358984], [125.89562774016395, 9.441325370020056], [125.8951449399163, 9.442531890014552], [125.89503765005111, 9.442870560134747], [125.89520930968976, 9.44314572984616], [125.89539170038768, 9.44314572984616], [125.89567064989153, 9.443029309879345], [125.89604616027397, 9.442690639607166], [125.89641093959713, 9.441812209936678], [125.89676498993371, 9.441208949858002], [125.89710831957514, 9.441092529734245], [125.89775205047489, 9.441484119865565], [125.8980631796833, 9.442097969794105], [125.8981382805161, 9.442362550309996], [125.89823484035834, 9.442521310153078], [125.89890003026757, 9.44318805969519], [125.89911460999797, 9.443706649807849], [125.8989107602905, 9.444108820358739], [125.89892149031346, 9.444458079851483], [125.89903951020155, 9.444616830308636], [125.89937210049229, 9.444881410325745], [125.89936137046932, 9.445082499786558], [125.89920043981722, 9.44506133037912], [125.89883566049409, 9.444934329848056], [125.89817046954852, 9.444881410325745], [125.8979129800906, 9.444923740382519], [125.89770913038313, 9.445050749647615], [125.89752673968513, 9.445241249729667], [125.8973979897741, 9.44545290981177], [125.8972263301355, 9.445855079965515], [125.89679718000251, 9.44623608030455], [125.89643239964298, 9.446458329698956], [125.89605689029693, 9.446744079806495], [125.89598179050053, 9.446924000013297], [125.89606762031984, 9.447294419911172], [125.89611053004742, 9.44765424985548], [125.89594960043172, 9.448172829836693], [125.89625000998143, 9.448172829836697], [125.89648604042989, 9.44807758018462], [125.89672208020613, 9.44781300015892], [125.89702248975577, 9.4476013299261], [125.89740871979701, 9.447410830161191], [125.8977627804978, 9.447315579920067], [125.89853524990805, 9.447484919613338], [125.89876055966133, 9.4475801699001], [125.89899659010979, 9.44763308029407], [125.90019822001716, 9.4475801699001], [125.90092777969983, 9.447347330262373], [125.90106725963382, 9.447135669840595], [125.90159296960903, 9.446701750326175], [125.90172171952008, 9.446627669776008], [125.9018611901263, 9.44641600025283], [125.9018611901263, 9.446130249616084], [125.9019362899227, 9.445347080152063], [125.90180755037584, 9.44506133037912], [125.90189338019512, 9.444870830393974], [125.9019362899227, 9.44459566013473], [125.90210794956134, 9.444521580025787], [125.90238690010153, 9.444680329717116], [125.90292335046388, 9.444754409859298], [125.9034168703703, 9.44456391003949], [125.9035670803272, 9.444331070004889], [125.90355635030426, 9.444098239655737], [125.90336322958338, 9.443854820026345], [125.90309501010249, 9.443569069870446], [125.90268730965124, 9.443262149851305], [125.90238690010153, 9.443145729846156], [125.90211867958425, 9.443145729846158], [125.9014749497209, 9.44275414025849], [125.90100287949622, 9.44259538984305], [125.90029477985941, 9.44261655989723], [125.89995145954576, 9.442415470249774], [125.89966178001902, 9.441992130017466]]], [[[125.88885783983925, 9.49008012028753], [125.88988781010798, 9.490312930140663], [125.8905315399713, 9.49033409034703], [125.89190482951732, 9.490545729819932], [125.89203358046477, 9.490778529653218], [125.8913469305097, 9.491836729627153], [125.89085340023911, 9.492725610213451], [125.89059590974476, 9.49350867038408], [125.89059590974476, 9.494736170247707], [125.89048861987958, 9.495349919799702], [125.8909821501502, 9.496005989927546], [125.89147568042073, 9.49621762963479], [125.89250564965306, 9.494884319798485], [125.89287043001261, 9.494503370179038], [125.89325666005385, 9.493953109728052], [125.89394331000895, 9.493339360229836], [125.89441538023364, 9.49234465975385], [125.89495182023181, 9.492260009713355], [125.89611053004742, 9.492302330361557], [125.89656114955403, 9.492365829615865], [125.89705467049684, 9.492556299641603], [125.89735508004655, 9.492958409900115], [125.89735508004655, 9.493614489867701], [125.8968830098218, 9.494249400287796], [125.89694737959523, 9.494905480279801], [125.89750527963926, 9.495286430334751], [125.89795588981809, 9.495646209947123], [125.8987283695925, 9.496132969923188], [125.8993077296824, 9.495963660094668], [125.90057373039963, 9.495117120119282], [125.901174549499, 9.494566860297112], [125.90126038035474, 9.493720310177624], [125.901174549499, 9.492111859678845], [125.90083121985758, 9.491222979848624], [125.90025187013183, 9.491138319750096], [125.89982270963472, 9.490630380242466], [125.89941501954759, 9.489974300277945], [125.89771986040608, 9.489762660354248], [125.89756965977689, 9.48969917030863], [125.8973872701153, 9.489381709924535], [125.89731215995477, 9.489127739757864], [125.89789152004467, 9.488704460261422], [125.89857816999977, 9.488133029736714], [125.89943647026571, 9.487244129766843], [125.90016602994838, 9.48633406969103], [125.90027331981354, 9.4852335299128], [125.90014458026667, 9.484323459939633], [125.8996081402685, 9.48354037968718], [125.8986425397732, 9.483476889969266], [125.89761256950447, 9.484027160258222], [125.8966898901373, 9.484386960137863], [125.89565991986859, 9.484132980069006], [125.89495182023181, 9.48428112992307], [125.89493036018594, 9.483879009716583], [125.89478015955677, 9.483180590205725], [125.89413642969342, 9.482418669841824], [125.8933854099649, 9.481720239721534], [125.89241981983378, 9.481021810191697], [125.89160441996765, 9.480958309805752], [125.89143276032902, 9.480492689913204], [125.89143276032902, 9.479878920188051], [125.89158297028594, 9.479286310280218], [125.89203358046477, 9.478566710186616], [125.89272022005568, 9.477614290090031], [125.89342833005664, 9.47676769969904], [125.89422225951273, 9.475624799660888], [125.8953165995549, 9.473783450013169], [125.89542389045651, 9.472831019803735], [125.89501619000526, 9.472323059825102], [125.89415788973929, 9.4721114098514], [125.89224814983099, 9.473275490251138], [125.89087486028498, 9.473804610020949], [125.88900804979616, 9.475286160087759], [125.88838576961452, 9.475476650269243], [125.88772057970533, 9.476196249613904], [125.88759184015842, 9.477254489977971], [125.88707684984199, 9.47793177005453], [125.886218549576, 9.4786936997803], [125.88591814002633, 9.479265139615777], [125.88598250979979, 9.479709599905593], [125.88518858034371, 9.47994241005186], [125.88473797016484, 9.480259880197721], [125.8843731898053, 9.480386869607251], [125.88415861007495, 9.481000640217394], [125.88450193038862, 9.481677910017865], [125.88503837971454, 9.482143529888209], [125.88651896016208, 9.482397499783568], [125.88709830988783, 9.482757300381547], [125.88722705979892, 9.483625040341751], [125.88782786957049, 9.484429279839452], [125.88793516047207, 9.485572159981569], [125.88784932961637, 9.487582760180645], [125.88784932961637, 9.488260010068812], [125.88776349979703, 9.488556310134868], [125.8872699695265, 9.48927589012495], [125.88748455029324, 9.490016630184636], [125.88812828015658, 9.49048223963305], [125.88885783983925, 9.49008012028753]]], [[[125.8792018898163, 9.451051479651214], [125.87948084035655, 9.451062059767944], [125.87982415963377, 9.4509138897063], [125.88016747994743, 9.451273720157785], [125.88030695988142, 9.451612380381532], [125.88052153961179, 9.451792299888917], [125.88067174024096, 9.451845210119044], [125.88139056990067, 9.451781719750308], [125.88216304967506, 9.451771130079647], [125.88361144005387, 9.451951049667848], [125.88387965953476, 9.451813469699438], [125.88433026971359, 9.451517140129265], [125.8844804796705, 9.451146719777983], [125.88519931036662, 9.450257730312673], [125.88503837971454, 9.449781489826572], [125.88505983043267, 9.449474569975223], [125.88523149007129, 9.449411069705684], [125.88562846049959, 9.449442820236209], [125.88558554973562, 9.449188830370346], [125.88526368014007, 9.448839579708595], [125.88483453000708, 9.448871330187776], [125.88466287036847, 9.448987740162707], [125.88461995027674, 9.44926290986848], [125.88461995027674, 9.449749740059987], [125.88443755957874, 9.450151900008976], [125.88395476036754, 9.450342399662373], [125.88352561023456, 9.451114969888756], [125.8831071901245, 9.451114969888758], [125.88287115034827, 9.451072639885005], [125.8827960495155, 9.450892730276376], [125.8824098101465, 9.450225979708955], [125.88232398032719, 9.449760320137763], [125.88238835010064, 9.44869140978429], [125.88238835010064, 9.448321000338003], [125.88232398032719, 9.448003500140532], [125.88176608028314, 9.447696580244212], [125.88153004983468, 9.447622500279962], [125.8811759901703, 9.447601329926101], [125.88063955017219, 9.447707169792796], [125.88028549983555, 9.4478553297723], [125.87995290954484, 9.4478553297723], [125.87933063972736, 9.447717749809438], [125.87908386992821, 9.447061579667285], [125.87847233013369, 9.446278420055712], [125.87805389965945, 9.445452909811769], [125.87775350047397, 9.445029580242082], [125.87694882959435, 9.444849660204866], [125.8766377003859, 9.445156580012986], [125.87598324049961, 9.446087920209234], [125.87592959038498, 9.446468920004802], [125.87589740964391, 9.448479750146493], [125.87580084980166, 9.448395079654265], [125.87537169034094, 9.448225749851636], [125.87516784996123, 9.448331580373013], [125.87471723978241, 9.448289249908248], [125.87392329996216, 9.448299829942295], [125.87374091030058, 9.44879724997735], [125.8734297800557, 9.448828990126085], [125.87321520032532, 9.450141319919474], [125.87324739039416, 9.450490559952078], [125.87322593034828, 9.450702230326344], [125.87292551976219, 9.45106205976794], [125.87255001041615, 9.450924480145636], [125.87235688969525, 9.45073398017849], [125.87222815014835, 9.450543480314028], [125.87173461987778, 9.450183649811683], [125.87110162003736, 9.450617560096084], [125.87021112037486, 9.45060697999265], [125.869760510196, 9.450659900372031], [125.86954593979341, 9.450765730033487], [125.86936355013188, 9.45090331038837], [125.86919188012904, 9.45114671977798], [125.86921334017492, 9.451622970047435], [125.86933136006304, 9.45174996980403], [125.86896657970351, 9.451686469920018], [125.8686661701538, 9.451951049667848], [125.86832284984018, 9.451167890344205], [125.86797952952651, 9.452046300363806], [125.86799025954942, 9.453464440005174], [125.86801171026755, 9.453951260097519], [125.86806536038226, 9.454342839846733], [125.86786150963839, 9.454734409703153], [125.86802244029049, 9.454935489676764], [125.86849451051522, 9.454914319679162], [125.86892365961175, 9.45480849036387], [125.86917043044737, 9.454649749627865], [125.86954593979341, 9.454618000218217], [125.86981416031071, 9.45420525974136], [125.87014674956501, 9.453951260097519], [125.87036133033179, 9.453697270168725], [125.8704257001052, 9.453252770359429], [125.8704257001052, 9.452691870202717], [125.87100506019512, 9.45271302974037], [125.87138056954116, 9.452840029888744], [125.87172388985482, 9.453104609705957], [125.8719384695852, 9.453136359773957], [125.87226032985299, 9.452977610256848], [125.87280749987407, 9.452247380396262], [125.87338685996399, 9.452226209765366], [125.8739125699392, 9.452109789985721], [125.8743310004134, 9.451898129889493], [125.87470650975945, 9.4516547199823], [125.87529658950811, 9.45155947018626], [125.8757042899594, 9.451612380381532], [125.87607980034186, 9.451390139661981], [125.87630509973103, 9.451178469670054], [125.87649822045191, 9.45089273027638], [125.87719560042993, 9.450818640109933], [125.87791443008965, 9.450691650220374], [125.87825775040331, 9.45082922975204], [125.87879419040146, 9.450892730276378], [125.8792018898163, 9.451051479651214]]], [[[125.86600541984475, 9.46781486038816], [125.86744308020059, 9.467857190015943], [125.86804390033633, 9.468005349711161], [125.86909532961454, 9.468746140382308], [125.86991072015296, 9.46950808997598], [125.87036133033179, 9.46950808997598], [125.87106942996854, 9.469592749643006], [125.87175607992363, 9.470143049890115], [125.87233542964938, 9.470460530275881], [125.87308645041432, 9.47058752012698], [125.87340832000983, 9.470460530275883], [125.87394476000803, 9.470143049890112], [125.87469577973654, 9.469677410124755], [125.87533950959987, 9.469190609653172], [125.87585448955215, 9.469698580213405], [125.87675570990986, 9.470164209679432], [125.87800025990893, 9.469783239926159], [125.88023186008506, 9.468492159668594], [125.88023186008506, 9.468238169604929], [125.87988853044365, 9.467603209942267], [125.87928771963564, 9.467285729745123], [125.87832212017673, 9.467328060103812], [125.87750672963837, 9.467116409949979], [125.87688445982091, 9.466904750390329], [125.87583302950628, 9.466862420082442], [125.87469577973654, 9.467116409949977], [125.87422370951181, 9.467306890157442], [125.87390183991629, 9.467391559623358], [125.87340832000983, 9.467370389673185], [125.87263584023545, 9.46677776027628], [125.87237834974111, 9.466206289837983], [125.87188482050695, 9.465444329899025], [125.87171315983191, 9.464724700063012], [125.87147713041983, 9.464216730309188], [125.87139129956411, 9.463370110116893], [125.87136983951825, 9.462290659944502], [125.8712410896072, 9.461803840271651], [125.87021112037486, 9.4607667196944], [125.86898803974938, 9.460406900226092], [125.86898803974938, 9.459729590248207], [125.86890220993008, 9.458904120072187], [125.86862326042625, 9.458247979995619], [125.86853742957055, 9.457824659723563], [125.8682584800667, 9.457020349824328], [125.86836575956777, 9.456554700363201], [125.86836575956777, 9.45572922013213], [125.86830138979428, 9.455073070066527], [125.86712121993281, 9.45526356999004], [125.8665633198888, 9.455073070066526], [125.86587666993368, 9.454903740241452], [125.86551188957414, 9.454649749627865], [125.86516857029693, 9.454734409703153], [125.86506128043172, 9.455094240073626], [125.86553334962001, 9.455940880140492], [125.86546897984658, 9.457761160336362], [125.86534022993555, 9.458777129659152], [125.86493253984844, 9.459052290307815], [125.86435317975855, 9.45981426027945], [125.86394548034369, 9.460597390316767], [125.86390256957968, 9.46154985025576], [125.86446046962372, 9.462142500265548], [125.86467505039052, 9.462671639878529], [125.86422442984748, 9.463835750296091], [125.86385964948796, 9.464280230063194], [125.86377381966865, 9.464957529707819], [125.86441754953198, 9.465634820325299], [125.86443900957785, 9.466248620067162], [125.86501836966774, 9.46720106983739], [125.86534022993555, 9.46766671030574], [125.86600541984475, 9.46781486038816]]], [[[125.85554481034279, 9.488386999980078], [125.85588812962003, 9.488397579627991], [125.85641383959523, 9.48847164988339], [125.8575940104932, 9.488810279889202], [125.85803389997682, 9.488111860129328], [125.85852741988327, 9.487646249844502], [125.85886001950175, 9.487625089799714], [125.85962175992543, 9.487804980012555], [125.8606302701483, 9.488376410004696], [125.86107015963198, 9.488450489788997], [125.86139201989978, 9.48838699998008], [125.86236835041802, 9.488016620347983], [125.86273312974113, 9.48709598025491], [125.86315154985118, 9.486302330139864], [125.86343050039139, 9.485963700163266], [125.86378454969156, 9.484979560355482], [125.86376308964572, 9.4844610303439], [125.86361289005292, 9.483868430204463], [125.86348414014189, 9.483561549814135], [125.86309791010065, 9.483254660158021], [125.86231470030336, 9.483021850205859], [125.8616495103941, 9.482990110158829], [125.86073756001349, 9.482683220206212], [125.85990071046568, 9.4826197298484], [125.85990071046568, 9.482228179879376], [125.85970758974477, 9.481963629856772], [125.8594393702639, 9.481392189616274], [125.85923552988422, 9.480852490154358], [125.85878491037761, 9.480132890039531], [125.85864543977137, 9.479646110083728], [125.85793734013461, 9.478736029919833], [125.85703611044916, 9.478545540359837], [125.85671425018135, 9.478545540359837], [125.85617781018321, 9.478397389740342], [125.85583447950536, 9.478079919683845], [125.85541606043174, 9.477794199816902], [125.85465430964388, 9.475783540300128], [125.85413932969158, 9.475243830362604], [125.85432172038955, 9.475127419672539], [125.85567354988969, 9.47447130979923], [125.85555553000154, 9.474301989731657], [125.8544182802318, 9.474365489712566], [125.8536779894898, 9.474534809810631], [125.8530127995806, 9.47446072977518], [125.8528947796925, 9.474217329728372], [125.85247635958243, 9.473836360362382], [125.85218668005572, 9.473624710274624], [125.85150003010062, 9.473338979719788], [125.85197210032533, 9.472238400297023], [125.85192918956135, 9.471931510174622], [125.85129618972093, 9.471106059911785], [125.85150003010062, 9.470418200335667], [125.85181116967323, 9.469973730312196], [125.85207939019051, 9.469508089975978], [125.85203648046296, 9.468703809853453], [125.85173606987684, 9.468396910096379], [125.85111380005938, 9.467603209942265], [125.84957956949714, 9.467698449767367], [125.84924698024281, 9.467613789760591], [125.84873198992635, 9.467592630124273], [125.84846377044546, 9.467613789760591], [125.84835648990806, 9.468153510263026], [125.8483457598851, 9.468746140382311], [125.84820627995114, 9.46914827986537], [125.84812045013184, 9.469539839930547], [125.84838866961269, 9.470016060199047], [125.84823847001994, 9.470206540383561], [125.84792733044735, 9.47035470027124], [125.84746599024555, 9.470502860221167], [125.84719776972827, 9.470682759963502], [125.84714412997774, 9.471434120303027], [125.84758401013367, 9.472428889626078], [125.84765910993006, 9.472841599778892], [125.84806681038131, 9.473719950137108], [125.84852814954667, 9.474513640226043], [125.8483457598851, 9.47473587008508], [125.84808826006302, 9.475434319726782], [125.84792733044735, 9.47655605023441], [125.84629655040699, 9.478069340345876], [125.84577084043178, 9.478196329760316], [125.84559917042897, 9.478312730342136], [125.84492325982455, 9.479011170389809], [125.844429729554, 9.479349800037246], [125.84414005002725, 9.479699019724265], [125.84425806991536, 9.480143479767026], [125.84498762959804, 9.480672589987853], [125.8446228502749, 9.480968900352485], [125.84427952996123, 9.48064083982492], [125.84381818975945, 9.48055619021521], [125.84348559014097, 9.480884240336358], [125.84334611953474, 9.481191119982824], [125.84333538951178, 9.481826059633608], [125.84372162991718, 9.482302259958997], [125.84376453964477, 9.48266205966526], [125.84365726014377, 9.483064180071061], [125.84346414045926, 9.483328739659118], [125.84295988016576, 9.483371070355625], [125.8425843697833, 9.483603870210962], [125.84223032048313, 9.484492780056769], [125.8410930603492, 9.484471609873815], [125.84077120008138, 9.484175310067771], [125.84032058990255, 9.48362504034175], [125.84021330003733, 9.483053599788976], [125.84010601017218, 9.482080030094494], [125.83968759006213, 9.482979520345756], [125.83965539999332, 9.483423979761257], [125.83948374035471, 9.484259970080544], [125.83910822997221, 9.484535110098772], [125.8385717899741, 9.484270549604423], [125.83824992037854, 9.484249389762535], [125.83816408952279, 9.484672670258027], [125.83820700961455, 9.485244110260384], [125.83866834981632, 9.485762639836294], [125.83846450010891, 9.48624940997399], [125.83876490965856, 9.486513970366344], [125.83930134965672, 9.486016609958455], [125.84007382010337, 9.485074800109683], [125.84028839983374, 9.484905479712673], [125.84068537026208, 9.48505362989174], [125.84173679021251, 9.485233529912803], [125.84248780994105, 9.485974279738347], [125.84373235994015, 9.486757359842677], [125.84414005002725, 9.487138309815462], [125.84506273043083, 9.488323499854827], [125.84523439006942, 9.489127739757864], [125.84581375015931, 9.489212400167157], [125.8466076899796, 9.489233560307358], [125.84759474015661, 9.489445199912872], [125.84753036001898, 9.490249429667907], [125.84808826006302, 9.490863189665168], [125.8485388795696, 9.490249429667909], [125.84950446970073, 9.489995459669503], [125.85044861015018, 9.49065155000134], [125.85102797024008, 9.49065155000134], [125.85154295019234, 9.490397579712734], [125.85364580045741, 9.488916100343245], [125.85428953032074, 9.488683289825222], [125.85453628975576, 9.488535150035387], [125.85513710989154, 9.488418739719204], [125.85554481034279, 9.488386999980078]]], [[[125.83439290983743, 9.48640814983998], [125.83493471018318, 9.485990150293226], [125.83457529949901, 9.485767930017987], [125.83420515050051, 9.485778510381632], [125.8339637503767, 9.485736180190148], [125.83350777985027, 9.485445170291248], [125.83370089953476, 9.485053629891738], [125.83369552985941, 9.484762619762535], [125.8335614196008, 9.484635639897435], [125.83325028002818, 9.484577440145873], [125.83307326004194, 9.484402829826754], [125.83291233042624, 9.484127689911874], [125.8327835805152, 9.48399011963783], [125.83234370035932, 9.483894880177019], [125.83223641049412, 9.48381022978525], [125.83188772050511, 9.483704399743784], [125.83138346953935, 9.483730860031699], [125.83108842033725, 9.48381022978525], [125.83077729009241, 9.483672659635225], [125.83042323975579, 9.483646200146127], [125.83007991011439, 9.48374144033412], [125.8297741402171, 9.483868430204463], [125.829446910274, 9.484080069762417], [125.82937716978878, 9.484418700310806], [125.8289802097246, 9.484572139654352], [125.82893193032166, 9.484841989748634], [125.82870126022078, 9.485143580287998], [125.82843303970353, 9.485360520321246], [125.82828820045833, 9.485297019947438], [125.82804680033452, 9.485122420393646], [125.82790196005293, 9.484968980015866], [125.82771419967963, 9.484879029664198], [125.82743525950356, 9.484931940090824], [125.8271724003703, 9.485048339720777], [125.8267807996173, 9.48473088035303], [125.82662523034921, 9.484662089927616], [125.82642673995294, 9.48466738009279], [125.82616389014741, 9.48473088035303], [125.8259922305088, 9.484900190338374], [125.82602441021342, 9.48524939963985], [125.8262443502914, 9.485656820330194], [125.82623362959619, 9.486111849993174], [125.82634627980899, 9.486222959824568], [125.82648904450217, 9.486254962735895], [125.82640529027128, 9.486265290074574], [125.82624971996673, 9.486434600003317], [125.82579374011257, 9.486323490105134], [125.82547187984474, 9.486471640086437], [125.82517147029509, 9.48691608960994], [125.82482814998141, 9.487021910288984], [125.8242165998227, 9.48732878972309], [125.82376598964387, 9.487741490320078], [125.8232295496457, 9.48774149032008], [125.82267164960166, 9.48801662034798], [125.82240343012083, 9.488249429630606], [125.82194208991905, 9.488429320162519], [125.82173824021159, 9.488609220319734], [125.82137345985204, 9.488842019666484], [125.82112670041705, 9.489297050268966], [125.8206117204648, 9.489402870074915], [125.8203542196063, 9.489625090261507], [125.82023621008233, 9.489635680274475], [125.81986069969983, 9.489826149616862], [125.81956029015018, 9.49035524976022], [125.81886291949992, 9.490334090347032], [125.81844449006212, 9.490492820138382], [125.81834793021987, 9.49061979973298], [125.81834793021987, 9.491011339968388], [125.81866979981542, 9.491159480006099], [125.81892729030974, 9.4913288002337], [125.81939935949805, 9.491476939610589], [125.81958175019604, 9.491572180328392], [125.81974267981171, 9.491826149875854], [125.81994652951917, 9.491879059757885], [125.82062244012356, 9.491889640305232], [125.82079411012634, 9.491921380360251], [125.82094430971908, 9.492260009713355], [125.82119107019051, 9.492577459982883], [125.82128763003276, 9.492757359877375], [125.82152366980897, 9.492990160379494], [125.8217597002575, 9.493138309989394], [125.82199574003371, 9.493222960241212], [125.82219958041337, 9.49343459986287], [125.82266091957875, 9.4933816897469], [125.82314371982642, 9.49168857977087], [125.82342267036661, 9.491678000024018], [125.82368015982453, 9.491762660252393], [125.82402349050238, 9.491953129951604], [125.82431315966495, 9.49190022005843], [125.82451701040883, 9.492450479681821], [125.8247852298897, 9.492693870085882], [125.82513928022628, 9.492937250330376], [125.82541822973008, 9.49306423001267], [125.82579374011257, 9.49312771987102], [125.82633018011069, 9.493762639740522], [125.8262443502914, 9.493995440113443], [125.82578301008961, 9.494016599746821], [125.82563281049687, 9.49440813025663], [125.8257615604079, 9.495148859671042], [125.82605123993466, 9.495434569789268], [125.8262765403602, 9.495900169724457], [125.82599758981996, 9.496376350163843], [125.82689881017767, 9.496968940382446], [125.82653402981815, 9.497349879961067], [125.82640529027128, 9.497677909984555], [125.82646966004471, 9.498397469703908], [125.82667350975211, 9.498736090197172], [125.82709192986216, 9.498990049822613], [125.82774638974843, 9.499053539956252], [125.82851886952281, 9.498990049822611], [125.82987070005935, 9.499074710222093], [125.83124398960535, 9.499117030101369], [125.83182334969524, 9.499180520257937], [125.83353995955488, 9.499180520257939], [125.83441973023088, 9.4992440096315], [125.83478450955401, 9.499349830046414], [125.83523511973284, 9.499222849683589], [125.83519219964113, 9.498376309806941], [125.8350205400025, 9.49769908016757], [125.83480596959988, 9.497254640062307], [125.83512782986769, 9.496937190338377], [125.83596468045192, 9.497339300043944], [125.83678006995389, 9.497656750130895], [125.83744525986309, 9.497106499841106], [125.83828211044737, 9.496746720323774], [125.838582519997, 9.496831369855071], [125.83918332976862, 9.497233480234115], [125.83961247990159, 9.497572099606426], [125.84032058990255, 9.49769908016757], [125.84135056017128, 9.49812234983034], [125.84289551039232, 9.4992440096315], [125.84435462975762, 9.49945564969872], [125.84675788957234, 9.49945564969872], [125.84862471042534, 9.499307499811], [125.84952592974663, 9.499201689736955], [125.85036278033088, 9.498524460096737], [125.85122107956037, 9.498841909664753], [125.85233687964846, 9.498968889889987], [125.85310936045924, 9.499138200371034], [125.85371017023087, 9.49911703010137], [125.85501909000342, 9.498714930279828], [125.85540533040883, 9.498714930279826], [125.8559846904987, 9.498778420363784], [125.85604906027216, 9.497783729928122], [125.85594177040697, 9.497000680101339], [125.85697173963928, 9.495625050215708], [125.85744380986401, 9.495222940086773], [125.85802316995391, 9.494566860297109], [125.85823774035653, 9.493953109728054], [125.85832357017581, 9.492027200160916], [125.85765838959438, 9.491328800233699], [125.85737944009058, 9.490969009942047], [125.85701465973104, 9.490715040218774], [125.85572720000432, 9.491053659671952], [125.8548903504565, 9.490969009942045], [125.85428953032074, 9.49126530037208], [125.85381746009605, 9.491413450050144], [125.85323811037033, 9.491730909883772], [125.85304498964942, 9.491984880340272], [125.85274458009971, 9.492513970223847], [125.85225104982916, 9.492937250330378], [125.85152149014647, 9.492937250330378], [125.85122107956037, 9.493000740165797], [125.85066318988055, 9.493868460095014], [125.8503198602391, 9.494185910227019], [125.84941863988142, 9.495159440316735], [125.84813118015475, 9.495540389852286], [125.84716557965945, 9.495667369679811], [125.84656476988785, 9.49562505021571], [125.84665059970715, 9.494058930139838], [125.84718703970532, 9.49240815027678], [125.84731578961639, 9.49143461032269], [125.84731578961639, 9.490566890040295], [125.84699392002081, 9.490609220018284], [125.8459425000704, 9.490588059795355], [125.84542750975393, 9.490693879989493], [125.84514856025011, 9.49099017018787], [125.84465504034372, 9.49175207017541], [125.84396839038864, 9.49168857977087], [125.84313153980438, 9.491095989708478], [125.8425092699869, 9.489974300277945], [125.8422732395384, 9.489614509782259], [125.84257363976036, 9.489233560307357], [125.84272384971729, 9.488598639871011], [125.84259509980623, 9.488133029736716], [125.84225177949256, 9.487984879850671], [125.84188700016945, 9.488154189812038], [125.84171533949441, 9.488133029736716], [125.8412647199878, 9.48794255018834], [125.84050297956408, 9.488006039917073], [125.84002018035284, 9.487720330269582], [125.83965539999332, 9.487603920222872], [125.83948374035471, 9.487656830264578], [125.8390653098805, 9.488249429630605], [125.83822846033267, 9.4890748302895], [125.83811044977233, 9.489519270388742], [125.83771348038037, 9.489794409750818], [125.8373057799291, 9.48942403975995], [125.83720922008685, 9.488979590247588], [125.83696245961542, 9.488905519885298], [125.83647966040422, 9.489180650028635], [125.835524800296, 9.490387000004713], [125.83494544020608, 9.49045049017441], [125.83459138986952, 9.490439909670338], [125.83433390041156, 9.490249429667909], [125.83389400989151, 9.490122450206949], [125.83408712957602, 9.489677999812592], [125.83399056973376, 9.489487529755937], [125.83362579041062, 9.48937113024704], [125.83310008043539, 9.489466360067066], [125.83288549966865, 9.489445199912872], [125.8329069597145, 9.488672710168721], [125.83272457005295, 9.488334089828633], [125.83261728018776, 9.488439910139494], [125.83230078026753, 9.48861979997431], [125.83214520996306, 9.488767950127592], [125.83204058711831, 9.488772983122733], [125.8325368200438, 9.488424029940813], [125.83326101005109, 9.48773620010873], [125.83371162022998, 9.487392280135587], [125.83407639955306, 9.486730900121774], [125.83439290983743, 9.48640814983998]], [[125.8301657399337, 9.48815948002967], [125.83023012007129, 9.48848753008422], [125.83038031966404, 9.488746790015385], [125.8305358899686, 9.488910810114223], [125.83120644022537, 9.489228270073575], [125.83145857037212, 9.489164780124359], [125.8316409600337, 9.488990169913297], [125.8318210047404, 9.488892320438282], [125.83143174997866, 9.489207099605855], [125.83113669974014, 9.489254719654378], [125.83038568001166, 9.488873769774456], [125.83021402037302, 9.488535150035387], [125.83019256965491, 9.48830233976934], [125.83008937895868, 9.48804790152782], [125.8301657399337, 9.48815948002967]], [[125.82832574983831, 9.486656830232658], [125.82883537047947, 9.48716477036143], [125.82961320956503, 9.487656830264578], [125.830035873405, 9.48796971925431], [125.8296346696109, 9.487752069948579], [125.82879782006303, 9.487180640175529], [125.82833111018591, 9.486688569815785], [125.82818853750722, 9.48659616180701], [125.82832574983831, 9.486656830232658]], [[125.8280146102657, 9.486519259764886], [125.82812955588858, 9.486570083061359], [125.82805215964572, 9.486588040225403], [125.82804142962276, 9.486556299856899], [125.82780540021068, 9.48653513034433], [125.82759555162919, 9.48645349923819], [125.8280146102657, 9.486519259764886]], [[125.8269327850344, 9.486279396491966], [125.82688808015473, 9.486286450037614], [125.82685469884625, 9.486278610739957], [125.8269327850344, 9.486279396491966]]], [[[125.84668815012357, 9.533140869784221], [125.84695101029322, 9.533500619868558], [125.84689736017856, 9.5340296499654], [125.84676861959531, 9.534304739988297], [125.84677934961819, 9.534452869691957], [125.84690272985392, 9.534648620102237], [125.8471602203483, 9.534817900126232], [125.84755182006485, 9.53450577964265], [125.84771276004473, 9.534294159751598], [125.84771276004473, 9.534066679972716], [125.84739089044918, 9.533315450306672], [125.84765910993006, 9.53201403005926], [125.84765910993006, 9.530892469723751], [125.84917188044643, 9.52899851965659], [125.84919333012814, 9.52873400036125], [125.84977269021802, 9.528585860362869], [125.8507060996081, 9.528025080068014], [125.85167170010342, 9.526882350225868], [125.85152149014647, 9.52618400969647], [125.85148931044188, 9.52531637994637], [125.85151076012359, 9.52491430017339], [125.85162878001168, 9.524110149956025], [125.85206866016757, 9.52341181018127], [125.852701660008, 9.522724039766477], [125.8530127995806, 9.522163249779167], [125.85263729023455, 9.521724140147299], [125.85077047041796, 9.52169768971105], [125.84890365992914, 9.523094379714735], [125.84810435976128, 9.523575809917027], [125.84783076956867, 9.524014920278432], [125.84799170022077, 9.524596869935738], [125.84754645971725, 9.52520527999761], [125.84743380950448, 9.52607820026149], [125.84738016042621, 9.526813569820904], [125.8468759104969, 9.526448530245535], [125.84678470996582, 9.52615226972294], [125.84651113013736, 9.526141689732409], [125.84584594022813, 9.526268659968872], [125.84503591003735, 9.526596670135113], [125.84470331974664, 9.526771249780822], [125.84447800999334, 9.526977579887816], [125.84408641027673, 9.52722094019463], [125.84398447972275, 9.527665330043632], [125.84414541970263, 9.52822612009185], [125.84414541970263, 9.528644060255003], [125.84405958988329, 9.52915194033552], [125.84405958988329, 9.529998400296947], [125.84376991035656, 9.53021000964772], [125.8433407498594, 9.530892469723751], [125.84342659004288, 9.531294539669544], [125.84384501015292, 9.531484990293619], [125.84512173985667, 9.531977000268945], [125.8460819696402, 9.531992869724567], [125.84635019015748, 9.532474289902309], [125.84659695995666, 9.532722940148252], [125.84668278977594, 9.53298744974227], [125.84668815012357, 9.533140869784221]]], [[[125.83525657977872, 9.536066419802594], [125.83637237986676, 9.536193380128275], [125.83672643020337, 9.536034670193716], [125.83695172959251, 9.535812480220041], [125.83708047950354, 9.535346940158272], [125.83708047950354, 9.535040099798096], [125.83693026954663, 9.53448991007318], [125.83720922008685, 9.534151329765733], [125.83762764952468, 9.533791579807637], [125.83798169986125, 9.533664620352635], [125.83853959990529, 9.532796999890518], [125.83949447037762, 9.532468999811568], [125.84015964992268, 9.532119839697346], [125.84060489975394, 9.531839450185371], [125.8413291001254, 9.531559060103254], [125.84197282998875, 9.53137919038179], [125.84231615030241, 9.531405639959482], [125.84323882966956, 9.5311411196416], [125.84323347035838, 9.530744339936478], [125.84338366995112, 9.530336979768952], [125.843265650063, 9.530157109880303], [125.84308326040146, 9.530019559716647], [125.84293842011988, 9.529956079872296], [125.84269701999605, 9.52973388024688], [125.84265946957966, 9.529485229738535], [125.84251463033452, 9.529268329988467], [125.84230542027947, 9.529114899724123], [125.842069389831, 9.529083160279724], [125.84116817050973, 9.5291254798044], [125.84087848994658, 9.528860959618703], [125.84093212969707, 9.52836367034613], [125.84100722949346, 9.52805682021114], [125.84121108023729, 9.527771139957698], [125.84149002974111, 9.527485459937118], [125.84176898028133, 9.52761242986579], [125.84203719976219, 9.527813460118505], [125.84240198012172, 9.528353090288848], [125.84262728987503, 9.527993339927773], [125.84272384971729, 9.527432550251989], [125.84285259030058, 9.526935250293528], [125.84298134021161, 9.526035880310182], [125.84268092962552, 9.525781940051864], [125.84240198012172, 9.525485669763702], [125.84235907039415, 9.525083600125456], [125.84290624041525, 9.525051849922672], [125.84309936009973, 9.52535869981082], [125.84346414045926, 9.525496249734436], [125.84376453964477, 9.525485669763707], [125.8443117096659, 9.52527404975814], [125.84439753948519, 9.52485081966458], [125.84435462975762, 9.524152469674862], [125.84454775047851, 9.52345412981583], [125.84465504034372, 9.522692300106138], [125.8449768995751, 9.521676519670322], [125.84446191962277, 9.521528389804635], [125.84407568025382, 9.521909309941872], [125.84338903029872, 9.5223748702909], [125.84231615030241, 9.521232119932156], [125.8419513699429, 9.52025865979611], [125.84263801989799, 9.519052420187588], [125.84285259030058, 9.51803662963469], [125.84295988016576, 9.516724570395128], [125.84300280025751, 9.515349010258692], [125.84333538951178, 9.514206239879892], [125.84374308996311, 9.513698340126552], [125.84420443016488, 9.513243339905527], [125.84397912041157, 9.512671949733615], [125.84474087016302, 9.511962999929889], [125.84522367041065, 9.511306960391838], [125.84569573027122, 9.510968360357758], [125.84615707047298, 9.510756730040091], [125.84712266993189, 9.51067208033223], [125.84765910993006, 9.510566270013713], [125.8478414995916, 9.509688009609967], [125.84761620020248, 9.509444640012719], [125.8472621395017, 9.509243590094043], [125.84644674999973, 9.509031960021309], [125.84628582038405, 9.508904989666012], [125.84659695995666, 9.508492310308695], [125.84692955024738, 9.508143120034195], [125.84683299040513, 9.507857420242145], [125.84694028027032, 9.507518820355955], [125.8473265196393, 9.50702148982683], [125.84765910993006, 9.506249040122514], [125.8480346203125, 9.505667059711435], [125.8484959605143, 9.505212050033498], [125.8490216704895, 9.503847030096445], [125.84897875972553, 9.503392020391896], [125.84862471042534, 9.503402599696695], [125.84813118015475, 9.50363540009674], [125.84790587040148, 9.504005750097805], [125.84728359954757, 9.504418429746089], [125.84690809020152, 9.504577160333826], [125.84657549991081, 9.504788790106259], [125.84591031000156, 9.505487169895229], [125.84565281950724, 9.504302040390176], [125.84518075031893, 9.503783539891428], [125.84463358029784, 9.503931679748579], [125.84470868009419, 9.504291460263802], [125.84438681982644, 9.504778209965227], [125.84422587984656, 9.505508330220296], [125.84441899953106, 9.507328350168171], [125.8434104903446, 9.50888382039691], [125.84323882966956, 9.50841823980801], [125.84290624041525, 9.508132539792152], [125.8422732395384, 9.508016150000243], [125.84203719976219, 9.508079640175687], [125.84174752023546, 9.50843940030964], [125.8419513699429, 9.509021379752477], [125.84211229955858, 9.509359989826647], [125.84225177949256, 9.51019592024633], [125.84196209996583, 9.51068265985628], [125.84113598044091, 9.51075673004009], [125.84070683030795, 9.51109532987009], [125.84038495967599, 9.512132310316977], [125.83894730035654, 9.513253920301567], [125.83875417963563, 9.513063459715028], [125.8381962795916, 9.512957650264843], [125.83765983959346, 9.513105790018956], [125.83727360022449, 9.513465549740998], [125.83712339026755, 9.514439029962181], [125.83682299004562, 9.515454819635245], [125.83592176036018, 9.51570876989639], [125.83517074995942, 9.516788050227778], [125.83444117991259, 9.516639920042632], [125.83379745004926, 9.516195509999593], [125.83328247009693, 9.515708769896392], [125.83231687996586, 9.514333209768774], [125.83152294014558, 9.513529040107258], [125.83075046969894, 9.513507869764865], [125.83021402037302, 9.512470909884561], [125.83068608956131, 9.512047649948975], [125.83160876996489, 9.511455100243959], [125.83175897992182, 9.511391610252753], [125.83274603009882, 9.511264639838771], [125.83319664027765, 9.511328120273033], [125.83476304950817, 9.510100690372306], [125.83647966040422, 9.50993138017035], [125.83735943004379, 9.510502780183227], [125.83929061963379, 9.50980441028437], [125.83954811012816, 9.509359989826649], [125.83952665008229, 9.508576960285637], [125.83905457985757, 9.508153709810468], [125.83879709039962, 9.507772769644127], [125.8390974999493, 9.506756949758334], [125.83884001049138, 9.506143220013639], [125.83806752968054, 9.505995080018552], [125.83763837954758, 9.50563530967615], [125.83763837954758, 9.505190889726272], [125.83843231004008, 9.503899940198353], [125.83875417963563, 9.502312700192315], [125.83821773963749, 9.50233386032622], [125.83753108968243, 9.502482000366742], [125.83757400977413, 9.501762449765348], [125.83725214017858, 9.50112754961375], [125.83693026954663, 9.500810100365241], [125.83626509000158, 9.500238689898048], [125.83536386031615, 9.499857750367422], [125.83435535009328, 9.499667280359679], [125.83315372018593, 9.4995614598492], [125.83233832964751, 9.499455649698719], [125.83197355032443, 9.499349830046414], [125.83105086992086, 9.499222849683592], [125.83002089965211, 9.499201689736953], [125.82924843024189, 9.499074710222093], [125.82823992001902, 9.499138200371032], [125.82731723961544, 9.499413320245036], [125.82725286051426, 9.500281020245602], [125.82723140979616, 9.5037518003546], [125.82733869966131, 9.505889270314514], [125.82699537001992, 9.508026730238779], [125.8261156097081, 9.509106029856934], [125.82633018011069, 9.510037199831505], [125.82605123993466, 9.511053010137045], [125.8256220804739, 9.512301609662693], [125.82497834957415, 9.513063459715024], [125.82504272038403, 9.51515855012436], [125.82444190957601, 9.5163648097161], [125.82407713025287, 9.51750756964447], [125.82405567020703, 9.518840800091272], [125.82371234989336, 9.520322149802443], [125.82281112953568, 9.52133793028842], [125.82263946989704, 9.521634200250258], [125.82233906034739, 9.52163420025026], [125.8217597002575, 9.521443739882063], [125.82150220976312, 9.521888139888366], [125.82137345985204, 9.521486069607928], [125.8214378399897, 9.521083990254157], [125.82081555980805, 9.52032214980244], [125.82012892021712, 9.520237500170976], [125.82050442956316, 9.521560130154139], [125.82063317014646, 9.522554749693398], [125.8203542196063, 9.522734619653884], [125.82024692974109, 9.523358900316397], [125.8207189999658, 9.524173639865067], [125.82156657953655, 9.525379859744946], [125.82148074971725, 9.526141689732407], [125.82113743044002, 9.527242100241185], [125.8211803401676, 9.527876949903709], [125.82167387043816, 9.528342510231868], [125.82212447958058, 9.528998519656588], [125.8221673996723, 9.52969684990298], [125.82150220976312, 9.530077750312396], [125.82113743044002, 9.530670279833597], [125.82150220976312, 9.530987699680834], [125.82236052039325, 9.530987699680832], [125.82381963975854, 9.531749510076587], [125.82388400953197, 9.532193900106654], [125.82392692962371, 9.532849900056519], [125.82420588016396, 9.533675199775756], [125.82594395006949, 9.533590550097802], [125.82664131968332, 9.533304870099867], [125.82707046981628, 9.53369636021207], [125.82760692017862, 9.533960869746581], [125.82788586968242, 9.53420423013627], [125.82827209972365, 9.53437352027464], [125.82871199024375, 9.534373520274638], [125.82930206999241, 9.533929129863168], [125.82934499008414, 9.533357779877146], [125.82961320956503, 9.533209649842037], [125.82996725990161, 9.53319906963843], [125.83061098976493, 9.533431839753625], [125.83091140035103, 9.533140869784223], [125.83127617967416, 9.533373650189867], [125.8318018896494, 9.533918549637818], [125.83182334969524, 9.534093129753318], [125.83160876996489, 9.53486022987828], [125.8317321502006, 9.535145900021089], [125.83237588006395, 9.535230550074946], [125.83386183018683, 9.5353204799538], [125.83424806955584, 9.53551623005445], [125.83440900020797, 9.535643190180656], [125.83470940975764, 9.535738419840168], [125.83498836029786, 9.535992349834364], [125.83525657977872, 9.536066419802594]]], [[[125.83998799028409, 9.542118449677746], [125.83993970984471, 9.54192271972251], [125.8399075301401, 9.541377830065569], [125.83994507952008, 9.541028669808144], [125.83973587050146, 9.54089641989461], [125.83937645048952, 9.540827639915998], [125.8392932998076, 9.541092150070451], [125.83873539976358, 9.541039250248353], [125.8387032200589, 9.54087525981773], [125.83828478958473, 9.540856740083433], [125.83828478958473, 9.540518170305072], [125.83814800018868, 9.54040178009179], [125.83785564048817, 9.540428230350946], [125.83776175978328, 9.540351519916964], [125.83747744993188, 9.540415010385795], [125.83807290039235, 9.542467610227833], [125.83945155028592, 9.542451740297459], [125.84041446024325, 9.542359160288335], [125.83998799028409, 9.542118449677746]]], [[[125.81590711998875, 9.521993949648014], [125.8157730097301, 9.52114218016129], [125.81551552027214, 9.520385639820256], [125.81518829032902, 9.51995180960328], [125.81523120005662, 9.519359270388236], [125.81480741959896, 9.517772100334376], [125.81456064979982, 9.517105490083447], [125.81430316034186, 9.516745729808399], [125.81356286959986, 9.516036790050197], [125.8132624600502, 9.51581458971002], [125.81275821012085, 9.51524320011953], [125.81215738998507, 9.515010410298403], [125.81207156016573, 9.514597739654938], [125.81188917050419, 9.514206239879893], [125.81144929034828, 9.513740660178492], [125.8105266099447, 9.512132310316977], [125.8102154703721, 9.511719630344878], [125.80964684030515, 9.511211730216518], [125.80897092970075, 9.511687890090931], [125.80885290981266, 9.512074109986342], [125.80828965045744, 9.512650789771428], [125.80816089950999, 9.512968229857767], [125.80816627022175, 9.513153399798748], [125.80824137001812, 9.513391479780203], [125.80852567986952, 9.513618980310268], [125.80891192027491, 9.514179779681815], [125.80908894958887, 9.51424855999306], [125.80935717010615, 9.514248559993062], [125.80974876982276, 9.515153260294841], [125.80959857022997, 9.515851620177088], [125.80973268048865, 9.51678805022778], [125.81067680953745, 9.517772100334373], [125.81101476950356, 9.518576270184642], [125.81124008029326, 9.519449209701973], [125.81119179985394, 9.520380349911946], [125.81124008029326, 9.521205670327538], [125.81124543960443, 9.522009829775], [125.81130981041429, 9.522565330370236], [125.81126689965033, 9.52295682993881], [125.81173360019967, 9.522962119885996], [125.81220567042439, 9.5229250799286], [125.81336438956775, 9.523004440260811], [125.81353647381104, 9.523042764373105], [125.81243633948887, 9.522956829938806], [125.81194281958244, 9.52295682993881], [125.81128835969619, 9.52300973020872], [125.8109021203272, 9.523380060129853], [125.81076264039321, 9.523919689832171], [125.8106017097411, 9.525337539877958], [125.8109557600777, 9.525707869874124], [125.81094503005475, 9.525961810078792], [125.8104085900566, 9.52666015016554], [125.80990970047483, 9.527966889813102], [125.80983995998963, 9.528538250077403], [125.81028520982088, 9.52930536028709], [125.81064462983286, 9.529379420101497], [125.81086993025836, 9.529596330249339], [125.8098238696191, 9.53085014998567], [125.81035495030612, 9.531426800258707], [125.81057489038406, 9.532029900311127], [125.81054806999062, 9.532379060335696], [125.8105802496952, 9.532807580081997], [125.81083774951732, 9.533013900235929], [125.8104407801254, 9.534235970044605], [125.81015109956225, 9.534500490315779], [125.80994724985482, 9.534791450290898], [125.80958246949528, 9.53552681032806], [125.80944836027305, 9.53594474013146], [125.81247388990525, 9.53656899029815], [125.81428706997133, 9.536902279607054], [125.8149576202281, 9.536352090134764], [125.8150196741056, 9.536336244564914], [125.81489325045469, 9.536510800213183], [125.81433535041064, 9.536965759915658], [125.81318736025379, 9.537113889950351], [125.81287621964476, 9.53750537001849], [125.81434070972185, 9.537642919943584], [125.8155798900456, 9.538330649721095], [125.8162879896824, 9.538886130106407], [125.81674396953659, 9.5394786403636], [125.81711947991903, 9.539896559787435], [125.81743061949165, 9.540007659628099], [125.8180421603226, 9.54012933038195], [125.81854641025195, 9.540087010322223], [125.81881464009699, 9.539811919729376], [125.81956029015018, 9.539362249701405], [125.82055271000253, 9.539081870282029], [125.82116961014466, 9.538780320013123], [125.82156657953655, 9.538203690209583], [125.82202791973833, 9.537706400386487], [125.82245708023551, 9.537473629813833], [125.8230256999383, 9.537410150207709], [125.82346559045837, 9.537410150207707], [125.82443117955307, 9.537812210155211], [125.82483888000438, 9.538066140064183], [125.82532166988783, 9.538161360053369], [125.8255362496182, 9.537801629812536], [125.82532166988783, 9.537124470272225], [125.82520366036391, 9.536362669639068], [125.82493543984657, 9.535875969865739], [125.82490324977779, 9.535611450144785], [125.82472086011623, 9.53520939034049], [125.824302429642, 9.53490255010081], [125.8239161996008, 9.534786160165162], [125.82348704014008, 9.534415839643824], [125.8228433102767, 9.534521650007402], [125.82296133016487, 9.534109000099358], [125.8230256999383, 9.533505909974874], [125.82292914009605, 9.533114420075526], [125.82346559045837, 9.532405520317976], [125.82335829955676, 9.53176009023642], [125.82291842043726, 9.531368610233464], [125.82251071998598, 9.531199309629065], [125.8219635499649, 9.531146409712287], [125.82125545032814, 9.53127338017285], [125.82030785967982, 9.532120772029215], [125.82075119003458, 9.531580219617206], [125.8208584798998, 9.530733759807323], [125.82087993994566, 9.528786899913843], [125.8198714297228, 9.52834251023187], [125.82015038026302, 9.52741139019394], [125.82017182994467, 9.526332139939896], [125.82012892021712, 9.52504126996533], [125.81982850963105, 9.524088990098516], [125.81942081021619, 9.523348319615629], [125.81912040999426, 9.522713459879373], [125.8184122999933, 9.522586490135808], [125.81697463963746, 9.52269230010614], [125.81575154968422, 9.523221349642201], [125.81538677036114, 9.52349645978435], [125.81513781067203, 9.523517808722875], [125.81563354016026, 9.523221349642204], [125.81593931005756, 9.522729329710137], [125.81604659992271, 9.522501839957851], [125.81604659992271, 9.522369580352585], [125.81590711998875, 9.521993949648014]], [[125.81854802345723, 9.534266521631189], [125.81827283042351, 9.534764999663006], [125.81757545044549, 9.535516230054453], [125.81655621952744, 9.536108740170897], [125.8155789957339, 9.536193420248587], [125.81688880981815, 9.53581248022004], [125.81781149022173, 9.535219969810274], [125.81854802345723, 9.534266521631189]], [[125.81510535007276, 9.523520592290396], [125.81489325045469, 9.523538780223662], [125.81430316034186, 9.523432969997904], [125.81413857862212, 9.523341668242974], [125.81452847009514, 9.523464709725276], [125.81510535007276, 9.523520592290396]], [[125.81406573984049, 9.523301260862766], [125.81364222690928, 9.523066316123321], [125.81369697985852, 9.523078509867466], [125.81406573984049, 9.523301260862766]]], [[[125.82077265008047, 9.549011509799469], [125.82162558999882, 9.548805200079725], [125.82286477032262, 9.548784040319081], [125.82290231970258, 9.548101609722808], [125.82317590989521, 9.546842569791501], [125.82247852991716, 9.546599219684564], [125.82168727959845, 9.546437870209841], [125.81997066973884, 9.545805700374661], [125.81946373030792, 9.545821569662586], [125.8190453101979, 9.546906050314025], [125.81974804015933, 9.547466799667808], [125.81951737005843, 9.548715260378993], [125.82024157042991, 9.5494770402291], [125.82077265008047, 9.549011509799469]]], [[[125.79707265051519, 9.546255359612726], [125.79786657997131, 9.546456390239522], [125.79849957981169, 9.54621303960667], [125.79886436017122, 9.546138980204343], [125.79950809003455, 9.546213039606672], [125.79987287972185, 9.546350580240984], [125.80017327994378, 9.546308260223409], [125.80152511980809, 9.545736929760569], [125.80293059009513, 9.545609969945941], [125.80344558041156, 9.54559937983263], [125.80379962971176, 9.545313720228172], [125.80411077032078, 9.54500689020079], [125.80428242995939, 9.544975150110405], [125.80531240022812, 9.544562519662517], [125.80584884022629, 9.54454134982908], [125.80631018042808, 9.544562519662515], [125.80691099019968, 9.544403809906074], [125.80741525049321, 9.543885370084482], [125.80808043003825, 9.543567959998171], [125.80834865988328, 9.54331403960541], [125.80814481017588, 9.542869660093093], [125.80591320999974, 9.54233005999598], [125.80471158009237, 9.5418539403368], [125.80408931027489, 9.541705820214842], [125.80382108975762, 9.541473050161033], [125.80311297975666, 9.540626619674098], [125.80230832027763, 9.540203399636276], [125.80168605046018, 9.539811919729372], [125.80111742039323, 9.539547409747824], [125.80021620003552, 9.539473350167052], [125.79999089028225, 9.539579150140494], [125.79960464987681, 9.540425590012875], [125.79936862046478, 9.540192820015914], [125.79867124981448, 9.539960050173732], [125.79836011024186, 9.539589729742312], [125.79798459985943, 9.539399280272635], [125.79720140042627, 9.539388699882013], [125.79619287983923, 9.539462760239442], [125.79539895038313, 9.539208830112008], [125.79489470045378, 9.53893374020927], [125.79451919007131, 9.538827939636338], [125.79378963038867, 9.539028969969179], [125.79348921980258, 9.538901999875117], [125.79301714957785, 9.5386057502738], [125.79199791036845, 9.5384893599018], [125.79177259957875, 9.538489359901801], [125.79128980969524, 9.538573999640093], [125.7912146995347, 9.538637489786536], [125.791193249853, 9.539219409702651], [125.79159020991719, 9.540097589939391], [125.79200864039142, 9.540478489742227], [125.79243778948795, 9.54106041033515], [125.79319954027582, 9.541272020013645], [125.79340338998324, 9.541494210274053], [125.79345702973374, 9.541832780202023], [125.79315662018409, 9.542340639680964], [125.79280256984747, 9.542605150184349], [125.79221249009883, 9.542795599809338], [125.79175114989704, 9.542837920196588], [125.79123615958058, 9.543218810268726], [125.79094648005383, 9.543758410147186], [125.79093575003093, 9.544446129693252], [125.79101086019146, 9.544710640199131], [125.79102159021438, 9.545260819767872], [125.79159020991719, 9.545567639688471], [125.79179405962462, 9.546699729917565], [125.79211593025657, 9.547165259653791], [125.79257727045834, 9.54773660039542], [125.79319954027582, 9.547726019752691], [125.79368233948708, 9.547323969868497], [125.79452990973007, 9.54705945977034], [125.79550624024829, 9.547027720288295], [125.79677760960446, 9.546615089803083], [125.79707265051519, 9.546255359612726]]], [[[125.79995870954119, 9.53488139038619], [125.79966903001444, 9.535664349941314], [125.80054879032623, 9.535696100311174], [125.8015036597622, 9.53581248022004], [125.80305934000617, 9.53625686984303], [125.80370306986951, 9.536098159879696], [125.80414295002542, 9.535156480283508], [125.80533384990984, 9.535463319951097], [125.80563426049595, 9.535590290387326], [125.80610632968424, 9.535706679795675], [125.80648184006672, 9.536002930122368], [125.80698608999609, 9.535749000120482], [125.80708264983829, 9.535103579769139], [125.806996820019, 9.534786160165165], [125.80664276968241, 9.534722680251653], [125.80631018042808, 9.534415839643824], [125.8058166501575, 9.534151329765734], [125.8057308203382, 9.533929129863164], [125.80561280045006, 9.533812740250985], [125.80521584038593, 9.533643450383645], [125.80451846040788, 9.533527069606418], [125.80407858025198, 9.533516490187768], [125.80381035973471, 9.533273130275882], [125.80357431995846, 9.533146159885122], [125.80243707018869, 9.53324138966025], [125.8021366596026, 9.533304870099869], [125.8028233095577, 9.532236220007045], [125.80346704045742, 9.53149556965093], [125.80363870009606, 9.531199309629061], [125.8039283796228, 9.530913629991984], [125.80414295002542, 9.530860730118341], [125.80455065047667, 9.531188730280707], [125.80444335957509, 9.53190821965859], [125.80465794034188, 9.532606550142301], [125.8051460999007, 9.532680609859959], [125.80526411978882, 9.532728230242844], [125.80594808024233, 9.532646229813126], [125.80610364951043, 9.532794359609985], [125.80628066949667, 9.533029780067654], [125.80650598028637, 9.532966290143342], [125.80676614991812, 9.532937189837087], [125.8069270795338, 9.532855190153015], [125.80707728949073, 9.532722940148252], [125.8072221297723, 9.532363190068018], [125.80729722956866, 9.531749510076587], [125.8072221297723, 9.53134743960868], [125.80648184006672, 9.531072350318947], [125.80583811020338, 9.530702020216292], [125.80569863026938, 9.530543310386124], [125.80567717955125, 9.52926303994613], [125.80547332984385, 9.528691669760304], [125.80518365031709, 9.52805682021114], [125.80452919043083, 9.526988159903578], [125.8040249301373, 9.526416790248051], [125.8040249301373, 9.525781940051862], [125.80387472950814, 9.524734429889358], [125.80354214025381, 9.5243746697349], [125.80334901953293, 9.524046670387317], [125.80339193029688, 9.5232636700483], [125.80337047957877, 9.522787530219073], [125.80296278016392, 9.522300800038355], [125.8024585198704, 9.521528389804631], [125.8021688496714, 9.52047027995323], [125.80173969021068, 9.519496829876571], [125.80143928998875, 9.519115909975607], [125.80038785967415, 9.51913707032761], [125.79952955008045, 9.518925450180223], [125.79884291048957, 9.518417549952861], [125.79841374999239, 9.516936190009606], [125.79815625949801, 9.516216670175478], [125.79753398968056, 9.515666449607155], [125.79696535961361, 9.516100280087072], [125.79669714013272, 9.516354230020777], [125.7964396496384, 9.516491780385879], [125.7965683902217, 9.517052580375259], [125.79581737982093, 9.518163609649074], [125.79565643984103, 9.518608010267052], [125.79576372970624, 9.519020680064992], [125.79618216018045, 9.519105319868627], [125.79698681965948, 9.519391009746965], [125.79689025981723, 9.519845999665145], [125.79638599952372, 9.521665939814833], [125.7966327703593, 9.522015119707905], [125.79696535961361, 9.521803500207767], [125.79738379008782, 9.521845819648243], [125.79771638037853, 9.522321970116773], [125.79738379008782, 9.52274520987044], [125.79686879977136, 9.523845630376698], [125.79596758045008, 9.524374669734902], [125.79478740955217, 9.524967210272957], [125.79440117018319, 9.526406210249535], [125.79418659045282, 9.526596670135113], [125.79384327013916, 9.526575499798604], [125.79315662018409, 9.526638990154122], [125.79238414973746, 9.527178609776424], [125.7925236203437, 9.527866369861117], [125.7929205897356, 9.52845889008156], [125.79264164023179, 9.529093740359043], [125.79265237025474, 9.529421749990977], [125.79271674002817, 9.52977090980014], [125.79333900984565, 9.530469239996679], [125.79367161050052, 9.530924219661086], [125.79386473018502, 9.53127338017285], [125.79417586042987, 9.531707190234975], [125.79454063975302, 9.531611960082332], [125.79516291993464, 9.531559060103255], [125.79539895038313, 9.531569640257345], [125.79562426013644, 9.531749510076589], [125.79565643984103, 9.532204480279907], [125.79588174959436, 9.532595969956896], [125.79690098984015, 9.532331450329373], [125.79752325965765, 9.532363190068018], [125.79812407046565, 9.532606550142305], [125.79868197050969, 9.532955709947066], [125.7993042496549, 9.533675199775756], [125.79958320019514, 9.53392912986316], [125.7999372494953, 9.534563970189033], [125.79995870954119, 9.53488139038619]]], [[[125.78840374963288, 9.555216730099353], [125.78830718979063, 9.555438910148952], [125.78829645976766, 9.555655799898473], [125.78836620025291, 9.55577746973938], [125.78863441973377, 9.556020800013076], [125.78876316964481, 9.55619008004917], [125.7888382704776, 9.556406970264932], [125.7889777400474, 9.556660889835827], [125.78938006978692, 9.556761399783174], [125.78938006978692, 9.557189889799416], [125.78961073988785, 9.557623670017573], [125.78920304980073, 9.558295489770696], [125.78936933976401, 9.558470059803504], [125.78991115047394, 9.558401289876482], [125.79036713032812, 9.55819498017664], [125.7910054905161, 9.557766489722368], [125.79167068042533, 9.557131700256866], [125.79242170015384, 9.556576249693501], [125.7927113796806, 9.5557721800909], [125.79282939024094, 9.554983970123224], [125.7930815203877, 9.554560770058139], [125.79337119991446, 9.554290979956349], [125.79401492977779, 9.55385719990211], [125.79434752006853, 9.553672049761866], [125.79466403035288, 9.553635020063428], [125.79466938966408, 9.55337580036528], [125.79439580050784, 9.553137749622728], [125.79407929955124, 9.55303195031592], [125.7938164497457, 9.552550559861553], [125.7932370896558, 9.552349540033934], [125.79313517050238, 9.55222258020236], [125.79410075959709, 9.551905180030564], [125.79478740955217, 9.551767630060262], [125.7966327703593, 9.550963550065683], [125.79840301996944, 9.550296999804107], [125.79871415954206, 9.55013830015895], [125.7991862297668, 9.549164920179322], [125.78804970033268, 9.548910999696675], [125.78835010988234, 9.550529759837747], [125.78837155956406, 9.550990000328833], [125.78848422014102, 9.55179936997253], [125.78866660980256, 9.55253469026826], [125.78858614033085, 9.55268281020848], [125.78836082954115, 9.552714550203836], [125.78839301960993, 9.553238260146035], [125.78837155956406, 9.553751400377521], [125.78853785989153, 9.554148149753072], [125.78858077998328, 9.554523740265541], [125.78833937985944, 9.554962809988611], [125.78840374963288, 9.555216730099353]]], [[[125.78817843987954, 9.524988370183468], [125.78777074979246, 9.524586289992145], [125.78735232035469, 9.524364089797999], [125.78668713977324, 9.524247700184345], [125.78589319995295, 9.524819070277387], [125.78575373038315, 9.525115340002248], [125.786102410008, 9.52610994022831], [125.78654229949161, 9.526797699805286], [125.78661740032446, 9.527321449632566], [125.78673542021257, 9.527527780063416], [125.78785657961177, 9.527633589935956], [125.78818916990251, 9.527813460118502], [125.78831064685711, 9.527309314110505], [125.78841447965581, 9.527898109989856], [125.78869878950724, 9.528432439931754], [125.78900456044087, 9.5285435401088], [125.78926206026301, 9.528718119929673], [125.78956246048492, 9.52923129015931], [125.78920304980073, 9.529633359788068], [125.78896164967689, 9.529961369925111], [125.78889727990347, 9.530257629694804], [125.78889727990347, 9.53096654020267], [125.78898310972279, 9.531453249839991], [125.78902602048674, 9.532394929809549], [125.78939079980988, 9.532902809765082], [125.78966975035013, 9.533135579683416], [125.79007744976496, 9.532923970154743], [125.79060315974021, 9.531982290352252], [125.79050659989795, 9.531548479949494], [125.7905500111913, 9.531348332199089], [125.79073190965121, 9.53157493033451], [125.79125226031528, 9.532098680150806], [125.79334973986856, 9.533669909666878], [125.79438507981268, 9.534098419868585], [125.79572618032626, 9.534542809700298], [125.79638599952372, 9.534511069764163], [125.79678833029965, 9.534526940129142], [125.79730867992728, 9.534701519753334], [125.79777538980443, 9.534807319874043], [125.79802751995115, 9.534690940299214], [125.79796313981358, 9.534278290191715], [125.79808115970168, 9.533839200341555], [125.79759836049044, 9.533532359713139], [125.79690098984015, 9.533378940294286], [125.79580664979798, 9.533669909666878], [125.79543649976313, 9.533691070102877], [125.79479813957511, 9.533442419964262], [125.79470694008043, 9.533648739697574], [125.79456747051063, 9.533643450383645], [125.79418659045282, 9.533283709687199], [125.79279183982456, 9.532500740357222], [125.79136490949163, 9.531294539669542], [125.79103230987317, 9.530627949793292], [125.79072730359131, 9.530530924851716], [125.79093575003093, 9.529569880013687], [125.79046369017036, 9.528998519656588], [125.79015254956133, 9.528088569891564], [125.79076409039229, 9.524776749683546], [125.79029202016758, 9.524713259665294], [125.78969121039597, 9.524713259665297], [125.78913331035193, 9.525062440209194], [125.78881145008413, 9.525760780093451], [125.78851275451328, 9.526256892802305], [125.78855395026204, 9.526025300323164], [125.78870416021897, 9.525665549967528], [125.78817843987954, 9.524988370183468]], [[125.78870951953014, 9.526887640232271], [125.78850031051154, 9.526326849941862], [125.7885090978238, 9.526277449818208], [125.78874706994655, 9.526887640232273], [125.78831768115592, 9.527280120788285], [125.78870951953014, 9.526887640232271]]], [[[125.78050732956135, 9.505349610334676], [125.77945590028315, 9.505466010365918], [125.778919460285, 9.506005669730067], [125.77859758965305, 9.50574112963202], [125.77802895958607, 9.506492409889049], [125.77758908046658, 9.507148469829614], [125.77759981048953, 9.507254279912928], [125.77802895958607, 9.50795265983626], [125.77830791012632, 9.508026730238777], [125.77858685963008, 9.508016150000241], [125.7788014403969, 9.508196029988635], [125.77894092033087, 9.508809749813643], [125.77918767976585, 9.509042549824366], [125.77990651046203, 9.509233009818834], [125.78033565955856, 9.509508129651902], [125.78049659953844, 9.509857310160648], [125.78055024032535, 9.510153590293221], [125.78078628010157, 9.510449869881258], [125.78114033043815, 9.510629750321725], [125.78166604041338, 9.510756730040093], [125.78217029967048, 9.510576850329079], [125.78254579968878, 9.51033348011585], [125.78324317966683, 9.509624519938264], [125.7834041103189, 9.509254170369555], [125.78377961966497, 9.508090219621645], [125.78387617950722, 9.507307189733478], [125.78381180973378, 9.506587649907578], [125.78382253975673, 9.506037410264984], [125.78433751970898, 9.505381360344156], [125.78508854047392, 9.504111570357392], [125.78490614977594, 9.503296789978862], [125.78486322968422, 9.502460840223913], [125.78486322968422, 9.500556140219478], [125.78480958993373, 9.50007997000891], [125.78403711015935, 9.499180520257939], [125.78364015009514, 9.499000629789412], [125.78287840034369, 9.499011220084629], [125.78236341002723, 9.499445069718229], [125.78242779016486, 9.499677860346843], [125.78273892040973, 9.500016479689908], [125.78281402953381, 9.500429160215406], [125.78243852018777, 9.500788940323066], [125.78193425989427, 9.501646059700096], [125.78165531039045, 9.502619569927425], [125.78165531039045, 9.503545460066839], [125.78148901006301, 9.503725340149666], [125.78147291969248, 9.503995169980364], [125.78138172952559, 9.504286169803498], [125.7811027800218, 9.50478879010626], [125.78113495972642, 9.50525438018558], [125.78106522960536, 9.5053178698619], [125.78089355960257, 9.505667059711435], [125.78076482005571, 9.505688220047338], [125.78050732956135, 9.505349610334676]]], [[[125.78130126005385, 9.530998279817661], [125.78097939045831, 9.531188730280705], [125.78077555007862, 9.532236220007045], [125.78119397018867, 9.533368360085548], [125.78121543023455, 9.534235970044604], [125.78168750045928, 9.534458159812672], [125.7819986296677, 9.534690940299214], [125.78234196034552, 9.535018940075155], [125.78244925021073, 9.53627802964077], [125.78305005998232, 9.53730433976593], [125.78305005998232, 9.53742072974398], [125.78321098959802, 9.53784395039056], [125.78329682045374, 9.538203690209587], [125.78357576995757, 9.53865864972813], [125.7837903496879, 9.538912580251045], [125.784090760274, 9.538616329846203], [125.78454137045284, 9.53826716995959], [125.78459501020336, 9.537346660283832], [125.78475595018321, 9.536838800104514], [125.78494905950352, 9.535357519632228], [125.78499197959528, 9.532500740357222], [125.78491687979889, 9.531961130019473], [125.78490614977594, 9.530299950155875], [125.78482031995664, 9.5288292201973], [125.78484178000251, 9.528564700235195], [125.78498124957234, 9.528257860253179], [125.78503489035926, 9.52796159979041], [125.78469157004558, 9.526744799758372], [125.78404784018223, 9.526057040285197], [125.78348994013821, 9.524628620097321], [125.78380107971081, 9.52362342985739], [125.7839727403859, 9.523253090144932], [125.78443407955123, 9.523115540306753], [125.78473449013735, 9.522798110108413], [125.78446626962005, 9.522269059621806], [125.78410149029692, 9.522036280234804], [125.78398347040881, 9.521369669826168], [125.78398347040881, 9.521020500109929], [125.7844555395971, 9.520449120315343], [125.78468084002267, 9.519750770350859], [125.78467010999972, 9.518787890121413], [125.78459501020336, 9.518163609649074], [125.78459501020336, 9.517761519802118], [125.78450918038402, 9.516872699821496], [125.78392982029413, 9.516438880304362], [125.78236341002723, 9.515677030076246], [125.7817196801639, 9.516449460002217], [125.78071116994103, 9.516385969902187], [125.78078628010157, 9.517338279705303], [125.78050732956135, 9.518925450180225], [125.78055024032535, 9.519539149833282], [125.78049659953844, 9.520226920358896], [125.78086137989796, 9.522184410314999], [125.78064143982, 9.523057339743383], [125.78048586951549, 9.524120729885253], [125.78030347985394, 9.524395839938517], [125.77984213965215, 9.524893140267345], [125.77972949047576, 9.525311089963678], [125.7797133897411, 9.525623219737133], [125.77994405984198, 9.525797810021514], [125.77992797050787, 9.526596670135113], [125.78014790954941, 9.526972289880057], [125.78039467002081, 9.527125709672038], [125.78083991985208, 9.527146869712837], [125.78107595030058, 9.527215650183198], [125.78121005952279, 9.527379650109275], [125.78121543023455, 9.527887529946629], [125.78067899023635, 9.529062000122021], [125.78072189996394, 9.529834399939974], [125.78120470021162, 9.530299950155873], [125.78130126005385, 9.530998279817661]]]]}}]}