{"type": "FeatureCollection", "features": [{"type": "Feature", "properties": {"source": "Tang & Werner 2023", "polygons": 3}, "geometry": {"type": "MultiPolygon", "coordinates": [[[[120.66950172008335, 16.3655213101411], [120.66941589026405, 16.365492999796228], [120.66891967981965, 16.365868740177408], [120.66816329974355, 16.36655071992885], [120.66857635950598, 16.367088589815083], [120.66877216040066, 16.367212119906302], [120.66930055987744, 16.36780659984604], [120.66969215959404, 16.367693359645138], [120.66996306028513, 16.36769851007873], [120.67099035038005, 16.367592990280603], [120.67129075992973, 16.367441159942913], [120.6716743097972, 16.367299610164437], [120.67190229972427, 16.367034540221514], [120.67233681953259, 16.3662676298933], [120.67260772022367, 16.365881600230303], [120.67293495016679, 16.36551358987946], [120.6730449202058, 16.365266530238987], [120.6727766996885, 16.36475182023427], [120.67101181042595, 16.363991339646166], [120.67094475011453, 16.36436965034062], [120.67066044026313, 16.36450475990239], [120.67044050018515, 16.364511189884904], [120.67033990971804, 16.364581970303792], [120.67052497955342, 16.364783989774786], [120.67064166039106, 16.364836750150143], [120.67076771976413, 16.36483416966557], [120.67075163043003, 16.364960279666853], [120.6705571696222, 16.36505806967119], [120.67046060977995, 16.365180319689255], [120.67037075969998, 16.36537333007857], [120.67016422981872, 16.36549556968006], [120.66992282969491, 16.36540806960174], [120.66976458025303, 16.365392629903603], [120.66950172008335, 16.3655213101411]]], [[[120.65785557000814, 16.371455790403058], [120.65771072972655, 16.371782619614756], [120.65771610043831, 16.3721326100942], [120.65774559996916, 16.372238120045793], [120.6576168500581, 16.372387379972377], [120.65728962011498, 16.372585539715274], [120.65730035013789, 16.37278883960964], [120.6574398300719, 16.373087360396454], [120.6574022796555, 16.373367859904096], [120.65742641987515, 16.37361490996572], [120.65763562993017, 16.374049820342183], [120.65758063972862, 16.374285290345952], [120.65734996962769, 16.37440367019577], [120.65684035002302, 16.374877169892684], [120.65621405994482, 16.37510105992313], [120.65613225038622, 16.37516796989873], [120.6561215203633, 16.375264469688286], [120.65632671015764, 16.37545490021146], [120.65635890022644, 16.375789450089396], [120.65653458012578, 16.37603005973215], [120.65656811028146, 16.376242370039883], [120.65654262997488, 16.37644823959674], [120.65645009039336, 16.37651772004874], [120.65613091029934, 16.37657432998979], [120.65592438041813, 16.376571759963575], [120.65536915951144, 16.377194520149942], [120.65558106010445, 16.37721510980581], [120.65571249018927, 16.37731032026083], [120.65595387994895, 16.3773695102565], [120.65616577950551, 16.377485309652613], [120.65606653948947, 16.37773492994688], [120.65581708951653, 16.377675739843], [120.65536648037408, 16.378033440164312], [120.6548595399068, 16.37806688992706], [120.65476834973985, 16.37818011968029], [120.65499633966697, 16.37882088995343], [120.65510362020443, 16.378957280025723], [120.65510630970591, 16.37910911013106], [120.65487831977885, 16.379453930054822], [120.65460742012418, 16.379546579673363], [120.65444648014434, 16.379657230405137], [120.65452427047867, 16.37984766021639], [120.65498023996871, 16.37954914973783], [120.65529943042685, 16.37919144996851], [120.65532088010856, 16.37900616987509], [120.65527529020721, 16.378743690376822], [120.65516530980403, 16.37849922035074], [120.65514116958438, 16.37829850020431], [120.6554388999967, 16.37828047966887], [120.65559447030117, 16.378236739885917], [120.65593778957845, 16.377981969898638], [120.65601556954859, 16.37802315019084], [120.65606653948947, 16.378097769649564], [120.65609335988295, 16.37834738989254], [120.65580635949357, 16.37872309974736], [120.6557285795234, 16.37905505973642], [120.65571249018927, 16.379363870128948], [120.6559431602902, 16.38007669024366], [120.65603435045709, 16.380249099741636], [120.65621674011864, 16.380398350142915], [120.65636425953761, 16.380272259785933], [120.65635622005264, 16.38013330037656], [120.65623551999074, 16.38003551034448], [120.65614699963345, 16.379906840353485], [120.65607994968622, 16.379644359672362], [120.65594584046399, 16.37934843016931], [120.65606921966325, 16.378998449908945], [120.65606116981417, 16.37875141033314], [120.65620869026954, 16.37861245034888], [120.65641253997693, 16.37853010014003], [120.65662175003195, 16.378560979934093], [120.65664052990404, 16.378396279592735], [120.65673172007094, 16.378334520060264], [120.65679610020854, 16.378223870060765], [120.65679072949679, 16.37798196989864], [120.65669149051718, 16.377827569790988], [120.65668881034338, 16.377469869838077], [120.65660030035028, 16.377325760063048], [120.65658152047817, 16.37719709018417], [120.65717696990217, 16.377024680054266], [120.65743178022275, 16.376841970366716], [120.65756589048138, 16.376839389727227], [120.65794139982742, 16.377161059923342], [120.65790117027366, 16.376836819697605], [120.65782874961467, 16.376674689988267], [120.65780996974262, 16.37654860034806], [120.65793334997831, 16.376288690018782], [120.65794944967658, 16.376036490085244], [120.65790920975866, 16.37592068989615], [120.6576141698843, 16.37577657960567], [120.65744786955686, 16.37575599009797], [120.65735132007877, 16.375704519602554], [120.65724938952478, 16.375550119621746], [120.65762758008104, 16.375071470155735], [120.65765440047451, 16.374963379725926], [120.65774559996916, 16.37494537010086], [120.65804600951883, 16.375359689824013], [120.658216330107, 16.375384139612134], [120.65834506965386, 16.375287629971172], [120.65836117038856, 16.37519113017043], [120.65834105042956, 16.375134519804938], [120.6582753395328, 16.375085620292754], [120.65830886036076, 16.3749016196218], [120.65825923983455, 16.37475751006592], [120.65831423003611, 16.374628840207823], [120.65870047044152, 16.3743277503866], [120.65880506976873, 16.374191360208457], [120.65892845000442, 16.373686970031777], [120.65893918002736, 16.373432200129916], [120.65903842004343, 16.37332669036436], [120.65921545039382, 16.373344699843603], [120.65940857007833, 16.373437349895195], [120.6596928799297, 16.373331830333388], [120.65997451997146, 16.373295809746573], [120.6600764401613, 16.373182580311422], [120.66006571013837, 16.37286604015117], [120.66022663975404, 16.372673029875877], [120.66037684971097, 16.372361650053357], [120.66055924040897, 16.372207239596126], [120.6606906704938, 16.37203224992737], [120.66068797995584, 16.371635930102336], [120.66047072005168, 16.3713914597905], [120.66039294008151, 16.37124219979119], [120.66038757973394, 16.370974560381345], [120.65841883039975, 16.37097713033561], [120.65814257039753, 16.371149549940625], [120.65785557000814, 16.371455790403058]]], [[[120.65717965007597, 16.401745609903596], [120.65705358966648, 16.402376010288368], [120.65660833983524, 16.402605009832005], [120.65642326999989, 16.40279027019147], [120.65633476000676, 16.40293949989261], [120.65605581050293, 16.40305013991508], [120.6559297397293, 16.403132479828948], [120.65570979965132, 16.40338977962685], [120.65570176016637, 16.403526160359284], [120.65573663040898, 16.40365738002906], [120.65597533999482, 16.40390181963505], [120.6561684596793, 16.403999590337264], [120.65623015031538, 16.403999590337268], [120.65628380043007, 16.403852930220648], [120.65638036027234, 16.403739720193492], [120.65657346959263, 16.40358018962484], [120.6570213995977, 16.403304870052835], [120.65726279972151, 16.403232830318476], [120.65806478006316, 16.403248269676062], [120.65837054996044, 16.403101600316628], [120.65857171949403, 16.403068149625675], [120.65887481025393, 16.402713080122673], [120.65961241978573, 16.402252500082252], [120.65980284996867, 16.40199004961661], [120.66004961976786, 16.401727600312356], [120.66010058038097, 16.401578360090053], [120.66010325951832, 16.401014859636657], [120.66015690963302, 16.400713810032734], [120.66023736977698, 16.400577440200795], [120.66021322955736, 16.40016831983672], [120.66014080993473, 16.400042239852386], [120.66001742969904, 16.399911010316014], [120.65981626949316, 16.399880129669683], [120.65951854011728, 16.399885280116788], [120.6592690901443, 16.39993673970231], [120.65872728979856, 16.40014773026338], [120.65824448955092, 16.400410189733684], [120.65802990982056, 16.400618609643384], [120.65769999970361, 16.400855329613755], [120.65744786955686, 16.40110748987308], [120.6573352203805, 16.401297900142225], [120.65717965007597, 16.401745609903596]]]]}}]}