{"type": "FeatureCollection", "features": [{"type": "Feature", "properties": {"source": "Tang & Werner 2023", "polygons": 6}, "geometry": {"type": "MultiPolygon", "coordinates": [[[[120.7904291200169, 16.853952000223003], [120.79056858958673, 16.854167630317562], [120.79094946031677, 16.854265180051495], [120.79110502958484, 16.854111160206532], [120.79134107039751, 16.853797979808707], [120.79151273003615, 16.85343347025161], [120.79168975002233, 16.85334618997175], [120.79179703988754, 16.853176769770155], [120.79179167953994, 16.85292006962856], [120.79157174049837, 16.852642830192195], [120.79112113031954, 16.852242369928657], [120.7907939003764, 16.8520729498734], [120.79061150967843, 16.85214995978919], [120.79049885013792, 16.852432329742093], [120.79016089017185, 16.852704440103295], [120.79012333975545, 16.85292006962856], [120.79024673035532, 16.8538185203838], [120.79030573045341, 16.85391606012463], [120.7904291200169, 16.853952000223003]]], [[[120.7854831204534, 16.851076940210547], [120.7861858597426, 16.85057379998952], [120.78614295001505, 16.85036844031495], [120.78595518964173, 16.850055260235113], [120.78585862979946, 16.850050120077626], [120.78560649965272, 16.850111729983112], [120.78530610046721, 16.850019320040868], [120.78505932963164, 16.850019320040865], [120.7844799799059, 16.85004498973754], [120.78438342006363, 16.850091199617932], [120.78440486974534, 16.850214409657298], [120.78465163954452, 16.85054299986957], [120.78475893044613, 16.850799700136868], [120.78479111015076, 16.850979389626236], [120.78485547992418, 16.85103587027877], [120.7854831204534, 16.851076940210547]]], [[[120.77436805002877, 16.885528600391655], [120.77528000040941, 16.886457689937586], [120.77542483965458, 16.88651929014881], [120.77566623977839, 16.886159969770098], [120.77615975968484, 16.885744190362487], [120.77633142035988, 16.885431070096175], [120.77630996964172, 16.88530273993052], [120.77584863047637, 16.884922890208692], [120.77604175016089, 16.884399299903958], [120.77625631952705, 16.884183709795], [120.77615975968484, 16.8839013802896], [120.77626169023883, 16.88374739006419], [120.77626169023883, 16.883654990260016], [120.77623486984538, 16.883485600007095], [120.77615975968484, 16.883362399899173], [120.77612757998017, 16.883131400112763], [120.77615440037364, 16.883044139999033], [120.77625096021588, 16.8829517397124], [120.77652454004438, 16.882895280029185], [120.77677667019111, 16.88289528002918], [120.77720582032407, 16.883008210049265], [120.7774633201462, 16.88298254007579], [120.77760278971603, 16.88285420989737], [120.77764034013241, 16.88263861987315], [120.7777583600205, 16.882546219780107], [120.77812314038005, 16.8825154203044], [120.77807485994073, 16.88241274969306], [120.77770472027001, 16.882299820020442], [120.77760816042776, 16.882433290029603], [120.77752768991965, 16.882423020270174], [120.77734530025808, 16.88248462001534], [120.77722192002238, 16.882340890034598], [120.77656746013609, 16.882238220334088], [120.77624558950414, 16.882032890097094], [120.77603638048552, 16.88198669959943], [120.77519416955369, 16.88267454975431], [120.77507614966557, 16.882802879813607], [120.77488839965645, 16.883100610362863], [120.77460945015261, 16.88333160029357], [120.77398716997097, 16.88329053006915], [120.77397107960046, 16.883439400161993], [120.77419639039019, 16.88379872039846], [120.77425539048825, 16.884224770389974], [120.77398716997097, 16.88505121030338], [120.77436805002877, 16.885528600391655]]], [[[120.77355265949039, 16.86148342960443], [120.77345609964814, 16.86157584010255], [120.77312350002968, 16.86175039011331], [120.77287673955827, 16.861945470263397], [120.77275871967015, 16.862120019788918], [120.77267288985082, 16.862397240053838], [120.77275245724732, 16.862557146259594], [120.77267825952616, 16.86251019002944], [120.77232956953719, 16.86282335014135], [120.7719057797518, 16.86294141959235], [120.77138543012414, 16.86297222004594], [120.77103137978757, 16.86295168995502], [120.77087045017187, 16.863059499751355], [120.7707309702379, 16.863336719723968], [120.7705485795399, 16.863557469684434], [120.77026426968851, 16.863993839650618], [120.77026426968851, 16.864209459644766], [120.77038764992423, 16.864548280211466], [120.77076316030666, 16.864656090077954], [120.77089726952892, 16.864650960169474], [120.77120841013793, 16.864481539904286], [120.77172339009022, 16.864004110069086], [120.77207744042684, 16.863891160040858], [120.77265142980494, 16.863536940349693], [120.77279627008656, 16.86338291968228], [120.77290892962706, 16.86312624038689], [120.77310205034797, 16.86282848000147], [120.77291778293738, 16.8626617729037], [120.77315569009849, 16.86274634007595], [120.7736814000737, 16.862366439691627], [120.77407837050207, 16.862222700096503], [120.7742285700948, 16.862130290108066], [120.77501177989214, 16.861904399665274], [120.77569841948306, 16.861524500113347], [120.77610611993431, 16.861442359922375], [120.77658892018196, 16.860877639995444], [120.77669621004718, 16.86068256010209], [120.77679275952522, 16.860395059789997], [120.77665328995539, 16.859809809884048], [120.77665328995539, 16.859429899711323], [120.77685713966285, 16.858567409719583], [120.77673911977473, 16.858218309861527], [120.77648163031678, 16.858064290148366], [120.7763743404516, 16.857941080029292], [120.77632069966468, 16.857489300172386], [120.77615975968484, 16.857109389639024], [120.77594519031864, 16.856842419977806], [120.77567696980134, 16.85658572970909], [120.77543020000218, 16.856472779913435], [120.77507614966557, 16.85657545968373], [120.77506541964263, 16.85699644035639], [120.77521562959956, 16.857191529629983], [120.77602029011501, 16.857520099759554], [120.7760739298655, 16.857745990001337], [120.7760739298655, 16.858115630039155], [120.77559113998205, 16.858444200098845], [120.77537656025166, 16.858341520156813], [120.77519416955369, 16.85815669983441], [120.77493668009576, 16.858084830357384], [120.77502250991506, 16.858865179921192], [120.77488302998107, 16.858957589989068], [120.77416420032135, 16.858906249875265], [120.77382088000769, 16.85908079993613], [120.77358484023145, 16.859080799936134], [120.77319859982607, 16.859234809821153], [120.77309132032507, 16.859717400227996], [120.77315569009849, 16.860066500331676], [120.77350974043509, 16.86031292007774], [120.77371359014252, 16.860590150029914], [120.7737564998701, 16.86073389005046], [120.77353120048093, 16.86119594037655], [120.77355265949039, 16.86148342960443]]], [[[120.76774835966098, 16.90037305997248], [120.76807021992879, 16.89992137992811], [120.76827406963625, 16.89976739004126], [120.76842427026537, 16.89960315006335], [120.76903582042408, 16.899315709775315], [120.76951861030757, 16.898802429694836], [120.76965809024156, 16.8984123401345], [120.77007651035161, 16.89819676959388], [120.77059149963165, 16.898340480260437], [120.77109574956101, 16.898432869895366], [120.77229738050481, 16.89742683971039], [120.77198625025994, 16.896903299844222], [120.7717072997197, 16.896626120171657], [120.7713961601471, 16.896143639870317], [120.77135324005536, 16.895763799955436], [120.77135324005536, 16.894778290117387], [120.77117085039377, 16.893946759792584], [120.77117085039377, 16.893690120161352], [120.7715141800352, 16.893238419722778], [120.77202915998753, 16.892273419947283], [120.77178239951611, 16.891842260061317], [120.77154635973984, 16.89097990962322], [120.77138543012414, 16.890641140169706], [120.7712888702819, 16.890107300226738], [120.77093481994531, 16.88959400039888], [120.77058076960874, 16.889440009734177], [120.77025890001316, 16.88920389013477], [120.76946496952066, 16.888854839780063], [120.76930403990498, 16.888475000268297], [120.7692611198132, 16.8880130198583], [120.76910019019752, 16.887746100055708], [120.76912165024345, 16.887509980068874], [120.76957226042227, 16.886996669948687], [120.76964736021866, 16.88642176017224], [120.7698297498802, 16.885990579779172], [120.77074170026081, 16.885169280216115], [120.77095627999115, 16.88467648987772], [120.77091335989945, 16.884235040245], [120.77066660046441, 16.883947580245007], [120.77046274972056, 16.883844920329352], [120.77019453023973, 16.883885980034183], [120.76995849979124, 16.884091309782512], [120.7697975598114, 16.884532759905586], [120.76935767965544, 16.885128209601692], [120.76912165024345, 16.885261670106036], [120.7687568698839, 16.885230870198143], [120.7685637501994, 16.885056349753167], [120.7683169804002, 16.88471756039628], [120.76813458970224, 16.884286369890372], [120.76793075035896, 16.883998909814128], [120.76754450995358, 16.883639590024206], [120.76735139026907, 16.883311069680634], [120.76731920020028, 16.88283880972527], [120.76753377993062, 16.882582149644126], [120.76784491950323, 16.8823460195935], [120.76822041952158, 16.88197642986369], [120.76835990049194, 16.88138097022719], [120.76816677977104, 16.88033378974284], [120.76824187956743, 16.879758859666044], [120.76824187956743, 16.87926606019292], [120.76790929031311, 16.878506330368364], [120.76760887972699, 16.87812645961927], [120.76702951963712, 16.878229129593556], [120.76664328959586, 16.878146989682303], [120.76625705022691, 16.87813672996897], [120.76610684026997, 16.878218860057167], [120.765924449572, 16.878526859653437], [120.76613903033879, 16.87878352990366], [120.76651453968486, 16.87881432960378], [120.76692224013611, 16.87875273020843], [120.76710462979766, 16.878937530089747], [120.7671689995711, 16.879296859969816], [120.76741576004252, 16.87970751976617], [120.76751231988474, 16.88023112028874], [120.7677161695922, 16.88055965013271], [120.76792002033608, 16.881001110201506], [120.76780200044796, 16.881637640170787], [120.7672977401544, 16.882202289715686], [120.76658964051762, 16.88230496021539], [120.76649307963895, 16.882510289922767], [120.76655745977658, 16.882695080299737], [120.76684712997557, 16.88317759988435], [120.76689005006729, 16.883485600007102], [120.76706170970594, 16.883803849996003], [120.767190459617, 16.884430099679506], [120.76753377993062, 16.88554912960336], [120.76759814970409, 16.885949509808693], [120.76773762963808, 16.88631909976223], [120.76770543956926, 16.886432030143887], [120.76738358033788, 16.886770810228697], [120.76722264035803, 16.88704800032664], [120.7671689995711, 16.88746890977588], [120.7667720301792, 16.887468909775883], [120.76649307963895, 16.887540780339553], [120.76621413013515, 16.887746100055704], [120.76602101045066, 16.888177280269705], [120.76612830031586, 16.888803509741003], [120.76650380966191, 16.889973850290488], [120.76632142000037, 16.890610340223688], [120.7664287098655, 16.89122629998005], [120.7664287098655, 16.891708799927013], [120.76655745977658, 16.892129699878502], [120.76691151011316, 16.89261219962416], [120.76705097968299, 16.892971509893822], [120.76760887972699, 16.89357718963393], [120.7677590803562, 16.894059689717523], [120.76761960974996, 16.89446004989626], [120.76686859002145, 16.894593510292463], [120.76656818047175, 16.894706429957242], [120.76623559018105, 16.894911749914932], [120.76607465952893, 16.895260780104916], [120.76594590961787, 16.895835659690203], [120.76568842015992, 16.896513200204218], [120.76550603049837, 16.897560299699293], [120.76555967024889, 16.898063309983964], [120.7657313298875, 16.8990796002126], [120.76553821953075, 16.899438900405187], [120.76588153984441, 16.900270400339977], [120.76562405038649, 16.90052703970363], [120.76568842015992, 16.900670760285585], [120.76575278993336, 16.90097872034477], [120.76566696011407, 16.901348280100965], [120.76593517959496, 16.901769160119247], [120.76612830031586, 16.901851279783394], [120.76649307963895, 16.901799950386128], [120.76681495027096, 16.90154331997077], [120.76689005006729, 16.901266150012322], [120.76704024966007, 16.901019779595426], [120.76742649006549, 16.900752880301443], [120.76753377993062, 16.900588629666462], [120.76774835966098, 16.90037305997248]]]]}}]}