{"type": "FeatureCollection", "features": [{"type": "Feature", "properties": {"source": "Tang & Werner 2023", "polygons": 3}, "geometry": {"type": "MultiPolygon", "coordinates": [[[[121.3281610002913, 16.402426960362273], [121.32958399949538, 16.40270695990086], [121.33065699971606, 16.404276959664454], [121.33182700025606, 16.405270959918873], [121.33274099963266, 16.406594959629945], [121.33469200032947, 16.403768959955116], [121.33336600040835, 16.402515959773634], [121.33324900035434, 16.40152595977003], [121.33198100038915, 16.401282959659042], [121.328899999658, 16.400889960216542], [121.32884399998649, 16.399813959903927], [121.32866799983437, 16.398893960255645], [121.3282780003453, 16.39952896009188], [121.32665900021809, 16.40072595975173], [121.32589799979596, 16.40201495976154], [121.32566490033416, 16.403430360316964], [121.32544900020882, 16.403582959980074], [121.32433799976687, 16.402759959656603], [121.32158700035734, 16.400306960161583], [121.31965600043156, 16.399802960316038], [121.31926599990607, 16.39712595976164], [121.31836899983752, 16.39561195983414], [121.31733399983813, 16.393606960058566], [121.31594999996115, 16.391251959916158], [121.31561800042799, 16.391718960127204], [121.31630100012316, 16.393905960049626], [121.31456499994194, 16.395998960280803], [121.31625100026838, 16.397227960086557], [121.31519799978233, 16.397918960075177], [121.31755799956062, 16.39958295970711], [121.31767499961462, 16.400161959719334], [121.31590000010637, 16.400255960022168], [121.31478799952221, 16.40097095978909], [121.31515900045528, 16.40239095983209], [121.31588000037172, 16.403923959658638], [121.31747999987013, 16.404521959980123], [121.32003400028715, 16.40506396033468], [121.32079100014052, 16.404691959776237], [121.32147299969346, 16.403943960287418], [121.3232289996093, 16.40435595997325], [121.32326799997281, 16.40497196004425], [121.32478899963843, 16.405401960346342], [121.32189699987146, 16.40579195994107], [121.32128999958245, 16.40763695978709], [121.32239099963884, 16.410302959972004], [121.32059699950173, 16.408830960125194], [121.3187049999395, 16.409503959798062], [121.31862700024892, 16.411204960149682], [121.31644299958634, 16.411148959947493], [121.31716399950278, 16.41208295989482], [121.32003099986059, 16.412288960281398], [121.32153299993377, 16.41413895961862], [121.32289800021833, 16.41408296022515], [121.3250430005175, 16.414848960347474], [121.32545299974115, 16.414306960342266], [121.32537500005063, 16.413577959903883], [121.32732499956883, 16.413652959983885], [121.32796199997799, 16.412712960312373], [121.32917400027165, 16.411979960189445], [121.32796500040459, 16.41080295962998], [121.32909699968691, 16.408541959949783], [121.32753599951563, 16.407045960212834], [121.32780899998713, 16.405339959827987], [121.327047999565, 16.404404959705225], [121.32672110023879, 16.404114160389334], [121.32751699992319, 16.403435959793324], [121.3281610002913, 16.402426960362273]]], [[[121.33175790027644, 16.40560258040018], [121.33165061041123, 16.405659189607373], [121.33151113980503, 16.405834149968236], [121.33131265977292, 16.40593706977183], [121.33105515995084, 16.40622524991215], [121.33102833955736, 16.406477399815795], [121.33090496035808, 16.406611200001887], [121.3308459498958, 16.406755290098744], [121.33093177971512, 16.407038319972788], [121.33096396978395, 16.407295610114716], [121.33117854951432, 16.4075014496503], [121.33148967975916, 16.408005760348647], [121.3315862396014, 16.408304220317792], [121.33181155039111, 16.408535789756648], [121.33195638963625, 16.40858724994053], [121.33229970994995, 16.40857696002499], [121.3325625701196, 16.40864900005641], [121.33253574039841, 16.40879308019733], [121.33297026020672, 16.40893202037307], [121.33326530008108, 16.408937170237575], [121.33354424958488, 16.40875705974422], [121.33384466017097, 16.408731330036844], [121.33399487012791, 16.408664439833128], [121.33412360967478, 16.40829392960058], [121.33442402026087, 16.40796973024246], [121.33441864954911, 16.40782564987994], [121.33399487012791, 16.407336780127135], [121.33402168948493, 16.407146379604402], [121.33400023047548, 16.406935399601107], [121.33389831028566, 16.406719260218395], [121.3338017504434, 16.40663693025209], [121.33354424958488, 16.406585469755004], [121.33347452050027, 16.406425940176128], [121.33321701964176, 16.406266419703698], [121.33268057964357, 16.40666265968932], [121.33192955991505, 16.405664340203625], [121.33191884025628, 16.405587140044172], [121.33175790027644, 16.40560258040018]]], [[[121.3207649995527, 16.414215959830685], [121.3193219995776, 16.414084960144905], [121.319088000506, 16.415654959669794], [121.31965300000498, 16.417280960404366], [121.32134999982276, 16.417523959597283], [121.32193500009278, 16.417878959958383], [121.32273499984193, 16.415972960282502], [121.32096000033364, 16.415430959670992], [121.3207649995527, 16.414215959830685]]]]}}]}