{"type": "FeatureCollection", "features": [{"type": "Feature", "properties": {"source": "Tang & Werner 2023", "polygons": 3}, "geometry": {"type": "MultiPolygon", "coordinates": [[[[121.43733501003246, 16.32193104028447], [121.43746375994351, 16.32227081973445], [121.43762468955921, 16.322548829689897], [121.43788218005356, 16.32260031018643], [121.43827915048188, 16.322847420017368], [121.43850446023521, 16.322919500166794], [121.43881559048005, 16.32289889977461], [121.43914819009854, 16.32296067974353], [121.43963099034617, 16.323187200203616], [121.43979191996185, 16.32336224021422], [121.43987774978119, 16.323588760311843], [121.44011378022967, 16.323681429775135], [121.44110083973443, 16.3232180902301], [121.44157289959497, 16.32303275993365], [121.44205569984263, 16.32297097994253], [121.44322515004536, 16.32374320998508], [121.4436435701554, 16.323393130267654], [121.4438366898399, 16.323403429672936], [121.44459843959132, 16.323753499617226], [121.44501685970138, 16.32387706010052], [121.44554256967662, 16.32410357996361], [121.44621848960874, 16.324227130055498], [121.44690513956381, 16.32421684039905], [121.44701242010127, 16.324196249664748], [121.44711970996646, 16.32368142977514], [121.44655107989948, 16.32340342967294], [121.44593954010496, 16.32280623964796], [121.4462292196317, 16.322651789880243], [121.44696951037369, 16.3225282301517], [121.44701242010127, 16.32205459964518], [121.44688367951794, 16.32168392995051], [121.44662619006002, 16.32135444018773], [121.44665836976469, 16.321179400297222], [121.44654281387841, 16.32079741679868], [121.44691586025903, 16.321488290341108], [121.44708753026181, 16.322075190159634], [121.44713043998937, 16.322507640406666], [121.44725918990044, 16.322744459726596], [121.44745230958492, 16.323063649936337], [121.44821405000862, 16.32351668971303], [121.44834279991969, 16.323774100097182], [121.44742011951611, 16.323856470217027], [121.44767761001044, 16.32412416987247], [121.44811749016637, 16.32421684039905], [121.4485144595583, 16.32448453971952], [121.44882560016732, 16.32509202036246], [121.4485359196042, 16.325431800271407], [121.4485466496271, 16.325823059631876], [121.44871831030214, 16.326389350169002], [121.44895433971419, 16.326904159874804], [121.4492011095134, 16.3273571903759], [121.44966244971515, 16.328386799759386], [121.45042419013885, 16.329303150241586], [121.4506065798004, 16.32968411008353], [121.4511323001398, 16.330188609726893], [121.45142197966656, 16.330518079733466], [121.4514112496436, 16.33073429997221], [121.45150780948586, 16.33112555009597], [121.45182966975368, 16.331547680053447], [121.45206570952989, 16.331918329629833], [121.45215154038561, 16.332381650111614], [121.45259141950511, 16.33225809989114], [121.45370721959318, 16.33219632032168], [121.45408272997562, 16.332041879640915], [121.45524143979127, 16.330641640304975], [121.4554131004663, 16.330332759825744], [121.4554131004663, 16.33003416977675], [121.45534872965642, 16.3298076603497], [121.45535945967939, 16.329539959635074], [121.45567060028839, 16.32899427019239], [121.45600318954271, 16.328520649710235], [121.45635723987934, 16.3282632503687], [121.4571726304177, 16.328211770050462], [121.45746230994446, 16.32788228996242], [121.45727992028287, 16.327552820207003], [121.45718336044062, 16.327058599862085], [121.45760178987842, 16.325256760086592], [121.45724773021409, 16.32425802024213], [121.45710825960784, 16.323959430262658], [121.45677567035355, 16.32368142977514], [121.45554185037737, 16.322970979942525], [121.4549517602645, 16.322435570196266], [121.45424365959133, 16.32159125977815], [121.45450115008568, 16.321405920377757], [121.4546298999967, 16.321199989905942], [121.45449042006273, 16.320726350296585], [121.45432949044705, 16.320335090270326], [121.45428657968307, 16.319809959854563], [121.45434022047, 16.319336320263105], [121.45471572981606, 16.31858466959903], [121.45499468035625, 16.31771975023293], [121.45387888026822, 16.316988689905557], [121.45364284981973, 16.316690079740628], [121.45338534999763, 16.3161958396504], [121.45270944042966, 16.31562951995734], [121.45222664018198, 16.31548536002672], [121.45202279047456, 16.31532062016691], [121.45160437036456, 16.315217649868266], [121.45140051962069, 16.315681000310366], [121.45108938004807, 16.316134060132644], [121.45082115953076, 16.31598990963032], [121.45028471953262, 16.31589722984933], [121.45005940977931, 16.31606197997318], [121.45022034975919, 16.31653562978565], [121.45026325948677, 16.316937200242204], [121.45018815969037, 16.31729758981589], [121.44988775014073, 16.31760649020174], [121.4495658898729, 16.317668270172796], [121.44909381964818, 16.317678570100078], [121.44773126012511, 16.31652533970776], [121.44728913616771, 16.316222248003662], [121.44782781996736, 16.3156707102763], [121.44797801956015, 16.315279429919784], [121.44792437980962, 16.31478518024935], [121.44842862973898, 16.314363009687682], [121.44890069996373, 16.314239450167804], [121.44895433971419, 16.314167369872898], [121.4488470602132, 16.313827579667787], [121.448181870304, 16.313374510366174], [121.44789218974081, 16.313281839951706], [121.44736647976558, 16.31331273008511], [121.44694805032782, 16.313384810073103], [121.44637942026083, 16.31364223030446], [121.44574642042045, 16.313992329724503], [121.44515633963536, 16.313528970126757], [121.44495248992796, 16.3132097600007], [121.44481300999394, 16.312808179868593], [121.44453406049013, 16.312633140089623], [121.44429803004167, 16.312530170353828], [121.4440083505149, 16.3123345200873], [121.44390105961332, 16.31188145986685], [121.44332169952341, 16.311665219968265], [121.44271015972889, 16.311551950299688], [121.44200206009214, 16.31164462970605], [121.44046782952985, 16.311510769800577], [121.44039272973346, 16.311232749844503], [121.44015670032138, 16.3107693802993], [121.4399635796005, 16.310481069970226], [121.43974899987013, 16.31064581972797], [121.4395988002774, 16.310872349947775], [121.43947005036634, 16.311397500219133], [121.43891215032231, 16.311479879944468], [121.43914819009854, 16.311675520403366], [121.43920182984905, 16.312272740126332], [121.43875121967018, 16.31215947990549], [121.43850446023521, 16.312190369866165], [121.43852592028105, 16.312488979863485], [121.43827915048188, 16.312808179868593], [121.43796802023701, 16.312900859854953], [121.43765687962802, 16.312797889981827], [121.43733501003246, 16.312488979863485], [121.43721700050853, 16.31260224027025], [121.436852220149, 16.31258164991189], [121.43666983048739, 16.3123345200873], [121.43638014992426, 16.31212858994956], [121.4361119304434, 16.311860859791913], [121.43592953974543, 16.311613739829337], [121.43587588963074, 16.311418089640142], [121.43569349996919, 16.311222450248003], [121.43544673949778, 16.31132542012887], [121.43547892956656, 16.31196383000026], [121.4353394496326, 16.31210798984926], [121.43499613035536, 16.31212858994956], [121.43454552017653, 16.31227274012633], [121.43403052986007, 16.312252149801775], [121.43356918965827, 16.312530170353824], [121.43381596049385, 16.31263314008962], [121.43420218949868, 16.312962640009246], [121.43437385950143, 16.313240650123], [121.43379450044799, 16.313220059699166], [121.43331170020032, 16.313425999931408], [121.43361210974999, 16.313549559766383], [121.43347262981602, 16.313930540278538], [121.43321514035807, 16.314095289603873], [121.43227099990865, 16.314043809657598], [121.43223882020398, 16.314146780169892], [121.43247484961607, 16.314785180249352], [121.43278599022511, 16.31530001973899], [121.43288255006736, 16.315701599961482], [121.43237828977381, 16.31594872006174], [121.43280745027099, 16.316072279818034], [121.43308639977478, 16.316319400374738], [121.43323660040394, 16.316339990300644], [121.43374085033331, 16.316545929654804], [121.43398762013248, 16.317019579793605], [121.43406271992882, 16.317781530238854], [121.43435240049202, 16.317997759593453], [121.43415927977107, 16.31854348031374], [121.43415927977107, 16.31891415970858], [121.43436313051492, 16.319305430018407], [121.43466352970043, 16.319748180039994], [121.43496394028652, 16.320345379727662], [121.43548965026173, 16.32041745979401], [121.43591880972248, 16.320736650380862], [121.43621922030856, 16.321199989905942], [121.43665910046451, 16.321704519611], [121.4371526203709, 16.321951629970318], [121.43733501003246, 16.32193104028447]], [[121.44617557988119, 16.319717289731884], [121.44525290051403, 16.31836843961195], [121.44514560961245, 16.31813161974605], [121.44524217049111, 16.31782272018363], [121.44536018001507, 16.316885720382814], [121.4464652500802, 16.316957800022266], [121.44690843312881, 16.316558957695474], [121.44676565962982, 16.31708136039986], [121.44688367951794, 16.317513820280823], [121.44737720046078, 16.317987470256497], [121.44700170044248, 16.318152209857896], [121.44676565962982, 16.318316960201297], [121.44651890019483, 16.31868763999358], [121.44632578051034, 16.319171579689502], [121.44624549806818, 16.319922793003325], [121.44617557988119, 16.319717289731884]]], [[[121.45496249028747, 16.341102070210802], [121.45537018970234, 16.341102070210805], [121.45597100051035, 16.340937350104358], [121.45621777030951, 16.340793210330364], [121.45658254963261, 16.340453459871018], [121.45671129021592, 16.340196069685504], [121.45676494033059, 16.339825439888386], [121.4566791105113, 16.33955775027386], [121.45608902039845, 16.339197409634266], [121.4558851696546, 16.339032679669753], [121.45570277999305, 16.33839435988414], [121.45542383048924, 16.338270810037223], [121.4550375900838, 16.338239920139447], [121.45483374970416, 16.338167849985695], [121.45443678031226, 16.33816784998569], [121.45439386022049, 16.338095789649646], [121.45414709974908, 16.33796193983309], [121.45380378047182, 16.337889869779303], [121.45340681004348, 16.338095789649646], [121.45295619986464, 16.338116380179542], [121.45206570952989, 16.33821932959684], [121.45180820970776, 16.338353169793503], [121.45166874013798, 16.33851790001543], [121.45164728009209, 16.338765000090117], [121.45200133042869, 16.33915622998639], [121.4521944501132, 16.339444499939017], [121.45243048988944, 16.339629820111522], [121.45272017045258, 16.339784250319557], [121.45321906003433, 16.340206369954046], [121.45332098022418, 16.34029902996319], [121.45348190983988, 16.340556420280958], [121.45359992972797, 16.34061819018758], [121.45377696007837, 16.340597600216594], [121.45391107033703, 16.340540970259347], [121.45400763017928, 16.340396839746415], [121.45406663027737, 16.340407130233384], [121.45454407017742, 16.340788059772926], [121.4547103601407, 16.34096308985605], [121.45496249028747, 16.341102070210802]]]]}}]}