{"type": "FeatureCollection", "features": [{"type": "Feature", "properties": {"source": "Tang & Werner 2023", "polygons": 6}, "geometry": {"type": "MultiPolygon", "coordinates": [[[[122.31668115001605, 16.593726679922995], [122.3169520496707, 16.594032570242703], [122.31705666039853, 16.594112259769204], [122.3171290800211, 16.59413539004124], [122.31717466992244, 16.594099410254707], [122.31727927961386, 16.59388604977349], [122.31737046978076, 16.593299979607128], [122.3173731603187, 16.59298638010554], [122.3171290800211, 16.592603370383973], [122.31712371034577, 16.592379730039273], [122.31703787949004, 16.591978729754832], [122.31696277969364, 16.59189390036219], [122.31691718046451, 16.59188361972239], [122.31677502035674, 16.591963310014222], [122.31656044995412, 16.591989010399622], [122.31639682980051, 16.591945310105533], [122.31619566959459, 16.591945310105526], [122.31616347952578, 16.59188361972238], [122.31607229039534, 16.591672840170965], [122.31605886983444, 16.591516040017954], [122.31608837972941, 16.59103020021391], [122.31615542967668, 16.590703750127574], [122.31610447009994, 16.590482679832512], [122.3161152001229, 16.590331019679734], [122.31560290034439, 16.590482679832512], [122.31541783050905, 16.590611210240688], [122.31515765051311, 16.590708890008145], [122.31439054041408, 16.59087083022103], [122.31428862022425, 16.59101735008329], [122.31430203042098, 16.591181869891784], [122.31434762032237, 16.591292400089674], [122.31438786024027, 16.591336100239033], [122.31445223001374, 16.591330960342106], [122.31456756972807, 16.59121013971363], [122.31461315962945, 16.59125383984476], [122.3147392304031, 16.59167284017096], [122.31487066048797, 16.591850209893497], [122.31511205024758, 16.592536539866543], [122.31557607995094, 16.59306606022176], [122.31577724015683, 16.593348820150922], [122.31613934034259, 16.59357501972572], [122.31642097002016, 16.593829500378995], [122.31650679983946, 16.593860349957815], [122.31661676987842, 16.593706120086807], [122.31668115001605, 16.593726679922995]]], [[[122.30989783949464, 16.63154280998191], [122.3099380700848, 16.631601919845302], [122.31036722954552, 16.63184349961378], [122.31043965020454, 16.63193858972579], [122.31045841971243, 16.63202083034561], [122.31034039982431, 16.63225725985702], [122.3099702601536, 16.632671029960022], [122.30993538991099, 16.632799529890033], [122.30996757997981, 16.632835510212356], [122.31012583045813, 16.632840650375684], [122.31028139972622, 16.632928029904015], [122.3106247200399, 16.63297171968274], [122.3109197599142, 16.632964010249854], [122.3110109604453, 16.633066810340328], [122.31105655034668, 16.63319017035639], [122.31108338006787, 16.633812100345537], [122.31102436960559, 16.634017699832615], [122.31104314014992, 16.634202740372032], [122.31092244008802, 16.634418610053007], [122.31102704977941, 16.634809249650157], [122.31127113007705, 16.63476556028031], [122.31139987998809, 16.634783550211946], [122.31186122018983, 16.635104790162178], [122.3118933998945, 16.635356649789344], [122.31205970022194, 16.635497989798242], [122.31235474009627, 16.635472290270002], [122.31251568007612, 16.635279549635726], [122.31262565011512, 16.635058529798755], [122.31274903035082, 16.634513699775944], [122.31258273002337, 16.634351789855565], [122.3122715997785, 16.634272129802007], [122.31182366977345, 16.633850650130846], [122.31171637990826, 16.633616779806147], [122.31179684005225, 16.633519130232788], [122.31191754011417, 16.63348571987547], [122.31205702004814, 16.633488289965616], [122.31221259035267, 16.63357308988408], [122.31256663965284, 16.6335499696876], [122.31252104042372, 16.633246709810756], [122.31252909027288, 16.6331156403204], [122.31263906031182, 16.632961440166568], [122.31259614022011, 16.63275327006899], [122.31248885035492, 16.632645329984094], [122.31219113030677, 16.63261191977525], [122.31211870964778, 16.63251940023234], [122.3122098998147, 16.63237290995548], [122.31218575959502, 16.63215704006885], [122.31212406999539, 16.632007979991123], [122.31197387040264, 16.63178952981363], [122.31186657950106, 16.631758689817733], [122.31192558996331, 16.631643040080515], [122.31212138982157, 16.63147598994457], [122.31200068975966, 16.631139320038887], [122.31226891027696, 16.630992829972936], [122.3124754401582, 16.630720399975786], [122.31261223991837, 16.630170419815272], [122.31274635017702, 16.62987743960158], [122.31269001988855, 16.62978491971079], [122.31245129993852, 16.629754080029258], [122.31241642969593, 16.629682119701588], [122.31255053995453, 16.62917324990572], [122.31254250046956, 16.629024189638038], [122.31245934978763, 16.628905969844226], [122.31244326045352, 16.628515319910107], [122.31225550008023, 16.6284767703535], [122.3119792297138, 16.62825574999069], [122.3117432003017, 16.62791136001925], [122.31160372036776, 16.627821410252224], [122.31148570980739, 16.627782860014438], [122.31106728036958, 16.627777719983317], [122.31094390013386, 16.627890799882085], [122.3106971396625, 16.62801415992008], [122.31058984979728, 16.62799873980896], [122.31047451008297, 16.627919070071226], [122.30999975968444, 16.627857389663784], [122.30975032007566, 16.627998739808966], [122.30955452021736, 16.62765950012151], [122.30944185964044, 16.62759267976918], [122.30931848044114, 16.627590109756074], [122.30882226999678, 16.627798280108646], [122.3084789496831, 16.628093840319615], [122.3083582496212, 16.62825317996893], [122.30836092979499, 16.628828869768252], [122.30816244976289, 16.628988210013038], [122.30793982951114, 16.629091009659536], [122.30765283015819, 16.629073020248683], [122.30743289008021, 16.628975359856714], [122.30717539958589, 16.629039609829558], [122.30732023986745, 16.62953819994243], [122.30756163999129, 16.629841459820476], [122.30757773036183, 16.630121589749354], [122.30763673978767, 16.63014986025915], [122.30783253964596, 16.630424849709794], [122.3080149303439, 16.630584189613263], [122.30794787003254, 16.6307024095987], [122.30807125959599, 16.630779509591967], [122.308280469651, 16.6308077900026], [122.308910790354, 16.630861760350502], [122.30903416955333, 16.630843769960507], [122.30904489957626, 16.630987689857907], [122.30917095998575, 16.631103340026915], [122.309267519828, 16.631136749979444], [122.3096430302105, 16.631136749979444], [122.31001318024535, 16.63126010960189], [122.31001318024535, 16.631319220197486], [122.30993002956342, 16.63142972961769], [122.30989783949464, 16.63154280998191]]], [[[122.3063305001889, 16.608627330059807], [122.30686157983948, 16.607912779671114], [122.30689108040673, 16.607848520253018], [122.30687499003622, 16.60778940036489], [122.30693667963585, 16.607719999845514], [122.30736047045767, 16.607478390040793], [122.30743825042781, 16.607599200217198], [122.30755090996836, 16.607632610265195], [122.30768502022698, 16.607560649854584], [122.30767161003028, 16.607362730058544], [122.30760722989265, 16.607162249702995], [122.30746508014904, 16.60703630030513], [122.30731219001831, 16.60676383973518], [122.30705202038662, 16.606545370186062], [122.30696618953087, 16.606558219695128], [122.30692059030174, 16.606517089993268], [122.30690448956706, 16.606296040360675], [122.30685889966566, 16.606224069816278], [122.30675428997432, 16.606182949989215], [122.30645120025082, 16.606362869825247], [122.30630904014303, 16.60615466984846], [122.30622053014993, 16.606077559891247], [122.30599790989817, 16.605990170222594], [122.30575918994815, 16.60564061030151], [122.30568677032558, 16.60557891971623], [122.30561702984036, 16.60556607027106], [122.30536759023157, 16.605923340067363], [122.30539708976242, 16.60602616035127], [122.30536491005775, 16.606136680082617], [122.3052549400188, 16.60617267023807], [122.30489283983306, 16.60613668008262], [122.30476677009578, 16.606195800291726], [122.30471580948269, 16.606275480030014], [122.30487674013479, 16.606401429758463], [122.3050618203343, 16.606894930078678], [122.3054614699, 16.60738586025196], [122.30555534024072, 16.607552929977867], [122.30556607026364, 16.607727719728782], [122.30541049995914, 16.607907640158892], [122.30524420999583, 16.60803358030887], [122.30512619010774, 16.608290610177704], [122.30493307042327, 16.608295760322168], [122.30471313034532, 16.608223789864123], [122.30456292971616, 16.60836772018427], [122.30452268979819, 16.608519369706823], [122.30455487986698, 16.60863760993908], [122.30478554996786, 16.608822669919352], [122.30587452966247, 16.608964030090227], [122.30598986004902, 16.6089074902586], [122.3060891000651, 16.608799540374278], [122.3063305001889, 16.608627330059807]]], [[[122.3026746498537, 16.58937734024545], [122.30269074022424, 16.58990945023267], [122.30307697959321, 16.590284750226843], [122.30322986972392, 16.590354150325147], [122.30342031027101, 16.59059064010814], [122.30445832002474, 16.5905546503473], [122.30458170026046, 16.59069859962586], [122.30465143970923, 16.59092994993556], [122.30472118019445, 16.591025060324966], [122.30500280987202, 16.591117600406086], [122.30518519953362, 16.591122740297454], [122.30526835021556, 16.591220420318322], [122.30545342005088, 16.591284689837526], [122.30554193004401, 16.591282120298242], [122.30563312953866, 16.591199859926494], [122.30557143993903, 16.59090424968822], [122.30571358968263, 16.590708890008145], [122.30583966045629, 16.590413269884735], [122.30614810949096, 16.589935150350346], [122.30621248030079, 16.58972693994993], [122.30613738050441, 16.589688380011197], [122.30590403022974, 16.58967808968217], [122.30568409015179, 16.589618970343025], [122.30559826033247, 16.58951871996521], [122.30576187012196, 16.58889149999228], [122.3057323695547, 16.58860102977238], [122.30556607026364, 16.588444219807045], [122.30539708976242, 16.588364530120497], [122.30511277991103, 16.588331120070915], [122.30489820018066, 16.588187160265548], [122.30472118019445, 16.5881743103202], [122.3045897501096, 16.588176879818995], [122.30439395025131, 16.58829770022284], [122.30428128967436, 16.58841338006283], [122.30397016046592, 16.588171740004444], [122.30397819995089, 16.5880560603062], [122.30379849979087, 16.58768332996122], [122.303500770415, 16.5875291000201], [122.30321108985184, 16.587541949923384], [122.303079659767, 16.58750595990198], [122.30270952009629, 16.58731574011287], [122.30245470977572, 16.587284889924053], [122.30252713043474, 16.587122940401063], [122.30275512036181, 16.586837610114888], [122.3029080001284, 16.58670907971538], [122.3029080001284, 16.586644810053528], [122.30284630949231, 16.58655226962047], [122.30268001952902, 16.586529129616977], [122.30257272966384, 16.58657797992166], [122.30250299021503, 16.586652520124236], [122.30249226019212, 16.58677333959414], [122.30242521024489, 16.58689673025418], [122.30234741991056, 16.586858170051872], [122.30235278958587, 16.5866627996743], [122.30231254966795, 16.586490570303557], [122.30222135950105, 16.58640060023553], [122.3020362896657, 16.586403169711204], [122.30196655021692, 16.586523989845354], [122.3020228701412, 16.586742490307177], [122.30198801026279, 16.58700983978872], [122.30203091999034, 16.587274610341552], [122.30189680973169, 16.587588220366698], [122.30170100987341, 16.587845279944418], [122.30166881980462, 16.58746740039756], [122.30159372000823, 16.587179490323063], [122.30167149997841, 16.58703297004455], [122.30166881980462, 16.586806760000872], [122.30158298998532, 16.58670393013503], [122.30134158986145, 16.5866627996743], [122.3012611297175, 16.58676048974092], [122.3012611297175, 16.586989270031854], [122.30118066024576, 16.587318309600477], [122.30101167974453, 16.587745019847222], [122.30108677954092, 16.587878689911697], [122.30107337038059, 16.58796094971489], [122.30049937996607, 16.58815117993051], [122.30056642991332, 16.587994370322885], [122.30056912045126, 16.587878689911687], [122.30052352018573, 16.587765589682913], [122.30026334951754, 16.587505959901982], [122.29996562014169, 16.587362009686085], [122.29975104041132, 16.587562509933797], [122.29973763021458, 16.587691040072535], [122.29992270004998, 16.58806892004796], [122.29995757029255, 16.58822829022719], [122.30019897041636, 16.588269420197413], [122.30112164978354, 16.58794809978429], [122.30125039969457, 16.588125470241234], [122.30137109975647, 16.58848278031949], [122.30150252984134, 16.588606169598116], [122.30160981037876, 16.588786110153716], [122.30171710024393, 16.589410760276508], [122.30183243995823, 16.58940561961276], [122.30189145042053, 16.589313080335153], [122.30192631029894, 16.589307929869758], [122.30219184960603, 16.589374769913995], [122.30229646033384, 16.58946217018937], [122.30240107002523, 16.589462170189375], [122.30247616982159, 16.58935677024163], [122.3026746498537, 16.58937734024545]]], [[[122.30411767988488, 16.604725560189753], [122.30414986995368, 16.60434257994401], [122.30425447031733, 16.604350289889954], [122.30437517037923, 16.604656159932837], [122.30448514041821, 16.604761550087378], [122.30461121015547, 16.60459189994302], [122.30456292971616, 16.604463380026296], [122.30447709989681, 16.60438626991408], [122.30440468027425, 16.60426032964493], [122.30437784951661, 16.604098389868344], [122.30429471023524, 16.603993009873506], [122.30433493978904, 16.60384393027065], [122.30426252016645, 16.60367684980037], [122.30402380021641, 16.603610019612894], [122.30364292948637, 16.603625440264846], [122.30312526003253, 16.603301579864194], [122.30311721951115, 16.603124220261822], [122.303500770415, 16.60313964005866], [122.30347663019533, 16.602723239784904], [122.30334788961204, 16.602697539633773], [122.30300992964597, 16.602754089938927], [122.30287582042372, 16.602738660367425], [122.30261831956521, 16.602772080212947], [122.3024386204416, 16.602990560284535], [122.3025110400642, 16.603139640058664], [122.30254053959506, 16.603334990000338], [122.30273901962711, 16.60362286974756], [122.30292946017425, 16.603653720042477], [122.3031842704948, 16.603751389933006], [122.30332642956617, 16.604121530300418], [122.30344445049072, 16.60430144988771], [122.30366438953223, 16.604789820223175], [122.30376630972209, 16.60507512992608], [122.30399965999676, 16.605031429998245], [122.30392724037416, 16.6048592197101], [122.30411767988488, 16.604725560189753]]], [[[122.30220257962897, 16.593167600044932], [122.30248421034298, 16.592868129656516], [122.302513720238, 16.592631639592636], [122.30248421034298, 16.592531390133967], [122.30239302017608, 16.592413149762212], [122.30224817989449, 16.59236431026727], [122.3022133096519, 16.592310330044956], [122.30217844044572, 16.59187847981118], [122.30202957990342, 16.591931179635022], [122.3018592603517, 16.591740959661863], [122.30163530001307, 16.59159057963619], [122.30153470954596, 16.591579009746983], [122.30135365997134, 16.591733250209217], [122.30107203029368, 16.592064840282102], [122.30100765948386, 16.592267919766382], [122.30103447987733, 16.592359170343556], [122.30111495038544, 16.59240286991234], [122.30127722008801, 16.59240030035849], [122.3013804896925, 16.592464559640963], [122.30140865017287, 16.592537820150703], [122.3014234004565, 16.593159889719463], [122.3014985002529, 16.593248570327553], [122.30199604974773, 16.593280700104433], [122.30220257962897, 16.593167600044932]]]]}}]}