{"type": "FeatureCollection", "features": [{"type": "Feature", "properties": {"source": "Tang & Werner 2023", "polygons": 13}, "geometry": {"type": "MultiPolygon", "coordinates": [[[[125.72904799993346, 9.786433970264278], [125.73099800048807, 9.782204969737709], [125.73060799996257, 9.77763497012831], [125.72744899954088, 9.771983970126152], [125.72737099985036, 9.768411969857187], [125.72405499990542, 9.764869970326037], [125.7227680003478, 9.76333396998008], [125.72479599955645, 9.75945597001944], [125.725888000406, 9.75549997027795], [125.72050499985245, 9.755038970191661], [125.71962099955958, 9.75609196980619], [125.72013600024019, 9.757540969613471], [125.71968600051082, 9.75879897038415], [125.71869900008181, 9.761981970040148], [125.71878900044229, 9.764336970343871], [125.71851599997082, 9.766679969963782], [125.71960099982493, 9.768590969788026], [125.72092699974603, 9.771355969776788], [125.72186300017806, 9.773513969774072], [125.72143400032554, 9.775701970017648], [125.72053700025697, 9.776888970061366], [125.71936699971697, 9.775314970099007], [125.71702599953107, 9.773540969796667], [125.71768899949166, 9.77181297026859], [125.71628499987999, 9.770929969832418], [125.71636299957056, 9.76931697030467], [125.71893699972219, 9.769738969721573], [125.71749399974709, 9.764900969715107], [125.71503699964946, 9.765476970185732], [125.71226799975322, 9.767357970247199], [125.71183899990068, 9.76955797032986], [125.71195599995467, 9.77205396966941], [125.71324299951232, 9.772053969669408], [125.71324299951232, 9.773666970195354], [125.71300900044074, 9.774549969756755], [125.7117999995372, 9.774127969961569], [125.70828899984774, 9.774050969917658], [125.70727499972519, 9.775202970085246], [125.709030999641, 9.77632197004142], [125.71031800023506, 9.779316969970703], [125.71016199981759, 9.780545970317899], [125.70665200027028, 9.780660969676271], [125.70501300040846, 9.78165897032648], [125.70427199972096, 9.784116970054717], [125.70392099955892, 9.78119897019], [125.70307699977174, 9.779099969918171], [125.70361400047139, 9.777766970350399], [125.70481500023735, 9.776646970183068], [125.70288400031157, 9.776138969853172], [125.70166099949019, 9.776751969744499], [125.69895699950884, 9.7790779699242], [125.69870000027603, 9.783349970125903], [125.7009569999182, 9.784503969618063], [125.70142500013422, 9.78561797008889], [125.69967000036056, 9.787040970296884], [125.69885099998257, 9.78873097025806], [125.698656000238, 9.790496970120893], [125.70271199969181, 9.789037969989764], [125.7027900004188, 9.787885970025624], [125.70497400004497, 9.787117970091353], [125.70614499969082, 9.788538969636539], [125.70817299993593, 9.78654196968543], [125.70910900036796, 9.787156969735742], [125.71285300002323, 9.788922970192571], [125.71246299949776, 9.790919969776523], [125.71367200040126, 9.793684970203618], [125.71491999959541, 9.793300969849197], [125.7147640002144, 9.791066969915105], [125.71425699963488, 9.786957969660145], [125.71222900042618, 9.782848969615848], [125.72233100039408, 9.779584969603093], [125.72366500041635, 9.781249969880712], [125.72585000018469, 9.782900969817078], [125.72510899949721, 9.784552970060474], [125.72678599958034, 9.786088969647887], [125.72904799993346, 9.786433970264278]]], [[[125.70373399991554, 9.772987969877569], [125.70525499958119, 9.774254970020294], [125.70720600027796, 9.774529969739614], [125.70693199966428, 9.769300969899913], [125.70677600028324, 9.767226970290476], [125.70439699987611, 9.7668049700005], [125.70334400042648, 9.76945397002431], [125.70373399991554, 9.772987969877569]]], [[[125.67239821007954, 9.845543920094343], [125.6726932499539, 9.845649629627271], [125.67291319003182, 9.845654919757116], [125.67310095040514, 9.845612629736218], [125.67349791979706, 9.84532721975051], [125.67372322022261, 9.84525851016647], [125.6742006497585, 9.844983670379095], [125.67458689016391, 9.844909669951152], [125.67478537952377, 9.845073519713011], [125.67496777022168, 9.845078809833863], [125.6751823395879, 9.844983670379095], [125.67536473028589, 9.844798680075623], [125.6753754603088, 9.84451854975362], [125.67527890046655, 9.844402269895776], [125.67505896038861, 9.84428599007782], [125.67501604962462, 9.84358830962189], [125.67486048035656, 9.843239479873136], [125.67436695008594, 9.842584080074921], [125.67414164966038, 9.842430799746266], [125.67402362977226, 9.842298659914722], [125.67384660045833, 9.842251089778841], [125.67362130003275, 9.842721499763346], [125.67344964039417, 9.842584080074925], [125.67334770984013, 9.842298659914723], [125.67321897029326, 9.842140099978414], [125.67303657959526, 9.84206081964043], [125.67287563961544, 9.842039680022696], [125.67275226041612, 9.84170140973613], [125.6724947699218, 9.841442419961878], [125.6725001302694, 9.841310279720242], [125.67276299043908, 9.841273280302762], [125.6727039799768, 9.841146430186534], [125.67247867955125, 9.841040719671897], [125.67221044970621, 9.840728879969198], [125.67192077950725, 9.840586170242211], [125.67163646032809, 9.84049631971167], [125.67138969985668, 9.840485739613051], [125.67118585014921, 9.840422320263091], [125.67087470954021, 9.840533310296557], [125.67070841957694, 9.841061860022624], [125.6706762295081, 9.841812400188212], [125.67027389976859, 9.842219380334935], [125.67029535981446, 9.842557650342972], [125.67039191965671, 9.842673930363402], [125.66994131051429, 9.843038629797054], [125.66975355014098, 9.843292329902242], [125.66946924028959, 9.844423409660827], [125.6694853296237, 9.844666540116432], [125.669673089997, 9.844904390171425], [125.66991447975666, 9.845099949641101], [125.67049920952192, 9.845459359967256], [125.6706816002199, 9.845501639630523], [125.67092298997953, 9.845395930143741], [125.67125558959799, 9.845189799801114], [125.67163109998049, 9.845078809833863], [125.6718403100355, 9.845094660315187], [125.67200661036293, 9.845184509678527], [125.67219973004744, 9.845332509875323], [125.67239821007954, 9.845543920094343]]], [[[125.66703379040605, 9.840987869993752], [125.66710889020243, 9.83968234972787], [125.66710889020243, 9.838947659698704], [125.66682458035103, 9.838530109802607], [125.66625595028404, 9.837938130026712], [125.66589116992449, 9.83748885964764], [125.66568195986949, 9.837467709976613], [125.66547811016207, 9.837388429935588], [125.6651938003107, 9.837488859647642], [125.6651938003107, 9.837832419716765], [125.66512405982547, 9.838276399740783], [125.66512942017307, 9.83870453016254], [125.66493094014098, 9.83909037032675], [125.66459298017487, 9.839629489923079], [125.66405654017676, 9.840929730267638], [125.66385806014465, 9.841077719859273], [125.66355227988326, 9.841236280094066], [125.66321433028132, 9.841505840297863], [125.66318214021253, 9.84180711966147], [125.66324650998594, 9.842044959757803], [125.66339135026753, 9.842288090098274], [125.66336452987406, 9.842288090098272], [125.66319287023548, 9.842525940075136], [125.66283881989885, 9.842763779880432], [125.66256522970626, 9.84285892030274], [125.66231309955948, 9.843049199636916], [125.6619858696163, 9.843376899827202], [125.66164255033908, 9.84386316020696], [125.6614065198906, 9.844085149720204], [125.6611704801144, 9.844370560250676], [125.66098273010525, 9.84481454008707], [125.66095054003644, 9.845776479837886], [125.66087544024003, 9.846437160044891], [125.66099882047575, 9.846907559932937], [125.66115438974383, 9.847113689729726], [125.66133678044181, 9.847229969722473], [125.6621682603143, 9.847272249606629], [125.66291928004284, 9.8472511096639], [125.66265373969937, 9.846661789954483], [125.66222726974017, 9.846484729972921], [125.66196978028225, 9.846225739725478], [125.66189200031205, 9.846022249969652], [125.66200732966222, 9.84562848978575], [125.66218436001262, 9.84534836036851], [125.66298366018047, 9.84521357990515], [125.66326260968427, 9.845086729905193], [125.6634020802905, 9.844864750074539], [125.66346645006392, 9.84465068965512], [125.66348791010978, 9.844330920216214], [125.66357910960443, 9.844185570281772], [125.66387682965258, 9.843897510084233], [125.66417724023867, 9.84371780967781], [125.66523134969066, 9.84320248024514], [125.66593945036387, 9.843194549879398], [125.66606282956316, 9.842848349673554], [125.66639543021807, 9.842192949836154], [125.6667387494953, 9.841622119957599], [125.66703379040605, 9.840987869993752]]], [[[125.65566122948707, 9.836172749822486], [125.65557539033999, 9.836426459901558], [125.65585433984381, 9.836548030193498], [125.65594554037486, 9.836659030092711], [125.65555393962187, 9.83710301017155], [125.65555393962187, 9.837272150136794], [125.65573633031984, 9.837399000394585], [125.65590262028313, 9.837388429935588], [125.65606356026298, 9.837293290252644], [125.65619766948521, 9.837309149913075], [125.65626204029508, 9.837409570058664], [125.65639614951728, 9.837478289981092], [125.65654635014648, 9.83747299997881], [125.65693258951548, 9.837293290252644], [125.65774261970624, 9.836680170170354], [125.65823614997683, 9.83661673960318], [125.6593251203437, 9.836558599831069], [125.66007077972458, 9.83656388981907], [125.66129923002542, 9.835501489788447], [125.66111684036385, 9.835157920151028], [125.66148698003457, 9.834433799948389], [125.66147625001163, 9.834211800051666], [125.66135824048766, 9.834026810056645], [125.66126703995664, 9.833804809630909], [125.66147625001163, 9.833582819688536], [125.6614118802382, 9.833255109874115], [125.66129386035009, 9.832890400282407], [125.66104173953106, 9.832631410077404], [125.66076815037488, 9.832462270039615], [125.6601995203079, 9.8324094097692], [125.65963625991625, 9.832123990216886], [125.65942704986125, 9.831986559711694], [125.65931439032073, 9.83182270990935], [125.65951287968059, 9.831616570319673], [125.6595611601199, 9.831405140152267], [125.65947533030058, 9.831341709775831], [125.65935731041246, 9.831346999682522], [125.65911591028862, 9.831431569810633], [125.65889597021068, 9.83155842981372], [125.6585794702905, 9.831891419952779], [125.65830051975026, 9.83226140964438], [125.65758169009054, 9.832885119894518], [125.65694331953837, 9.833022539630191], [125.65540910037669, 9.833582819688536], [125.65486193035561, 9.833714960101155], [125.65373002953288, 9.833915810223242], [125.65300583952558, 9.834185379719704], [125.65231918957048, 9.8345765102682], [125.65154135048489, 9.834729790228614], [125.65088153025108, 9.83506807026301], [125.65105855023727, 9.835364060301238], [125.65119803017124, 9.835728770165746], [125.65155208050786, 9.836347180103838], [125.65179347959524, 9.836600879975116], [125.65236747000982, 9.83676474003702], [125.65257131971723, 9.83680702020678], [125.65310775971543, 9.836770019690034], [125.65366030044824, 9.836532169773403], [125.65418601042344, 9.836489889637898], [125.65475464049045, 9.836114610126439], [125.65546810980256, 9.835897899902928], [125.6556236697429, 9.835802759842721], [125.6557095099264, 9.835802759842723], [125.65578997007033, 9.835924329911181], [125.65566122948707, 9.836172749822486]]], [[[125.6484031696035, 9.833329110145108], [125.64848900045925, 9.833588100087281], [125.64870358018962, 9.83381537997828], [125.64895033962463, 9.834201229691956], [125.64930438996122, 9.834608219792885], [125.649765730163, 9.834809079986588], [125.65076351036296, 9.834872499877646], [125.651101470329, 9.834840790328267], [125.6516110899337, 9.834544799951221], [125.65216362030239, 9.83432279998188], [125.65244256980617, 9.834116659668963], [125.65373540024461, 9.833508820157467], [125.65458297981542, 9.833455959724041], [125.65550028950717, 9.833048970209733], [125.65646052032716, 9.832879829963858], [125.65679848029323, 9.832879829963858], [125.65741538976312, 9.832631410077406], [125.65781771950263, 9.832425269996591], [125.65825224034735, 9.832039419916258], [125.65913199962276, 9.831035149803505], [125.65987229036477, 9.8308184396425], [125.66024244039966, 9.830892429839457], [125.66029608015015, 9.828825740247506], [125.6600171296099, 9.828603740042274], [125.6594431402318, 9.82846102984781], [125.65890670023363, 9.828429309764145], [125.65868676015566, 9.828381739982188], [125.65848826975943, 9.828276030263032], [125.65822005027852, 9.82821789032914], [125.65761386979517, 9.827969460335172], [125.6569755096072, 9.827911319658536], [125.65659462954939, 9.827921889822388], [125.65534472023911, 9.82818088995348], [125.65494776017495, 9.828302459677804], [125.65471709007404, 9.828487460072214], [125.65422355980346, 9.828799309996779], [125.65321504958058, 9.829618589879068], [125.65241039010155, 9.83014187009147], [125.6520026896503, 9.830485440217934], [125.65166472968421, 9.830390300084495], [125.65124630957416, 9.830585870272873], [125.65090299029693, 9.830982289755328], [125.65003932035565, 9.83167471004036], [125.64908981023086, 9.832599689604072], [125.6484031696035, 9.833329110145108]]], [[[125.64294755043537, 9.843091479794845], [125.64330697044736, 9.843181339760946], [125.64449250998416, 9.84325004971924], [125.64515233021802, 9.843487890032495], [125.64539373034187, 9.843625310087253], [125.64593017033998, 9.843757449640586], [125.646069650274, 9.843958300142509], [125.64603746020519, 9.844386420242092], [125.64552248025292, 9.844946669765472], [125.64545810011529, 9.845179229894523], [125.6455331999117, 9.845321939964268], [125.64602136983468, 9.845639059706345], [125.64670801046196, 9.845792339895082], [125.64771116033727, 9.846289169704281], [125.64807056998504, 9.846785989903236], [125.64847291008874, 9.847192969658897], [125.64899862006395, 9.84697097970081], [125.64939021978053, 9.846933979665508], [125.64959942983556, 9.846955129926997], [125.64973890976952, 9.84710840037239], [125.64998030989337, 9.84718239968984], [125.65010905047667, 9.847103119763142], [125.65000175957508, 9.846421299957521], [125.65011442015198, 9.84629445030085], [125.6502914401382, 9.846252169743401], [125.65096736007037, 9.846225739725478], [125.65106391991262, 9.845977329945583], [125.65108537995849, 9.84546992988258], [125.65106391991262, 9.84506823993074], [125.65165401002541, 9.844502700094479], [125.6518042096182, 9.84414328998739], [125.65191685983096, 9.843604170371973], [125.65192222950633, 9.843165479825926], [125.65165937037301, 9.842806070341195], [125.65142870027216, 9.842774360050113], [125.6502699904565, 9.842769069965238], [125.65009296010614, 9.842869490136984], [125.64970136038956, 9.842959350044245], [125.64943850021989, 9.842895919893241], [125.64928292991537, 9.842710929933716], [125.64969063036662, 9.842272239748167], [125.64974427011713, 9.842023820141058], [125.6496745296319, 9.841817690258184], [125.64878404033361, 9.841278570364318], [125.64880550037944, 9.841040719671895], [125.64898252036566, 9.840765880122543], [125.64929365993828, 9.840522739739878], [125.64970136038956, 9.840279609869853], [125.65011978049958, 9.840078759956448], [125.65082788013638, 9.839814490130426], [125.65086007020516, 9.83925421966239], [125.65084934018225, 9.838789099738626], [125.65088153025108, 9.838450819970245], [125.64961552953383, 9.837594569850525], [125.64950823966862, 9.83743600018468], [125.64896106964754, 9.837584000180684], [125.64837097953475, 9.837224579910679], [125.64789891034643, 9.837161150036978], [125.64731955958425, 9.837171719693648], [125.64680457030423, 9.837351430150665], [125.64632177005659, 9.837594569850522], [125.64571023026207, 9.838112550082235], [125.6456136704198, 9.838894810346707], [125.64495920949709, 9.83896879991895], [125.64503431032993, 9.838271120064324], [125.64485191963193, 9.837985700352887], [125.6446802599933, 9.83752057023978], [125.64474462976672, 9.837140009929364], [125.64528108012905, 9.837066009622527], [125.64527035010614, 9.836770019690034], [125.64547419981355, 9.836230899866699], [125.64624667026021, 9.836230899866697], [125.64681530032718, 9.835712909783947], [125.64663290962919, 9.835374629901924], [125.6462359402373, 9.83508921024151], [125.64604281951634, 9.8342223799546], [125.64580679010429, 9.833905239872754], [125.64567804019326, 9.833609250311714], [125.64562440044274, 9.832943259832492], [125.64542054969888, 9.832742410285965], [125.64484118960897, 9.832509840393351], [125.64453006040056, 9.831854419971995], [125.64446568026293, 9.830998149916056], [125.6441867400869, 9.830691579915959], [125.64373611954386, 9.830099589956818], [125.64327478037852, 9.829602729782792], [125.64224482047393, 9.828714739729133], [125.64225554013272, 9.82746731979363], [125.64155816948245, 9.827351029874793], [125.64027070975574, 9.827393320005132], [125.63964843993827, 9.827763319904145], [125.63921928047756, 9.828418740379727], [125.63914417964477, 9.829095309677927], [125.63929438960169, 9.829877589713915], [125.63915490966771, 9.830945289873641], [125.63931584031981, 9.83133643020727], [125.63956261011899, 9.831082719957257], [125.64002395032077, 9.831019289641068], [125.63985228964573, 9.83170642008918], [125.63958943051246, 9.833175830022096], [125.63960015949895, 9.833566960202278], [125.63951432967967, 9.834365090185491], [125.63955724044362, 9.834655789652185], [125.6395840598007, 9.835342920305612], [125.63936949043448, 9.835480340241306], [125.63897252000616, 9.83549619981699], [125.63879550001992, 9.835728770165746], [125.63872038985939, 9.836082899665731], [125.63872038985939, 9.836378889794005], [125.63860773964663, 9.836664309744082], [125.63860238033543, 9.836796449766226], [125.63875794027582, 9.837182290145892], [125.6389617899832, 9.83785884033272], [125.63912809031066, 9.838202399981286], [125.6392085597824, 9.83846667968479], [125.64004003965488, 9.838440250273717], [125.64034580955214, 9.8382975399192], [125.64082860979977, 9.838128409780964], [125.64136504979794, 9.838117840094485], [125.6418102996292, 9.838165400107604], [125.64175664951452, 9.83863582032997], [125.64158498987592, 9.838878949816891], [125.6418156599768, 9.83904279984565], [125.64184785004561, 9.839275359901746], [125.64198731961541, 9.83962421022556], [125.64198731961541, 9.839994190058775], [125.64185858006853, 9.840205609673315], [125.64183175967509, 9.840649589622814], [125.64163327031522, 9.841083000374663], [125.64180492995389, 9.842013250333176], [125.64239502006669, 9.842631650257522], [125.64294755043537, 9.843091479794845]]], [[[125.62008977009332, 9.836178039804492], [125.61986446034, 9.836378889794004], [125.6196874403538, 9.83646346038083], [125.61941921983647, 9.83635774973515], [125.6192100004537, 9.836368320162034], [125.61889887020887, 9.835771050206388], [125.61873793955677, 9.835607200167352], [125.61881839970071, 9.835020500345909], [125.61881839970071, 9.834766789727631], [125.61873793955677, 9.834645220073893], [125.61835170018776, 9.834608219792889], [125.61816930948979, 9.834539509994675], [125.61824441032257, 9.834185379719704], [125.61834633051242, 9.833979240285503], [125.61851799015106, 9.834106090107463], [125.61870574948796, 9.834158949846898], [125.61885058976952, 9.83414838028408], [125.61884522009417, 9.833847099769985], [125.61861991966866, 9.833392540097709], [125.61855554989516, 9.832974969999812], [125.61835705949893, 9.832800550199496], [125.61818003951275, 9.832768829710355], [125.61798155015289, 9.832821690036745], [125.61777770977324, 9.833048970209733], [125.61769186958973, 9.833482390337355], [125.6174665702006, 9.833524679640998], [125.6172305304244, 9.833794240079119], [125.6170320503923, 9.834169520205284], [125.61703742006762, 9.834317520366946], [125.61717153032627, 9.834745649769216], [125.61741292008594, 9.835268920390718], [125.6174665702006, 9.835744620210075], [125.61779380014374, 9.83624147028963], [125.61761141048217, 9.836600879975116], [125.6175363096494, 9.837594569850525], [125.61725736014557, 9.8383345398073], [125.61710715018867, 9.839053370356199], [125.61625956958146, 9.839962480030653], [125.61635613046013, 9.840279609869851], [125.61669946010156, 9.840617880328647], [125.61702132036933, 9.841722550128033], [125.61715007028039, 9.842430799746266], [125.61710178984107, 9.842710929933716], [125.61695694955951, 9.843012200029687], [125.61694621953654, 9.843265900115076], [125.61759530974749, 9.843942440171123], [125.61760068045925, 9.844206710033323], [125.61809420969338, 9.844994240279584], [125.61824976963378, 9.845343079786687], [125.61894714961177, 9.845654919757115], [125.62008977009332, 9.845781769969706], [125.62049746950812, 9.846278590220154], [125.62070130988782, 9.846431869902842], [125.6209588097099, 9.846046039675329], [125.62102317948337, 9.845496350298355], [125.62131286004653, 9.845454069840468], [125.62163472031429, 9.845723630216774], [125.62224089976127, 9.845792339895082], [125.62262714016664, 9.845713060293523], [125.62289535964756, 9.84548049979823], [125.62304556027672, 9.845295510018882], [125.62320112954481, 9.845195089923777], [125.62338888991812, 9.845269080075548], [125.62352300017677, 9.84537479031803], [125.62395215030973, 9.845073519713011], [125.62455832975671, 9.845189799801112], [125.62527716045282, 9.84539065035643], [125.62529324978694, 9.844650689655122], [125.62522351966588, 9.843614740229448], [125.62525034005935, 9.842943490119591], [125.62537908997041, 9.842726789847498], [125.62552391988778, 9.842372659772758], [125.62557757000249, 9.842087250128914], [125.62549709949434, 9.841960390165065], [125.62548101016026, 9.841326140363764], [125.62555074960902, 9.841083000374663], [125.62572776959524, 9.840993149712487], [125.62598526008958, 9.841310279720242], [125.62667727039228, 9.841542839740718], [125.6269937796402, 9.840982579936734], [125.62693745038817, 9.840615240074557], [125.62706620029923, 9.840829300332006], [125.626996459814, 9.84105129024473], [125.62691867051609, 9.841146430186532], [125.62687575975211, 9.841363139787013], [125.6268435696833, 9.841791259790707], [125.62691867051609, 9.841918110148159], [125.62686502972917, 9.842113670281073], [125.62694012952552, 9.842325089626486], [125.62713325024646, 9.842541799980244], [125.62728881951456, 9.843033339708054], [125.62760532047116, 9.843065060361777], [125.62770188031341, 9.84318133976095], [125.62768847011668, 9.843641170043801], [125.62792987024052, 9.84411157002805], [125.62791914021757, 9.844243709770918], [125.627774299936, 9.844634829651344], [125.62773942969338, 9.844854180178089], [125.6275677700548, 9.845081450122702], [125.62753289981218, 9.845274370199434], [125.62767774009374, 9.845306079929099], [125.62785744958153, 9.84540914989171], [125.62793790972549, 9.845499000133668], [125.62807470948566, 9.845956179745116], [125.62807470948566, 9.84612003001286], [125.62803179043038, 9.846297089803896], [125.62777161976221, 9.84677541994687], [125.62777161976221, 9.84685206028953], [125.62784671955856, 9.847047620087697], [125.6277206498213, 9.847348890061646], [125.62771796964752, 9.847636939672777], [125.62785744958153, 9.84783514023416], [125.62803714974153, 9.848236830284302], [125.62806128996118, 9.848437669920996], [125.62818735969844, 9.848609450290212], [125.6284448501928, 9.848139049630333], [125.62888205017491, 9.847811359946178], [125.62909394973147, 9.847710939900907], [125.62926023969476, 9.847710939900908], [125.62927364989152, 9.847835140234158], [125.62932998018, 9.847914420332126], [125.6298342301093, 9.84788534987384], [125.63037871995661, 9.847895919864825], [125.63068985952926, 9.848006920297916], [125.63085079018133, 9.848133769800302], [125.63081861047668, 9.849148550032734], [125.63100100013826, 9.849296540031515], [125.63175738021437, 9.849449820284013], [125.63198805031526, 9.849682380322184], [125.6320846101575, 9.85031662031131], [125.63206315011163, 9.85064958990171], [125.63196659026939, 9.85090857001065], [125.63207924048214, 9.851051280107457], [125.6325137602905, 9.851051280107454], [125.63276589043724, 9.851373680320133], [125.6329482800988, 9.851405389825286], [125.63331306045835, 9.8513102597282], [125.63333987981538, 9.851373680320137], [125.63334524949072, 9.851659089831768], [125.63328624006488, 9.851918069917202], [125.6329321897283, 9.852198189655445], [125.63271224032256, 9.852425459754164], [125.63258349973927, 9.852695009770974], [125.63271760999793, 9.852869419923898], [125.63321114026849, 9.85318654036775], [125.63322185992725, 9.853292249899308], [125.6330394702657, 9.85359351031594], [125.63279270979426, 9.853894770205272], [125.63267468990617, 9.854492010063488], [125.63238501970716, 9.854967680395056], [125.63234209961543, 9.855126239971685], [125.63271224032256, 9.855469779745999], [125.63284635990895, 9.85565475997047], [125.63348472009694, 9.855697040110867], [125.63362956037854, 9.85583446034594], [125.63364564971265, 9.856045869961104], [125.63360273998506, 9.856246710251666], [125.63346862972641, 9.856463400084046], [125.6335490898704, 9.856669530128837], [125.63408016952097, 9.856949649820951], [125.63423573982544, 9.8569602200948], [125.63436448973651, 9.856907359980601], [125.63446104957877, 9.85668010039394], [125.6342303805143, 9.856215000293227], [125.63458442981447, 9.855993020328462], [125.6351155001373, 9.855459210313974], [125.63536226993648, 9.855527920376272], [125.63631176969707, 9.855649480023288], [125.63652097975209, 9.855749900036122], [125.63683747967228, 9.855734040308027], [125.63707887979612, 9.855564910216158], [125.6371217998879, 9.855015249930362], [125.63728272950355, 9.854851400132162], [125.6372612704941, 9.854433869611082], [125.63685893971815, 9.853894770205274], [125.63683212036113, 9.853614649859166], [125.6366819104042, 9.853260540217525], [125.63631176969707, 9.852959269758335], [125.63582897048582, 9.852869419923897], [125.63559294003733, 9.852869419923898], [125.63510478047856, 9.852964560002304], [125.6350350399933, 9.852890560217194], [125.6353139894971, 9.852013200184983], [125.6354212803987, 9.851315539607736], [125.63590407028221, 9.850797579760878], [125.63591480030516, 9.85025847978031], [125.63497065985571, 9.84902170969379], [125.63499211990158, 9.848567170239217], [125.6350779497209, 9.848112620260535], [125.63495994019696, 9.847806069782678], [125.63550711021804, 9.847076689678845], [125.6355714799915, 9.846780710094265], [125.63513159983555, 9.846431869902839], [125.63443421985754, 9.846315590183904], [125.63374758026666, 9.846104180278838], [125.63397287965579, 9.845596780025938], [125.6344985999952, 9.845501639630521], [125.63479900021709, 9.845237370349341], [125.63539982035283, 9.844581980208218], [125.63587188954115, 9.843979439879888], [125.63603282019328, 9.843218329843479], [125.63582897048582, 9.84273207038858], [125.63535690026112, 9.842330379704446], [125.6345307796998, 9.842340950317473], [125.63452004967687, 9.8416221199576], [125.63501357994745, 9.840744730247172], [125.63586115951824, 9.840639019857768], [125.63632249972004, 9.840723589916227], [125.6369233094916, 9.840628450093035], [125.63685893971815, 9.839909629725273], [125.63673018980712, 9.83949735993089], [125.63636541048399, 9.839116799788478], [125.63578605972184, 9.838683389958755], [125.63505650003918, 9.838218259684218], [125.63480973024004, 9.838133690250451], [125.63439131012998, 9.838651669714883], [125.63406943949803, 9.839159080251392], [125.63357591959162, 9.839370500140612], [125.6327498000667, 9.839000520192483], [125.63269078960448, 9.838672820254967], [125.63258886008684, 9.838350400311665], [125.63225626979613, 9.83745714031072], [125.63206851045923, 9.83705543996915], [125.63187003042714, 9.836754170393034], [125.63247620987408, 9.836553309843124], [125.63228309018957, 9.83610403970746], [125.63223480975024, 9.83576047979811], [125.63221872041616, 9.83526363996583], [125.63208997050508, 9.835015210381947], [125.63183248001073, 9.83492006977401], [125.63029289013728, 9.834920069774007], [125.62992275046658, 9.834761510105801], [125.62957941978875, 9.83455008036493], [125.62938093975667, 9.834222379954603], [125.62894911048633, 9.833905239872756], [125.62887937000112, 9.83381802972233], [125.62878549033266, 9.833588100087281], [125.62858163958882, 9.833381969763522], [125.62840194046522, 9.833252469677326], [125.62814981031848, 9.833146760031942], [125.62805325047623, 9.83314411029312], [125.62800765021068, 9.83337138988678], [125.6280183802336, 9.834047949970273], [125.62796204994514, 9.83414838028408], [125.62757313040238, 9.834299019846174], [125.62755972020562, 9.834972929640239], [125.62675237951639, 9.834914790149782], [125.62586724952924, 9.835031069935885], [125.62442957984562, 9.835052209912094], [125.62360882999606, 9.83518964006823], [125.62346912727901, 9.835801673581914], [125.62353908951088, 9.835194919696733], [125.6227666097365, 9.835200209663496], [125.62252521997681, 9.835168500083471], [125.62229991022353, 9.835073360227785], [125.62217116031248, 9.83483021994895], [125.62171518978604, 9.834402089644756], [125.62145232961636, 9.834269949759829], [125.62117874978787, 9.8342170900031], [125.62079251041892, 9.834238229928586], [125.62053501992455, 9.834481369783248], [125.62032579950532, 9.834861930292606], [125.62026142973191, 9.835263639965834], [125.62026680044369, 9.835871480234932], [125.62008977009332, 9.836178039804492]], [[125.62693745038817, 9.840615240074557], [125.62654316013362, 9.840258470363151], [125.62631690469642, 9.839802459410938], [125.62649757023225, 9.839994190058777], [125.62662095046794, 9.84021883001417], [125.62693745038817, 9.840615240074557]], [[125.62567412984474, 9.839048089872398], [125.62538980962918, 9.83846667968479], [125.62544016795411, 9.838040010416185], [125.62556147963197, 9.838804949925954], [125.62610035091818, 9.839475083684853], [125.62586724952924, 9.839275359901745], [125.62567412984474, 9.839048089872398]], [[125.62457978980255, 9.837420139723072], [125.62409180675651, 9.837002695606204], [125.62489628972277, 9.83752057023978], [125.62524497971175, 9.837668559934412], [125.62540053965212, 9.837790129876204], [125.62543382390038, 9.83800000734731], [125.62528789047576, 9.837816560031872], [125.62502503030605, 9.837694990080603], [125.62457978980255, 9.837420139723072]], [[125.62355152119599, 9.836392537882904], [125.62351763050141, 9.836331319693137], [125.62351369632393, 9.83625864608767], [125.62355152119599, 9.836392537882904]]], [[[125.6098893302231, 9.846133249789064], [125.61000198043585, 9.84640016006787], [125.61000465957326, 9.84654551015666], [125.60978204035789, 9.846809779662523], [125.60975790013822, 9.846976269851273], [125.60983031976082, 9.847113689729726], [125.61025410954618, 9.847502159889851], [125.61016291005153, 9.847784929806647], [125.61014413950723, 9.848033340116196], [125.61022459965116, 9.848181329627911], [125.61028361011344, 9.848720439823177], [125.61056255961725, 9.849333540324782], [125.61085224018044, 9.849344110360938], [125.61132431040511, 9.849703519621324], [125.61158716953841, 9.84976693991248], [125.61198412960258, 9.849766939912477], [125.61223090043818, 9.849740509620409], [125.61244011049318, 9.849597809619103], [125.61266004953472, 9.84933354032478], [125.61314284978236, 9.849143270186977], [125.61323673048724, 9.849357330262919], [125.6134352094829, 9.849465679717854], [125.6138965496847, 9.849814510307946], [125.61403602029092, 9.849896429604847], [125.61415898726115, 9.849899060888525], [125.61425864987044, 9.849433960055642], [125.61443566985662, 9.849312400253453], [125.61454833043356, 9.849122130127508], [125.61415136000522, 9.84858831026405], [125.61400651972366, 9.848313470162184], [125.61380267001623, 9.848091480265367], [125.61365782973466, 9.847837779749211], [125.61341642961085, 9.847103119763142], [125.61373292953103, 9.84622573972548], [125.6140172497466, 9.845876900105239], [125.61416745037576, 9.84550163963052], [125.61445176955495, 9.845226799646008], [125.61466097960995, 9.845263800290214], [125.61490774008135, 9.845485780382196], [125.61497747953015, 9.845718340085858], [125.61492383045186, 9.84594033001876], [125.61466097960995, 9.846162320097061], [125.6153798103061, 9.846632719603646], [125.61562121042991, 9.846743710079737], [125.61622738987684, 9.8467595701822], [125.61664580998689, 9.84662743025383], [125.61675309985205, 9.846151739821622], [125.61690330980899, 9.845845190322187], [125.61681211031431, 9.845644349836023], [125.61597525973006, 9.845242650134269], [125.61528862013915, 9.845131660149702], [125.61484337030792, 9.844983670379092], [125.6148648303538, 9.844618969648305], [125.61515987022813, 9.844270139634311], [125.61538516961727, 9.843942440171123], [125.61579823041612, 9.843509029740531], [125.61648488037122, 9.843191909605245], [125.61650096970533, 9.84305977027235], [125.61650096970533, 9.842562939629305], [125.61639369020426, 9.842288090098275], [125.61616838045099, 9.842087250128918], [125.61561583971813, 9.841801830386927], [125.61507939972, 9.84180183038693], [125.61498820955306, 9.84163797982044], [125.6148809196879, 9.84155341032921], [125.61485678050462, 9.840974649622906], [125.61498283987775, 9.840525390331587], [125.61495601948428, 9.840472530395404], [125.61473340026892, 9.840464600093508], [125.61456978011527, 9.840385320147236], [125.61429620028684, 9.840142190375744], [125.6140172497466, 9.839793340314403], [125.6138294904097, 9.839692920258353], [125.61346739955171, 9.839671779992955], [125.61342448049639, 9.839825059869792], [125.61309457037947, 9.840451390081412], [125.61297922962872, 9.84083987010298], [125.61297119014375, 9.841003720283828], [125.61280756999008, 9.841278570364318], [125.61280488981629, 9.8415402002747], [125.61259031008592, 9.841571909655087], [125.61240524025057, 9.841637979820442], [125.61227381016575, 9.841600980367211], [125.6122550396214, 9.841511130363045], [125.61229795038541, 9.841365780046926], [125.61225771979521, 9.841281209828313], [125.61214774975625, 9.841336710150223], [125.61204045989103, 9.841447699687702], [125.61206460011071, 9.841957749900523], [125.61197609011761, 9.842071390245055], [125.61181783963927, 9.842113670281073], [125.61130285035927, 9.843191909605242], [125.61089516027215, 9.843107339726425], [125.61055182959431, 9.842895919893238], [125.61038016995569, 9.842599939982764], [125.60987055035102, 9.842383230387103], [125.60959696948615, 9.84231451980921], [125.60887277015105, 9.842293380175661], [125.60822367994014, 9.842399090285554], [125.60804664958975, 9.842520649994123], [125.60802518954388, 9.842784929881716], [125.60805202030149, 9.843038629797054], [125.60822904028772, 9.843276469962008], [125.60823977031066, 9.843577739765234], [125.60819685021892, 9.843910729773766], [125.60821294991719, 9.844264850321347], [125.60852408016203, 9.84459255009618], [125.60903907047852, 9.844994240279584], [125.60917317970072, 9.84521093961527], [125.60910880992729, 9.845459359967254], [125.60920000009419, 9.845633779915262], [125.60947359028683, 9.845765909913004], [125.60956478045372, 9.845871620310447], [125.60973912026614, 9.845956179745121], [125.6098893302231, 9.846133249789064]]], [[[125.61415940985438, 9.84989906993122], [125.61415672035281, 9.84990963998502], [125.61660836644465, 9.85144869182934], [125.61415940985438, 9.84989906993122]]], [[[125.61660836644465, 9.85144869182934], [125.6167316398062, 9.851450320112324], [125.61673968965535, 9.85197885028033], [125.61682016016348, 9.852066060330534], [125.61686306989104, 9.85227217974587], [125.61679333044226, 9.85254438032641], [125.61676919022261, 9.852887919867495], [125.6169381696874, 9.853094050121697], [125.61713397990988, 9.853178609768346], [125.61754971984611, 9.85350894022697], [125.61763286949164, 9.85369920963578], [125.61762749981631, 9.853826059679058], [125.6174665702006, 9.854026900243616], [125.61719834968332, 9.854227740131979], [125.61719834968332, 9.854449719734786], [125.61736465001078, 9.854713989839542], [125.61762214050513, 9.85535879038735], [125.6179279104024, 9.855570199705525], [125.61814249013274, 9.855797460137804], [125.61816393981444, 9.856130430344844], [125.6184107096136, 9.856394700170728], [125.61869502050145, 9.856431690105312], [125.61889887020887, 9.85610928984929], [125.61936021041062, 9.855781609951], [125.61971425971082, 9.85547505969038], [125.61998784990347, 9.855300649786122], [125.62044919010523, 9.85511038027282], [125.62127530963014, 9.855157949828174], [125.62180101960534, 9.855379930040757], [125.621935129864, 9.855601909603589], [125.6222355404501, 9.855961310393782], [125.62254131034734, 9.856859799723008], [125.62266468954664, 9.857044779911613], [125.6228309898741, 9.85721390994744], [125.62302946990616, 9.85722448022954], [125.62335669984934, 9.857034209635122], [125.62368392979245, 9.856907359980601], [125.62395750962088, 9.856727670169827], [125.62462269953014, 9.856695949827497], [125.62472999043175, 9.856484550145245], [125.62475145047759, 9.85615686034027], [125.62470317003827, 9.855786889900243], [125.62463880026482, 9.855670619694846], [125.62438130044272, 9.85550148963465], [125.62424182983648, 9.85517379998577], [125.62404334980438, 9.854819690304394], [125.62508941044365, 9.854835549989657], [125.62531470983278, 9.854270020094187], [125.62540053965212, 9.853873629849287], [125.62536299027212, 9.853688640259014], [125.62498211954207, 9.853096689677722], [125.62440813016391, 9.852827140136524], [125.62401115973557, 9.852996269656368], [125.62400579006025, 9.852774290210927], [125.62383950009696, 9.852557590014575], [125.62335669984934, 9.852488879759624], [125.62317431018775, 9.852541729640702], [125.62308848036842, 9.852716150053407], [125.62273979037946, 9.852689720326516], [125.6225198503015, 9.852388459918476], [125.62247693953749, 9.852198189655445], [125.62243937979336, 9.851674939825639], [125.6222194397154, 9.851585090331872], [125.621935129864, 9.851674939825639], [125.62135576977411, 9.851944500379167], [125.62071740958609, 9.852557590014575], [125.62045990976401, 9.85262101004476], [125.62010586046381, 9.852245760392318], [125.62004148965396, 9.851548100131374], [125.6201380494962, 9.85130497030535], [125.62018096026019, 9.850897999925685], [125.62017023956501, 9.850528029663362], [125.62016486988965, 9.85042232019916], [125.62000394027397, 9.850179199929176], [125.61976790049775, 9.850173909728703], [125.61960160949806, 9.850263759643465], [125.6195479604198, 9.850390609990754], [125.61918318006026, 9.850739439942632], [125.61889887020887, 9.850644310032559], [125.61863601003918, 9.849994209970673], [125.61852335982641, 9.849883220020457], [125.6183785195448, 9.849830360215513], [125.61778843046838, 9.849740509620407], [125.61716080030335, 9.849735229765425], [125.61695694955951, 9.849777509962161], [125.61705351043814, 9.849930789636971], [125.61733782028956, 9.850041779602778], [125.61766505023266, 9.850247909715627], [125.61774015002908, 9.850337759650019], [125.61802447024465, 9.85052802966336], [125.6180673799722, 9.850734160072077], [125.61807274964754, 9.85099314024567], [125.61786889994012, 9.851035419804113], [125.61748803024648, 9.851008990208362], [125.61737536966953, 9.850797579760878], [125.61717153032627, 9.851008990208365], [125.61660836644465, 9.85144869182934]]], [[[125.61096221021938, 9.873534279644764], [125.61090051958332, 9.873653190139235], [125.61098635043903, 9.873716610147167], [125.61131895005752, 9.873869869648125], [125.61193585019969, 9.874081269856394], [125.61192244000294, 9.873817029956083], [125.61233014045419, 9.873787959658648], [125.61243473978142, 9.873983500027308], [125.61245084051609, 9.87416582997672], [125.6128236696884, 9.874134119929113], [125.61290144965855, 9.873869869648127], [125.613247450146, 9.873891009663], [125.61330913974564, 9.873972930016812], [125.61333597050329, 9.874200179747973], [125.61372757021985, 9.874702250381894], [125.61379730966866, 9.87492951014754], [125.61372757021985, 9.875236030319085], [125.61395824032078, 9.875547839775138], [125.61400651972366, 9.875886080260681], [125.61425328019506, 9.876213750208908], [125.6144946803189, 9.876435710040578], [125.61505258036291, 9.876631250350712], [125.61574996034093, 9.876631250350709], [125.61663507996396, 9.8766048298901], [125.61717153032627, 9.876414569866503], [125.61720907970623, 9.876160899810918], [125.61715542959156, 9.874728680237796], [125.6170427804152, 9.874379870092197], [125.61689794013364, 9.874142050224409], [125.6166565400098, 9.873888369944739], [125.61635077011253, 9.87368225962973], [125.61577677969801, 9.873597699630393], [125.61528325046385, 9.873296460372018], [125.61524570004741, 9.873026920188215], [125.61524570004741, 9.87270982011928], [125.61532079984381, 9.871769100387294], [125.61514377985759, 9.871541840360694], [125.61514914020516, 9.871187750132894], [125.6153798103061, 9.870844219849035], [125.61539589964018, 9.870511270155442], [125.61528862013915, 9.870321010380826], [125.61504185034, 9.870109610138234], [125.61476827051155, 9.869929910134154], [125.61410307956591, 9.869285139877288], [125.61384559010797, 9.869232289767327], [125.61356663956776, 9.869628670167613], [125.61315894015293, 9.86974494039766], [125.61282098018683, 9.869750219769491], [125.61262250015473, 9.869602239915157], [125.61245619982729, 9.869401409989202], [125.61234354961451, 9.869163589647295], [125.61229527021162, 9.868983890145989], [125.61235963998504, 9.868735500251011], [125.61256348969248, 9.868613939879399], [125.61334669948982, 9.868635080360923], [125.61309457037947, 9.868169999616557], [125.61307311033359, 9.867948030101354], [125.61316430982825, 9.867747190023366], [125.6135076301419, 9.867715479782499], [125.61384022043266, 9.867461800348554], [125.61393141992731, 9.867271539903806], [125.61393141992731, 9.866938580207647], [125.61349690011899, 9.866367789738444], [125.61311603042535, 9.866219809773593], [125.61276734043632, 9.866193379787559], [125.6122416304611, 9.866499919874535], [125.61178564957052, 9.866515769768037], [125.61147450999789, 9.866563340131291], [125.61122239021527, 9.866515769768037], [125.61085760985574, 9.866325509855502], [125.61038553963104, 9.866314940084422], [125.61037480960809, 9.866029550027546], [125.61047137048676, 9.865717730262583], [125.61080663991486, 9.865707159715178], [125.61094880002268, 9.865646380068158], [125.61139136968012, 9.865242070272085], [125.6112760299658, 9.864850970331855], [125.61114459988093, 9.864742630268548], [125.61101048962232, 9.864568220360292], [125.61155230033225, 9.864066129780358], [125.61223625974935, 9.863976280178976], [125.61232476974246, 9.863910219971581], [125.6127646602625, 9.86402120974856], [125.61292290970438, 9.86409256039551], [125.61359077978743, 9.864103130097153], [125.6138241300621, 9.864079339918149], [125.61408429969383, 9.864121620315666], [125.61429352011302, 9.86380979992349], [125.61432301964386, 9.86331035964853], [125.61420231958195, 9.863183520366626], [125.61377852979658, 9.863120089609163], [125.61340839012585, 9.86297739987481], [125.61318575950995, 9.862834699861628], [125.61254472018456, 9.862808270140048], [125.61233014045419, 9.862739560190457], [125.61213701973328, 9.862501730216986], [125.61197339957967, 9.862480590118787], [125.61187953027536, 9.862501730216986], [125.61174273051519, 9.862665570198185], [125.61160057973514, 9.86266029014164], [125.61141014022448, 9.862282400072376], [125.61128675998876, 9.862176699663104], [125.61110972963836, 9.862152909619557], [125.61077178003644, 9.862229550261274], [125.6106215700795, 9.86230354015819], [125.61047137048676, 9.862588939796735], [125.61033726022814, 9.863106880304137], [125.61010659012724, 9.863439840205285], [125.60974717011531, 9.863460980363415], [125.60954869008322, 9.86367767004286], [125.60925363984472, 9.863751669800207], [125.60870111051244, 9.863772809977828], [125.60829341006117, 9.863725240006998], [125.60803591956679, 9.863862649981435], [125.60807883965857, 9.864465159676874], [125.60818612952372, 9.864687130087628], [125.60823440996307, 9.865078229838428], [125.60840069992634, 9.865532750104927], [125.60864210005015, 9.86601898026571], [125.6087386598924, 9.866373080191998], [125.60877084996122, 9.867081280361433], [125.60866892044365, 9.86761506973916], [125.60887813982643, 9.868228129703864], [125.60921609046474, 9.869015599710492], [125.60933411035285, 9.869221719905394], [125.60939848012629, 9.86951239997757], [125.60960769950906, 9.869919340250407], [125.60972034972184, 9.869977480182357], [125.60985445998047, 9.87016773976367], [125.60973107974475, 9.870521840057693], [125.60969353036481, 9.8707913702907], [125.60983836960996, 9.870986920060448], [125.61011732015015, 9.87107676038986], [125.61102389981902, 9.871076760389856], [125.61125456991995, 9.871203600246139], [125.61132431040511, 9.871425570308002], [125.6114798796732, 9.871716249889042], [125.61142622955853, 9.872593549664845], [125.61125993959529, 9.873227749882032], [125.61096221021938, 9.873534279644764]]], [[[125.61266540988231, 9.877577250386384], [125.6121772503235, 9.877054050377936], [125.61189829978325, 9.876969490330168], [125.61141014022448, 9.876884930303554], [125.61125456991995, 9.876699959942064], [125.61072349959711, 9.876493850298148], [125.61068057950534, 9.876240169843605], [125.6106752201942, 9.875854370051655], [125.61022997036295, 9.875389300053207], [125.6100207603079, 9.875230750066248], [125.60927509989057, 9.875378729998722], [125.60879767035469, 9.87524132011609], [125.60877084996122, 9.874374589852724], [125.60842752031978, 9.873994070038135], [125.60892642026575, 9.873851379691882], [125.60929119958884, 9.873555419638643], [125.60973644009236, 9.873053349913118], [125.60968815965305, 9.872577700281749], [125.6094306701951, 9.872144330334338], [125.6095057699915, 9.87191708039478], [125.60981153988877, 9.871663400194368], [125.60982763958701, 9.871399150254334], [125.60937165973282, 9.871039769649348], [125.60923219016301, 9.871008059895015], [125.60881913040053, 9.871140179914383], [125.60843825034273, 9.871309300295293], [125.60811639007494, 9.871399150254334], [125.60799569001303, 9.871304020103786], [125.60818612952372, 9.870912929854521], [125.60837655970667, 9.870801940201707], [125.60835241948702, 9.870550899734962], [125.60822367994014, 9.870447849953571], [125.6075638503785, 9.870360639938037], [125.6074404701428, 9.870302510279455], [125.60718297964847, 9.870302510279457], [125.60697109045606, 9.870339500143956], [125.60670285957461, 9.87045313013169], [125.60669750026341, 9.870683029914947], [125.60660629973236, 9.870772870163595], [125.60638100034323, 9.870849510372627], [125.60613960021942, 9.870741159638959], [125.60575872948934, 9.870373859865628], [125.60564876048677, 9.87035800024736], [125.605506600379, 9.870775520196792], [125.60537785046792, 9.870912929854523], [125.60547977998553, 9.871658109658053], [125.60518472974704, 9.871576189865278], [125.6050425800034, 9.871684540071236], [125.60517669026207, 9.87193822028752], [125.60505867037395, 9.872107340272358], [125.60506940039687, 9.872440289947297], [125.60550927951635, 9.872804949870128], [125.60586332985297, 9.873026920188215], [125.60619055979609, 9.873449719682451], [125.60613155037028, 9.873851379691882], [125.60611545999976, 9.874247750397151], [125.60583115014833, 9.874638839733041], [125.60532152950721, 9.874839660045332], [125.604736799742, 9.874839660045332], [125.60440421048767, 9.874654690008123], [125.60380339967966, 9.874591269824151], [125.6035566298805, 9.874628269702052], [125.60314357011802, 9.874940080187956], [125.60282707019782, 9.875526699656614], [125.60268222991625, 9.875886080260685], [125.60268222991625, 9.876879639685495], [125.60270905030971, 9.877228450025608], [125.60275732971265, 9.877328859743372], [125.60338497024186, 9.877841500385395], [125.60377656995847, 9.878021179940596], [125.60564876048677, 9.878068750332393], [125.60617982977318, 9.878163880001232], [125.60632467005475, 9.878422830272727], [125.60663580962736, 9.878618379686497], [125.60723126008779, 9.878697650295813], [125.60762285980437, 9.878708219658774], [125.60871719984652, 9.878655369665909], [125.60980082022999, 9.878702929807488], [125.61004757966498, 9.878946040354581], [125.61041236002451, 9.87922084966847], [125.6107610500135, 9.879115150325932], [125.61130285035927, 9.878845630156121], [125.61161398993185, 9.878676509980194], [125.6119465802226, 9.878391130165094], [125.61241329009971, 9.878364700022681], [125.61247229952556, 9.877910199883384], [125.61267077955766, 9.877624819920312], [125.61266540988231, 9.877577250386384]]], [[[125.60556292963103, 9.863080460105028], [125.60560048004743, 9.8634081303682], [125.60557365032624, 9.863635389700839], [125.60532688985481, 9.863978930158913], [125.60515523021621, 9.864417589608692], [125.60516058952736, 9.864813969933266], [125.60556292963103, 9.864824539657445], [125.60593307033817, 9.86493024964243], [125.60623884023543, 9.865189219998623], [125.60692549019052, 9.865553890393848], [125.60709714982916, 9.864993669604882], [125.6072688105042, 9.864983099875417], [125.60739756041525, 9.865088800366173], [125.60761212978142, 9.865162790093096], [125.60780525050231, 9.865189219998625], [125.60789108032165, 9.864993669604882], [125.6079340004134, 9.864787550396144], [125.60767114024368, 9.864261679637936], [125.60748069969657, 9.864171829984603], [125.6073519601497, 9.864055560079876], [125.60725002959569, 9.863640680111644], [125.60735464032348, 9.862765989906672], [125.60716151960258, 9.862668209828843], [125.60716151960258, 9.862588939796737], [125.60724735045832, 9.86229033008975], [125.60737877950676, 9.862129129916683], [125.60752093961455, 9.862137059930468], [125.60767919009285, 9.862012859918622], [125.60790718001992, 9.862055140057906], [125.60808420000616, 9.861901870005152], [125.60827196037945, 9.861677249869162], [125.60829609956271, 9.861502839950466], [125.60799837018682, 9.861402419821534], [125.60818344002217, 9.861280859699178], [125.6083202397824, 9.861138159606142], [125.60849725976858, 9.861140810359156], [125.60863137002724, 9.8610562399754], [125.6087628001121, 9.860913539977082], [125.60877353013501, 9.860696849681846], [125.60868232960394, 9.860337459769926], [125.6084570302148, 9.860038849663761], [125.60823172046153, 9.859512970379503], [125.60798495999012, 9.859127149904738], [125.60782135020062, 9.85909015967563], [125.60781597948888, 9.860688919701811], [125.60777843010887, 9.860810479611553], [125.60762017963059, 9.860720639623025], [125.60757995007681, 9.860562079811926], [125.60746461036248, 9.860324249778222], [125.60752629996212, 9.860141909794315], [125.60755849003094, 9.859822159928548], [125.60751288976537, 9.859209069863844], [125.6075504401818, 9.858672630289469], [125.60748607040836, 9.858471790150299], [125.60731440973332, 9.85845858023142], [125.60713470024554, 9.858524640169906], [125.60695230954757, 9.858860250274322], [125.6065955800736, 9.858868180211493], [125.60639708967734, 9.858947459710974], [125.60642659957233, 9.859121869903385], [125.60623347988785, 9.859082229733257], [125.60616909975022, 9.85920378986123], [125.6061449595306, 9.859568469711776], [125.6060215803313, 9.860115480283051], [125.6060671795604, 9.860633429729464], [125.60611009965216, 9.860773489993768], [125.60622006969113, 9.86084219000049], [125.6063649099727, 9.86084219000049], [125.60647219051013, 9.860900329962895], [125.6064024603891, 9.861130239954752], [125.60626835013045, 9.861275579664227], [125.60604304037717, 9.861442060263437], [125.60586601002677, 9.861664039825161], [125.60582310029919, 9.86222425987252], [125.60593842964937, 9.862361680371674], [125.60596526040698, 9.862520229891686], [125.60565411979798, 9.862832049890654], [125.60556292963103, 9.863080460105028]]]]}}]}