{"type": "FeatureCollection", "features": [{"type": "Feature", "properties": {"source": "Tang & Werner 2023", "polygons": 1}, "geometry": {"type": "Polygon", "coordinates": [[[121.36161399994687, 12.120021969979007], [121.36442300034874, 12.122726969848614], [121.36789399953255, 12.126993970173281], [121.3709750002637, 12.126574970171339], [121.37315899988988, 12.128631969999713], [121.37795900045779, 12.128410969819747], [121.38197599954819, 12.131077970345622], [121.38540800044134, 12.128829970229162], [121.38865299961829, 12.129034969844724], [121.39221400019896, 12.127610970164117], [121.39291599948659, 12.12498297024356], [121.39849399978466, 12.119533969778912], [121.39830000018229, 12.116285969888196], [121.39997800040761, 12.113542969842767], [121.39974400029959, 12.108162970190131], [121.39992000045171, 12.106083970357293], [121.40565400013084, 12.105740969906517], [121.40553700007683, 12.101701969927467], [121.40740899990448, 12.099561969970042], [121.41337699969161, 12.0990669700663], [121.41407900001565, 12.097961970007672], [121.41283099978507, 12.096589969748276], [121.40994399969267, 12.098647970306864], [121.40736999954099, 12.098609970278106], [121.4082280002825, 12.096551970004576], [121.40659400009524, 12.093295970185265], [121.40659400009524, 12.090094970276914], [121.4044489997961, 12.08937097017571], [121.40257699996845, 12.089942970123863], [121.39949500013151, 12.087418970058675], [121.39965099951259, 12.085627969710128], [121.39809099948344, 12.083874970212834], [121.39341999963948, 12.08410596976978], [121.38916800029892, 12.08814497033481], [121.38467800028157, 12.08804497021808], [121.3810930004339, 12.094208969766395], [121.37680199969343, 12.088645969721341], [121.37457099960268, 12.087540969959853], [121.37138099995504, 12.087959970387853], [121.367324000359, 12.091808969668989], [121.3613530001453, 12.090867969774855], [121.35922899972297, 12.091065969962226], [121.35738399958889, 12.092366970072435], [121.35776499987108, 12.099935970009028], [121.35689750036975, 12.102416859967942], [121.35594285998191, 12.104510740206639], [121.35479799980375, 12.107867970136803], [121.35450599973981, 12.112183970214252], [121.35307500043464, 12.11979596967641], [121.36161399994687, 12.120021969979007]]]}}]}