{"type": "FeatureCollection", "features": [{"type": "Feature", "properties": {"id": "nsmnp", "name": "Northern Sierra Madre Natural Park", "law": "RA 9125", "url": "https://lawphil.net/statutes/repacts/ra2001/ra_9125_2001.html", "kind": "area"}, "geometry": {"type": "Polygon", "coordinates": [[[122.19116862602132, 17.538035328564412], [122.18894625838801, 17.519425342851715], [122.17200162529161, 17.493593673430556], [122.17783478422135, 17.47220601832123], [122.19089036708716, 17.47720562495023], [122.20672359345451, 17.46553953961173], [122.20894552676614, 17.429152808428356], [122.1950567165531, 17.43748574453798], [122.17311237135691, 17.447485306469307], [122.15727927399811, 17.475539302208976], [122.1508906413169, 17.507204126617577], [122.13116863291536, 17.531925019344627], [122.0875576050821, 17.537480562265408], [122.04061320193186, 17.53748090488225], [121.99339101806567, 17.53720348828756], [121.99061300277477, 17.506927533187636], [121.99561275695363, 17.476373761730464], [122.01394582479958, 17.444708850290166], [122.00672330483073, 17.406100096480753], [122.00005637991273, 17.37249104196028], [122.00366722460784, 17.338881914914584], [122.01755591698266, 17.315272116890934], [122.05588911296442, 17.30193930594498], [122.04144444714667, 17.2719412080294], [122.04699971687064, 17.23583222328752], [122.05311061558221, 17.209167113933308], [122.0547770504326, 17.179446665786458], [122.08338796658136, 17.157503336476168], [122.11699915077985, 17.170835627462896], [122.12283221691949, 17.136948736407835], [122.13005414560139, 17.099728705047365], [122.15255395622918, 17.07778542362823], [122.15727590531132, 17.042787502234354], [122.15672009272326, 17.009178425293477], [122.15671993975283, 16.989179634224506], [122.17894212236594, 16.986679628143325], [122.20449754162732, 16.97195811575595], [122.2031083660088, 16.934182634838063], [122.21171923871249, 16.903906631065215], [122.18755240274865, 16.878630556120903], [122.19588555775825, 16.856131862674847], [122.21588523852841, 16.81641191237479], [122.19060738167627, 16.802801805445895], [122.18282938705151, 16.77308144464257], [122.18116244612277, 16.73641702068559], [122.20005107145205, 16.703641107652604], [122.21088415960203, 16.672254056975095], [122.21366162357099, 16.63058991367465], [122.24616167772726, 16.64197788186222], [122.27338399617031, 16.658365581386494], [122.29199499377061, 16.64558845454108], [122.32977274268171, 16.64669923570389], [122.35393944125384, 16.65419860992377], [122.40088383814815, 16.654198284099493], [122.42310629925639, 16.68919599218516], [122.4472732177793, 16.72613801386591], [122.46894013937445, 16.763080054455244], [122.48227376840796, 16.804188567840182], [122.49838516673907, 16.844463781343766], [122.50699658858593, 16.88668337594372], [122.52116355032474, 16.927514129357945], [122.51783055717138, 16.971678139850045], [122.54588628394468, 16.998065230572106], [122.56449767670352, 17.03750715368673], [122.57255352833367, 17.07722691474635], [122.56783162347583, 17.117780052137245], [122.5508874955933, 17.156388952551936], [122.51672105719416, 17.181109927616824], [122.4747765393256, 17.165833371006197], [122.47116568364599, 17.19833143777811], [122.48838819586783, 17.238051144369297], [122.48477743449239, 17.282492941106067], [122.46672220374471, 17.321657384483682], [122.44394471939096, 17.356099926072257], [122.40950054376108, 17.385820615393325], [122.36727849338115, 17.40220882824858], [122.32727837429941, 17.38193255436325], [122.29561194617474, 17.40832009270539], [122.27422337332894, 17.445818005206753], [122.2506125809432, 17.483315936831918], [122.24450182295641, 17.527202251827028], [122.19116862602132, 17.538035328564412]]]}}, {"type": "Feature", "properties": {"id": "nsmnp", "name": "Northern Sierra Madre Natural Park", "law": "RA 9125", "url": "https://lawphil.net/statutes/repacts/ra2001/ra_9125_2001.html", "kind": "buffer", "bufferKm": 1}, "geometry": {"type": "MultiLineString", "coordinates": [[[122.16282712515476, 17.495593868015355], [122.16402995915348, 17.49840771018773], [122.1798313131695, 17.52249839792766], [122.18219640838092, 17.540792182127515], [122.1839736671129, 17.543870217048934], [122.18684153102079, 17.5460638797661], [122.19036531739289, 17.547040650936548], [122.19311878000183, 17.546877821512126], [122.24645449200649, 17.53604432719981], [122.24895585273158, 17.53516666170383], [122.25170645127794, 17.533025853020565], [122.25271903535756, 17.531622677945997], [122.25368009000364, 17.52923963209285], [122.25968838162039, 17.486379210432986], [122.28228313790476, 17.45049211509327], [122.30305879710808, 17.41408338388739], [122.32858198737354, 17.39281505673385], [122.36370759678739, 17.41057211453092], [122.36725515735836, 17.411247480149154], [122.37080616524196, 17.41058901174722], [122.41448611644441, 17.393487740137623], [122.45023656240325, 17.362822524290383], [122.45188974023269, 17.3609463513835], [122.47501951351772, 17.3259220963124], [122.49338050056808, 17.28615243945983], [122.49401515737178, 17.28420776274011], [122.49773633197145, 17.23704774009138], [122.49707046601732, 17.23457371562878], [122.48077237228425, 17.19699050779645], [122.48283327644887, 17.1784348790111], [122.51429132983033, 17.18984207564887], [122.51804752931379, 17.190058636781753], [122.52159130977974, 17.188842278915164], [122.55654251603978, 17.163610479709135], [122.5585952851563, 17.161565614081987], [122.57680289730558, 17.120479965566624], [122.58195135449691, 17.077318013917072], [122.57344759196558, 17.03475434387751], [122.5535779682192, 16.992875583862403], [122.52751461349371, 16.968147410668543], [122.53052969557434, 16.928168661609373], [122.53032029487258, 16.925508855389584], [122.51609286567508, 16.884370802910176], [122.50740392832449, 16.84195812695357], [122.4911403392491, 16.801212450074893], [122.47789572337479, 16.76038425644665], [122.45520813104383, 16.721316654395867], [122.43107316198243, 16.68442585952046], [122.40888197189669, 16.64947972281201], [122.40703216258765, 16.6473731844604], [122.40371212624771, 16.645579864911173], [122.40088266219672, 16.645158883995286], [122.35541166726759, 16.64515943281505], [122.33093329995249, 16.637729450298853], [122.29228171272459, 16.636553454816077], [122.28969558372157, 16.636825254769978], [122.28728644381651, 16.637771624747508], [122.27304218075254, 16.64750335831113], [122.25026864638951, 16.633852022435946], [122.21686486438942, 16.622094764405144], [122.21418398288792, 16.62156486305797], [122.21058065831544, 16.622052835753795], [122.2074413787668, 16.623826734764478], [122.20568063760383, 16.625846620339978], [122.20459987105728, 16.628270661214447], [122.2043052664127, 16.630010128580814], [122.20160355270895, 16.670508882014502], [122.19142733819442, 16.699988818638346], [122.17296185721588, 16.7320280502978], [122.17203225051581, 16.734342020589935], [122.17179251094775, 16.735982944668958], [122.17354569971391, 16.774390476010215], [122.1817880242, 16.80589019444637], [122.18315938488603, 16.808300529706646], [122.18521947831405, 16.810202427631378], [122.20357782900527, 16.82014127091952], [122.18743989033877, 16.852187427258794], [122.17871033952133, 16.875593902278347], [122.17817469010542, 16.87821234612974], [122.17872996112996, 16.88172003988932], [122.18005151206732, 16.884065938644245], [122.20129065839323, 16.906346606658364], [122.19373797126812, 16.93359080655224], [122.19491508320863, 16.966944230613873], [122.17584831157289, 16.977927521306587], [122.15473168000928, 16.980345790067968], [122.15218229715008, 16.98126563984465], [122.15068241752361, 16.982255464086244], [122.14840939595945, 16.984967042026486], [122.14750289518331, 16.987437611584816], [122.14732674681242, 16.98917950641784], [122.14732708534237, 17.00932202105416], [122.1478704014013, 17.042274924050332], [122.14364180919144, 17.073605233629145], [122.12336265531489, 17.09338182064309], [122.12133465957808, 17.09635542092396], [122.11359130028839, 17.135290544753662], [122.10965435625998, 17.158145483381396], [122.08611768341937, 17.148854369689918], [122.08342725172454, 17.148465065179753], [122.08073353285182, 17.148832744795246], [122.07752436365683, 17.150438411234177], [122.04891392900707, 17.172380943991612], [122.04662937205156, 17.174935846868628], [122.04564709169544, 17.177286573564338], [122.04538820916302, 17.17896012346828], [122.04376164664365, 17.207943644473925], [122.03769555187468, 17.23451045779156], [122.03204914653735, 17.271488255223762], [122.03230661424728, 17.274088519315022], [122.03290627357363, 17.275735385684072], [122.0430454191297, 17.296795086463547], [122.01435350489184, 17.306773663291043], [122.01112467326728, 17.308674897638003], [122.00936384726755, 17.310826247705894], [121.99470137175932, 17.336136944632184], [121.99068329758587, 17.373313839321675], [122.00408500336, 17.443135250335917], [121.98738128877284, 17.471983257191084], [121.98630934460503, 17.474971687283464], [121.98119943617898, 17.506620229747725], [121.98413328478954, 17.538876938060426], [121.98504181369306, 17.541389652574896], [121.98667341205899, 17.543539862840934], [121.98972190322688, 17.54552764286195], [121.99333214654402, 17.54624109776951], [122.08755882876999, 17.546518575527614], [122.13331907481924, 17.540724527386498], [122.13588877804692, 17.539746878687826], [122.13805203310227, 17.53809575169345], [122.1588672253562, 17.512011505147875], [122.16013841175504, 17.50892206887573], [122.16282712515476, 17.495593868015355]], [[122.1659678614733, 17.480022125141975], [122.16625026212319, 17.47862183626621], [122.1664429568723, 17.478280439160535], [122.1659678614733, 17.480022125141975]], [[122.17467057601937, 17.463702138439903], [122.17992820570886, 17.454384815005636], [122.1984888000992, 17.445926969176625], [122.1975744629822, 17.46088629319906], [122.18940489635912, 17.46690563937128], [122.17952395074393, 17.46331431703714], [122.17671968680743, 17.463231325479722], [122.17467057601937, 17.463702138439903]]]}}, {"type": "Feature", "properties": {"id": "pamitinan", "name": "Pamitinan Protected Landscape", "law": "Proc. 901 (1996); RA 11038", "url": "https://lawphil.net/executive/proc/proc1996/proc_901_1996.html", "kind": "area"}, "geometry": {"type": "Polygon", "coordinates": [[[121.1987915, 14.7187071], [121.19392122, 14.7184252], [121.19076985, 14.72063647], [121.18336747, 14.72060537], [121.18271819, 14.72060263], [121.18109736, 14.72064986], [121.18075401, 14.72592135], [121.18031577, 14.73264911], [121.18103496, 14.73675384], [121.18053531, 14.74808313], [121.19237003, 14.74796917], [121.19767855, 14.74758329], [121.19912224, 14.74747833], [121.199055, 14.74162637], [121.1987915, 14.7187071]]]}}, {"type": "Feature", "properties": {"id": "umrbpl", "name": "Upper Marikina River Basin Protected Landscape", "law": "Proc. 296 (2011); RA 11038", "url": "https://lawphil.net/executive/proc/proc2011/proc_296_2011.html", "kind": "area"}, "geometry": {"type": "Polygon", "coordinates": [[[121.32507376, 14.7890011], [121.29478973, 14.777743], [121.29755311, 14.76444504], [121.31348795, 14.73087156], [121.31937193, 14.70323113], [121.32343783, 14.69614084], [121.32717482, 14.66918055], [121.32742272, 14.66211824], [121.31150907, 14.64632919], [121.31937355, 14.60652339], [121.31770355, 14.5935664], [121.32117552, 14.58260596], [121.30509553, 14.57640717], [121.30237793, 14.57561015], [121.29906149, 14.57361195], [121.29745028, 14.57226771], [121.29658153, 14.57157045], [121.29297713, 14.57079154], [121.29193822, 14.57080863], [121.28619819, 14.57427059], [121.28295423, 14.57602344], [121.27941829, 14.57784811], [121.27488201, 14.58123226], [121.26592038, 14.58216613], [121.26958648, 14.58773214], [121.26351591, 14.58359116], [121.26118949, 14.58580676], [121.26146384, 14.59281666], [121.25673249, 14.59682411], [121.25413041, 14.60130388], [121.25238575, 14.60554007], [121.24095673, 14.62275216], [121.24265018, 14.62184188], [121.24447034, 14.62496019], [121.24797718, 14.63096786], [121.24914867, 14.6329747], [121.25109143, 14.63372081], [121.24947883, 14.63526142], [121.24978888, 14.63613827], [121.25118542, 14.63658602], [121.25150294, 14.63985497], [121.25374523, 14.64025762], [121.25294746, 14.64092037], [121.25421477, 14.64435078], [121.26076868, 14.64406549], [121.26298755, 14.64745152], [121.26429037, 14.64303722], [121.26325614, 14.63846573], [121.25982578, 14.63707489], [121.2649694, 14.63320963], [121.2680555, 14.63089041], [121.27437444, 14.62614137], [121.27907674, 14.62260708], [121.28510135, 14.6180786], [121.29066189, 14.62088906], [121.28523793, 14.62646763], [121.28514526, 14.63839696], [121.28189542, 14.63704304], [121.27495945, 14.6395869], [121.27231857, 14.63888319], [121.26595126, 14.64170049], [121.26785777, 14.65602204], [121.26905477, 14.65845837], [121.27288294, 14.6588789], [121.27425629, 14.65864097], [121.27498217, 14.65988496], [121.27430283, 14.66026185], [121.27467832, 14.66115272], [121.27423354, 14.6627208], [121.26548608, 14.66574678], [121.26091483, 14.66333655], [121.25987306, 14.66111718], [121.25912631, 14.65831805], [121.25850661, 14.65791962], [121.25942233, 14.65806786], [121.26044797, 14.65715098], [121.26312736, 14.65689705], [121.26359852, 14.6543848], [121.26422076, 14.65110808], [121.26174298, 14.65138696], [121.26075168, 14.65108189], [121.25929374, 14.65349734], [121.25811778, 14.65546889], [121.25728186, 14.65686427], [121.25509652, 14.65639535], [121.2510432, 14.6605621], [121.24617638, 14.65728628], [121.23642064, 14.6596771], [121.23300694, 14.64578611], [121.22918195, 14.64647862], [121.22703468, 14.64590088], [121.22488742, 14.64532312], [121.22294752, 14.64425675], [121.21967667, 14.65094824], [121.21667758, 14.65393136], [121.21270417, 14.65560862], [121.205404, 14.66683812], [121.20771073, 14.67824498], [121.19677243, 14.68803843], [121.19333675, 14.68969244], [121.19041996, 14.69418402], [121.19042232, 14.69718427], [121.19044058, 14.72063518], [121.19076985, 14.72063656], [121.19392122, 14.71842529], [121.1987915, 14.71870719], [121.1990828, 14.74404593], [121.2088994, 14.75080682], [121.21717931, 14.76647393], [121.23970826, 14.78391527], [121.24072163, 14.78908606], [121.2368233, 14.79277459], [121.23591157, 14.80500989], [121.24696845, 14.82215599], [121.25692527, 14.82002685], [121.26047909, 14.83112357], [121.28577297, 14.83130631], [121.30256022, 14.83282723], [121.32507376, 14.7890011]]]}}, {"type": "Feature", "properties": {"id": "angat-pilot", "name": "Angat Watershed and Forest Range (pilot reserve)", "law": "Proc. 391 (1968)", "url": "https://lawphil.net/executive/proc/proc1968/proc_391_1968.html", "kind": "area"}, "geometry": {"type": "Polygon", "coordinates": [[[121.14520163, 14.86368767], [121.14910103, 14.87322728], [121.15023063, 14.87238036], [121.15034083, 14.87214215], [121.15010006, 14.87154722], [121.15038117, 14.87087041], [121.15065903, 14.87057616], [121.15200145, 14.87114171], [121.15207841, 14.87134318], [121.15166199, 14.87174153], [121.15166767, 14.87222935], [121.15206766, 14.87260558], [121.15399555, 14.87255416], [121.15482399, 14.87227389], [121.15545689, 14.87185815], [121.15631409, 14.87166419], [121.15700153, 14.87177492], [121.15721575, 14.87202531], [121.1572012, 14.87257993], [121.15762006, 14.87305194], [121.15837618, 14.87433964], [121.15877993, 14.87543322], [121.15882252, 14.87620828], [121.15826284, 14.87726543], [121.15746876, 14.8781294], [121.1566564, 14.87883064], [121.15635529, 14.87954554], [121.15624208, 14.88013762], [121.15582614, 14.8804786], [121.15519362, 14.88084652], [121.15496476, 14.8811603], [121.15498093, 14.8815717], [121.15552682, 14.88214038], [121.15663307, 14.88273271], [121.15817421, 14.88307028], [121.15892873, 14.88339196], [121.15929055, 14.88363398], [121.15974218, 14.88372368], [121.1597189, 14.88405187], [121.15951964, 14.88435514], [121.15959004, 14.88475023], [121.15996329, 14.88495049], [121.16082689, 14.88458681], [121.16150993, 14.88449664], [121.16240642, 14.88532876], [121.16205548, 14.88539767], [121.16131819, 14.88536187], [121.16055683, 14.8852661], [121.16031987, 14.88566471], [121.16050574, 14.88621615], [121.16059307, 14.88679071], [121.16019423, 14.88743311], [121.16019871, 14.88835371], [121.16053955, 14.88875098], [121.16141761, 14.88885964], [121.16244576, 14.88866465], [121.16336176, 14.88864808], [121.16431588, 14.88921165], [121.16490106, 14.8897902], [121.16551494, 14.88988478], [121.16645669, 14.88973092], [121.16669781, 14.88956547], [121.16691056, 14.88984813], [121.16686438, 14.89013349], [121.16698545, 14.89035444], [121.16724605, 14.89035653], [121.16736455, 14.89030009], [121.167381, 14.89009937], [121.16736966, 14.88911414], [121.16788642, 14.88964432], [121.16804682, 14.88986558], [121.16807894, 14.89013842], [121.16797039, 14.89076402], [121.16801746, 14.89101307], [121.1681808, 14.89146869], [121.16891339, 14.89206275], [121.16956147, 14.89276613], [121.17007152, 14.89351145], [121.17045639, 14.89510215], [121.17060137, 14.89613149], [121.17109455, 14.89669136], [121.17265693, 14.89729562], [121.17374789, 14.89767494], [121.17469296, 14.89786181], [121.17535835, 14.8976818], [121.17583748, 14.89772148], [121.17593195, 14.89818252], [121.17588455, 14.8994315], [121.17618181, 14.89990013], [121.17646128, 14.90029091], [121.17694783, 14.90194331], [121.1772177, 14.90285985], [121.19531213, 14.90704937], [121.20398459, 14.90061472], [121.21543092, 14.90012616], [121.21567118, 14.89953629], [121.21755322, 14.8949156], [121.22021127, 14.88800699], [121.22310482, 14.87944875], [121.22298702, 14.87569059], [121.22168418, 14.87148973], [121.22181107, 14.87059895], [121.22215712, 14.86816968], [121.22225574, 14.86765033], [121.22308875, 14.86326357], [121.22119288, 14.8589136], [121.22132783, 14.85684809], [121.22153259, 14.85371389], [121.22855853, 14.84842132], [121.22915817, 14.84724222], [121.23004726, 14.84549394], [121.23097425, 14.84367109], [121.23307045, 14.84166407], [121.23589297, 14.84168575], [121.23636112, 14.8400306], [121.23650476, 14.83952279], [121.23287545, 14.82909016], [121.23288122, 14.82907045], [121.2331319, 14.82821364], [121.23301239, 14.82781843], [121.23265792, 14.82664617], [121.23137837, 14.82500383], [121.22426689, 14.81872004], [121.22029942, 14.81695341], [121.21888268, 14.81707158], [121.21511123, 14.81839098], [121.21080564, 14.8165068], [121.20818676, 14.81396136], [121.20633861, 14.81632857], [121.19624701, 14.81685229], [121.18138833, 14.82318862], [121.16699966, 14.8254285], [121.15716252, 14.83766407], [121.15229746, 14.84032696], [121.15186091, 14.84252325], [121.15074615, 14.8550914], [121.14406261, 14.85761985], [121.14490523, 14.86210869], [121.14520163, 14.86368767]]]}}]}