{"type": "FeatureCollection", "features": [{"type": "Feature", "properties": {"source": "Tang & Werner 2023", "polygons": 15}, "geometry": {"type": "MultiPolygon", "coordinates": [[[[125.64324259963747, 10.260501290290922], [125.64334988950263, 10.260733550231704], [125.64295292011072, 10.260902469841607], [125.64249157990893, 10.26094469975781], [125.64231992027032, 10.26138810027458], [125.64209461051702, 10.261388100274576], [125.6418156599768, 10.261514790228995], [125.64159035955127, 10.261778720029064], [125.64156889950536, 10.262243229958907], [125.64167619040697, 10.262771090160697], [125.64213752957235, 10.263341179855324], [125.64253448963652, 10.263615669700842], [125.64295292011072, 10.263795139821521], [125.64326405968332, 10.263985170207611], [125.6438112297044, 10.26405906988164], [125.64453006040056, 10.264080179868438], [125.64506650039871, 10.264175199908601], [125.64576387001254, 10.264217419898669], [125.64658998953747, 10.26431243997898], [125.64718007965028, 10.264534140071143], [125.6479525604611, 10.264597479683555], [125.64830660976125, 10.264734719932353], [125.64900398041155, 10.264776950346707], [125.64933658003004, 10.264914200226615], [125.64978719020887, 10.265325919955881], [125.6505918496879, 10.2659065600302], [125.65139651020333, 10.265442049639512], [125.65162181995666, 10.265273139613264], [125.65276979974934, 10.265083110066199], [125.65323113995112, 10.264871969794429], [125.6527912597952, 10.263636779658828], [125.65280198981812, 10.263393970235542], [125.65305948031249, 10.263098369856714], [125.6532633300199, 10.262127099826312], [125.65290391000796, 10.260923579623299], [125.65249085024554, 10.259202750329498], [125.6523889300557, 10.258352879972652], [125.65248012955036, 10.258062549834012], [125.65221727041705, 10.257914750045309], [125.65188468012634, 10.258025600278662], [125.65163254997957, 10.258220909668825], [125.6511068296402, 10.258252589607626], [125.65060257971084, 10.257861959758992], [125.65041482037394, 10.25789363966282], [125.65009832045374, 10.25762970027793], [125.64995884984751, 10.25762970027793], [125.64985692965764, 10.257861959758996], [125.64952969971453, 10.257782779919383], [125.64931511998417, 10.257608589913938], [125.64934194037764, 10.257360489890585], [125.6488698701529, 10.257122949999838], [125.64866602044549, 10.256959309934595], [125.64860702034737, 10.256790389985396], [125.64862847002908, 10.256537009828044], [125.64927219989241, 10.2562730803035], [125.64967990034371, 10.255824390093025], [125.64991057044456, 10.255676589729466], [125.64999640026389, 10.255544619715925], [125.6500875904308, 10.255222619605105], [125.64971209041248, 10.25469473981318], [125.64943313987229, 10.254573330058603], [125.64892887957873, 10.254763370181205], [125.64860702034737, 10.255201499842418], [125.64837097953475, 10.255370419762267], [125.6480062002116, 10.255101209653406], [125.64787208995298, 10.255169829755975], [125.64780772017951, 10.255328189774087], [125.64780772017951, 10.255433759977333], [125.64765214987501, 10.255655469937288], [125.64719080967322, 10.255929959661149], [125.64696013957231, 10.255972189727512], [125.64674555984195, 10.255829670043672], [125.64689576979889, 10.255560449999512], [125.6463539601254, 10.255460159699771], [125.6462359402373, 10.255787439995839], [125.64604281951634, 10.255597400070892], [125.64582288047482, 10.255280679849545], [125.64561902973098, 10.255238449873007], [125.64519525030975, 10.255275399907797], [125.64479827988141, 10.255465439644519], [125.64445495956775, 10.255771600146161], [125.64463197955399, 10.256114719825117], [125.64437985044364, 10.256901239835296], [125.64443349952188, 10.257355209915056], [125.64442812984657, 10.257571639613943], [125.64393997028772, 10.257603309934378], [125.6438863295008, 10.257693049692044], [125.64393997028772, 10.258141729741775], [125.64341426031251, 10.258157569706926], [125.64328551040143, 10.258104780177426], [125.64310311970348, 10.257904190076347], [125.64307093999881, 10.258484850330055], [125.64223409045101, 10.258484850330056], [125.64226627015566, 10.259081339687459], [125.64198731961541, 10.259339989892041], [125.64194440988786, 10.259619760350885], [125.64281344017674, 10.259962869759457], [125.64282417019966, 10.260131789764992], [125.64291000001899, 10.260469619688063], [125.64324259963747, 10.260501290290922]]], [[[125.64767360992089, 10.27758247979876], [125.64782380951362, 10.2775402501073], [125.6481993198961, 10.277561360174504], [125.64847827043634, 10.277445239692039], [125.64882158971358, 10.277075759697702], [125.64900398041155, 10.276716830352651], [125.6490469005033, 10.27630512006461], [125.64903617048033, 10.275956740183323], [125.64928292991537, 10.275703380109016], [125.6497979202318, 10.275450020232572], [125.65028071011525, 10.275312780231621], [125.65070986957599, 10.275238880384784], [125.65099955013918, 10.275080529769674], [125.65143943029507, 10.274668819965393], [125.65182566966406, 10.274637150369607], [125.65231918957048, 10.274521019785546], [125.65254450036021, 10.27424655018311], [125.65257668006483, 10.273613139771468], [125.65256596040608, 10.27239910016806], [125.65230845954757, 10.272082389842087], [125.65198660031619, 10.271902930270418], [125.65149307004557, 10.271945160024522], [125.65034509025288, 10.271945160024522], [125.64914346034554, 10.271607330108461], [125.64844608036753, 10.271248399645309], [125.6482851497154, 10.271005590104478], [125.64766287989792, 10.270414399646985], [125.64718007965028, 10.270161039918], [125.64675092951731, 10.270055469706593], [125.6458926199236, 10.269907670035009], [125.64550637951822, 10.27063609992382], [125.64523816003734, 10.270509419948088], [125.6448733796778, 10.27047774996188], [125.64449787033176, 10.270910580009895], [125.6443476697026, 10.27088947037535], [125.6436824797934, 10.270646660306703], [125.64321040956867, 10.270646660306703], [125.64313530977226, 10.270783899927064], [125.64318894952278, 10.271396199927347], [125.6438004996815, 10.271818469982408], [125.64456224010519, 10.272071839764287], [125.64506650039871, 10.27253633973307], [125.64543127972185, 10.273180310100933], [125.64567804019326, 10.273718710343735], [125.64620375949625, 10.274162090081473], [125.64626813030607, 10.27454214000819], [125.64608573960811, 10.274711050079395], [125.64573169030793, 10.274573810390999], [125.64559221037392, 10.27455269016629], [125.64551710954113, 10.274763830363883], [125.64574242033083, 10.275133319669857], [125.64500212958887, 10.275143869847179], [125.64483046995022, 10.275333899709503], [125.6451737902639, 10.276009530226062], [125.64532398985664, 10.276558479812518], [125.64542054969888, 10.277212990092455], [125.64584969983184, 10.277698600330352], [125.64609646963103, 10.27767749025422], [125.64680457030423, 10.277698600330353], [125.64709424983097, 10.27774083004244], [125.64740539044, 10.277899180363415], [125.64782380951362, 10.277994190115313], [125.64790964036933, 10.277878070274218], [125.64767360992089, 10.27758247979876]]], [[[125.65096736007037, 10.254768650114634], [125.65117120977779, 10.254536380103604], [125.651450160318, 10.253871260132895], [125.65146089034096, 10.252773280118733], [125.65140724022629, 10.252467109700333], [125.65137505948525, 10.25196034995127], [125.65129995036108, 10.251685850042263], [125.6509566300474, 10.25166474006419], [125.65053820993738, 10.252013140075613], [125.65051674989154, 10.252477670288954], [125.65028071011525, 10.252488230081674], [125.6498515599823, 10.252435439880207], [125.64945458955395, 10.252277079678425], [125.64907908020791, 10.252192619714764], [125.64900398041155, 10.25187589006986], [125.6492507502107, 10.251611949996391], [125.64975500014005, 10.251189649668596], [125.6497979202318, 10.250894039685749], [125.64941167982641, 10.250714559966973], [125.64866066009787, 10.250693439700823], [125.64667582972092, 10.251390239608432], [125.64501285961177, 10.252255960107053], [125.64230919024739, 10.252979150143439], [125.64230919024739, 10.25357565010125], [125.64240575008964, 10.253628439691552], [125.642829539875, 10.253639000317893], [125.64293682974021, 10.253675950170912], [125.64286171957967, 10.253829030339418], [125.64248084988603, 10.254161589713394], [125.64256132039414, 10.254441359696642], [125.64296365013365, 10.254974519810185], [125.64328015005388, 10.255153989936389], [125.64319432023453, 10.254620839879784], [125.64308167002177, 10.25431995003668], [125.64323186961451, 10.254156309789819], [125.64339816994199, 10.254108800036517], [125.6437253998851, 10.25409296982362], [125.64393460994012, 10.253960999656623], [125.64377903963565, 10.253755129806532], [125.64373611954386, 10.253628439691555], [125.64432620965673, 10.253364499788173], [125.64520596996852, 10.25337505960969], [125.64560294039686, 10.253470079705052], [125.64634323010246, 10.25350174962595], [125.646359320473, 10.253760409723593], [125.64625203993556, 10.253955719736302], [125.64608573960811, 10.254135199651374], [125.64619838982087, 10.254362179893915], [125.64634859977781, 10.25456805012836], [125.64680457030423, 10.25503258001032], [125.64697086959528, 10.255048419823993], [125.64715326029325, 10.254837270146997], [125.64720690004374, 10.254494150223742], [125.6475448600098, 10.254451920349364], [125.64794183043817, 10.254446639624843], [125.64818858987316, 10.254599729711176], [125.64838706990524, 10.254784480360433], [125.648778679986, 10.25431995003668], [125.64906835951275, 10.254224940044194], [125.64956188045554, 10.254187990128786], [125.64980865025471, 10.254209100270659], [125.64987302002815, 10.254314679665518], [125.64970671970073, 10.254531100173946], [125.64998030989337, 10.255000909940328], [125.65096736007037, 10.254768650114634]]], [[[125.64112902038589, 10.276283999727225], [125.64131141004744, 10.276627099671042], [125.64148843003366, 10.276875180173782], [125.64163863999059, 10.276949080393344], [125.64184785004561, 10.276938519805348], [125.64198196030425, 10.27685407015122], [125.64211071021528, 10.276722109846695], [125.64212142987404, 10.276389570372146], [125.64207852014651, 10.27594090970185], [125.64211071021528, 10.275613649707715], [125.64222336042808, 10.275481689907695], [125.64239502006669, 10.275133319669854], [125.64236282999791, 10.275033029696516], [125.64201415037303, 10.275069980390693], [125.64180492995389, 10.275143869847177], [125.64169765045285, 10.27503830995946], [125.64131141004744, 10.27481660986065], [125.64126848995569, 10.274626589856862], [125.64154744049594, 10.273402000322593], [125.64153671047298, 10.273074739703821], [125.6412779826781, 10.272805179589424], [125.64169765045285, 10.272821369935324], [125.64174056018044, 10.272747480211367], [125.64176202022628, 10.272388539728142], [125.6416225402923, 10.2719557100982], [125.64139723986678, 10.27141731039115], [125.64125775993276, 10.270805010351031], [125.64132214007039, 10.270139919980444], [125.64135969048677, 10.270044910139225], [125.64172983015749, 10.270039629957523], [125.64192831951733, 10.270102969847555], [125.64205169975301, 10.270187429689202], [125.6422394497622, 10.270720550348704], [125.64238429004376, 10.270995029709903], [125.64274907040331, 10.270947530234714], [125.64298511017952, 10.270873629789284], [125.64297438015656, 10.270667769925472], [125.64285636026847, 10.270382729670049], [125.6426417795017, 10.27010825003027], [125.64244865981719, 10.2699393399656], [125.64170837011164, 10.269654300349762], [125.64175129020335, 10.2694009396214], [125.64116120009054, 10.268503589649429], [125.64097881042895, 10.268334679623301], [125.64067841020706, 10.26831357015623], [125.64035239289518, 10.268343413142963], [125.64088224955032, 10.268260779772634], [125.64092516964202, 10.268281900384233], [125.64120412018227, 10.268535260239338], [125.64164400033819, 10.269052559984535], [125.64178348027218, 10.269094779812418], [125.64222336042808, 10.26908422983172], [125.64281344017674, 10.268968099641846], [125.64332843049318, 10.26871472989357], [125.64370393983926, 10.26882029966899], [125.64416528004102, 10.268883649672826], [125.6446802599933, 10.269063109964218], [125.64494848051059, 10.269063109964216], [125.6454527397677, 10.268957540109845], [125.6456673101703, 10.268598610187556], [125.6456136704198, 10.268229110005777], [125.6454527397677, 10.267648480111776], [125.64522743001439, 10.267384550319832], [125.64539908965301, 10.26708895029046], [125.64572096028499, 10.267088950290463], [125.64655780983283, 10.267352879842147], [125.64719080967322, 10.267310649889124], [125.6475448600098, 10.2670678401081], [125.64764141985205, 10.266624439801115], [125.64733028027946, 10.266212720018267], [125.64642905992174, 10.265705980241583], [125.6460535495393, 10.26576932008253], [125.64595698969705, 10.265737649762384], [125.64578533005842, 10.265515949645007], [125.64476608981265, 10.264481350301901], [125.64464808028868, 10.264312439978978], [125.6444871403088, 10.26421741989867], [125.64410089990339, 10.264154080360356], [125.64365028972456, 10.264143520188616], [125.64308167002177, 10.26405906988164], [125.64256667970531, 10.26421741989867], [125.64272761035744, 10.26467138029316], [125.64298511017952, 10.2650831100662], [125.64230919024739, 10.265072549864257], [125.64193367986489, 10.265283690266418], [125.64113437969704, 10.265394539828781], [125.64088224955032, 10.265479000038294], [125.64014195984473, 10.265869610379063], [125.63993812050145, 10.265864330265256], [125.63976645049867, 10.265764039970357], [125.63942849986034, 10.265468439823469], [125.6391495503565, 10.265352319685723], [125.63863992971541, 10.265273139613262], [125.63824831963467, 10.26527841971746], [125.6379425497374, 10.265447329746443], [125.63775479972826, 10.265690139908411], [125.63785671991809, 10.265848500275965], [125.63807129964849, 10.265943509685554], [125.63856482991908, 10.266027970037833], [125.63860773964663, 10.266355240275008], [125.63812494043538, 10.266576940169047], [125.63801764953378, 10.266703620203028], [125.63812494043538, 10.266803909991808], [125.63829660007403, 10.26684085974924], [125.6386345600401, 10.266793360085522], [125.63922465015291, 10.267094229627903], [125.63880086036752, 10.26765903004584], [125.6385970096237, 10.268002139983151], [125.63923538017585, 10.26815521017914], [125.6394928696338, 10.268297729695867], [125.63988984006214, 10.268630279990452], [125.64012051016302, 10.268392750173746], [125.6401966382953, 10.268376552626085], [125.63988447038678, 10.268693619605513], [125.63929438960169, 10.268946990133594], [125.63904761980253, 10.269115899681987], [125.63889742020979, 10.269305919644738], [125.63887596016392, 10.269717649720032], [125.63818931953658, 10.270097700016638], [125.6380820296714, 10.270435519602394], [125.6381571305042, 10.270773340335989], [125.63788890998691, 10.271185060328078], [125.6380283795567, 10.271501769778485], [125.6384038899392, 10.271628450141492], [125.63927292955583, 10.271755129757652], [125.63986301034092, 10.27211407033665], [125.64028143977869, 10.272145739686216], [125.6408607998686, 10.2723779896404], [125.64095392272064, 10.272513740885666], [125.64088224955032, 10.272430770341732], [125.64030289982456, 10.272240750142345], [125.63988447038678, 10.27221963006947], [125.63916563969065, 10.272610239760777], [125.63871502951181, 10.272715810006792], [125.63823223030056, 10.272974450366707], [125.63801764953378, 10.272736919760137], [125.63792646040329, 10.27249939012368], [125.6380337502685, 10.272277699722295], [125.6380283795567, 10.272177409835178], [125.6379318197145, 10.2719768301539], [125.63768506027948, 10.271855420310574], [125.63759387011255, 10.272024329779711], [125.63759387011255, 10.272346320268172], [125.6374168397622, 10.27237271021705], [125.63712716023544, 10.272135180050855], [125.63702524004563, 10.271623169934028], [125.63684285038401, 10.271406749983182], [125.63654780014554, 10.27118506032808], [125.63640295986397, 10.27098447966745], [125.63629568036296, 10.270900019618427], [125.6360059997998, 10.270847239962299], [125.63586651986584, 10.270884190179911], [125.6357806900465, 10.271126999629926], [125.63562511974197, 10.27107421038142], [125.63546955980163, 10.270963359676323], [125.6350350399933, 10.270815569943139], [125.63464879958792, 10.27088419017991], [125.63445567990341, 10.271058380138117], [125.63445567990341, 10.271353970244663], [125.63436448973651, 10.271543989924888], [125.63415527035376, 10.271718180237187], [125.63402652977045, 10.2720296099937], [125.6353139894971, 10.272842490047355], [125.63617228976308, 10.273233090136447], [125.63662291030612, 10.273306990322807], [125.6372773598282, 10.273570909800341], [125.63766360023361, 10.273655360192551], [125.63814640048125, 10.273623689899383], [125.63848971975848, 10.274140980235433], [125.63866138043358, 10.27461603014078], [125.63870429948885, 10.275175540288716], [125.63854336987315, 10.275893399947117], [125.63884377009511, 10.275998969668656], [125.63924073948702, 10.276041199955799], [125.6395840598007, 10.275956740183323], [125.64009905011716, 10.275893399947115], [125.64069985988877, 10.276030640193659], [125.6410539195531, 10.27621537994126], [125.64112902038589, 10.276283999727225]]], [[[125.64460784037071, 10.236377030141485], [125.64476608981265, 10.236239780359513], [125.64480498031594, 10.236245049641763], [125.64486130956797, 10.23629125021529], [125.64488142952695, 10.236375710033673], [125.64495115964797, 10.236457540008306], [125.64512148023609, 10.23653804034057], [125.64528376030286, 10.236687169637289], [125.64536288035993, 10.236704330259576], [125.64546346979064, 10.23662513964437], [125.64554124976078, 10.23639815027492], [125.64558685002636, 10.236099880071304], [125.64571828011118, 10.235616850362575], [125.64592749016622, 10.235479589754066], [125.64616621011625, 10.235426799922568], [125.64624130991261, 10.235352900383235], [125.64604281951634, 10.234761640179691], [125.64590871029412, 10.234555760179722], [125.64588188990066, 10.234265409869899], [125.64582288047482, 10.234027850211298], [125.64545810011529, 10.23356857018206], [125.64528644047665, 10.233098730043753], [125.64510942049047, 10.232908689830818], [125.64476608981265, 10.232871730392167], [125.64496993952005, 10.232660569622926], [125.64523279968974, 10.232486359623097], [125.64544200974476, 10.232264639966518], [125.64523816003734, 10.232132660336504], [125.64501285961177, 10.23212737997406], [125.6441867400869, 10.232570830398029], [125.64382732007496, 10.232808380236161], [125.64336597987317, 10.232766149990432], [125.64339280026664, 10.232533870201507], [125.6435322802006, 10.232343819967474], [125.64342499033545, 10.232222400236935], [125.64320505025749, 10.231726169813335], [125.64321040956867, 10.231536120050352], [125.64309238968052, 10.231251050390833], [125.64348399976129, 10.231008210196924], [125.64358055960354, 10.230870949937472], [125.64358591995114, 10.23077593006864], [125.6434464503813, 10.23053309022874], [125.64326942003092, 10.230422230249863], [125.64303874993001, 10.230390549835061], [125.64243257048308, 10.230517250015573], [125.64212142987404, 10.23051725001557], [125.64179956960629, 10.230585880063591], [125.64176202022628, 10.23022690011941], [125.64162790996762, 10.229920710297712], [125.64146698035195, 10.229809849730927], [125.64114510972, 10.230665070007152], [125.64016341989057, 10.230812879715286], [125.64013659949713, 10.23115602006069], [125.64020633998231, 10.231430540081353], [125.64079106041982, 10.2313883100142], [125.64103245950723, 10.231451650339826], [125.64130604037213, 10.231615310224806], [125.64172983015749, 10.231705049982759], [125.64186394041614, 10.231852869716898], [125.64172983015749, 10.232042919664606], [125.64134896046383, 10.232079870251106], [125.64083933982273, 10.232232960168812], [125.64049064983371, 10.232206570292176], [125.64042091038493, 10.232364939839451], [125.64034580955214, 10.233378529695084], [125.6409895404519, 10.23330462026978], [125.641354319775, 10.233378529695088], [125.64156889950536, 10.234149269818433], [125.64206242977595, 10.23382196987883], [125.64249157990893, 10.234740529706773], [125.64291000001899, 10.235247319973647], [125.64301728988417, 10.235901919860858], [125.64247011986306, 10.236144750166709], [125.64233065029326, 10.23635591000942], [125.64225554013272, 10.236551239833176], [125.64226627015566, 10.237052750086228], [125.64233065029326, 10.237327250393134], [125.64257740972828, 10.237585930279751], [125.64276515973742, 10.237960739797721], [125.6428822037508, 10.23796731670585], [125.64256132039414, 10.238393610163193], [125.64229309987688, 10.238319709950717], [125.64199269032717, 10.238361940120189], [125.64179956960629, 10.238425289763809], [125.64161717994472, 10.238657560218082], [125.6414294195714, 10.238351379989625], [125.64138650984381, 10.238108549631042], [125.64138650984381, 10.237475070289648], [125.64133285972915, 10.237137210102077], [125.64092516964202, 10.23695771965623], [125.64018487993644, 10.236904930381387], [125.64005613002539, 10.236693770182766], [125.63994884016023, 10.236419260059057], [125.63965916996123, 10.236091960227409], [125.63911199994016, 10.235891359810067], [125.63813567045834, 10.235722430095725], [125.63758850043723, 10.235469040067597], [125.6374168397622, 10.23569076031244], [125.63880086036752, 10.236440380195228], [125.63928365957877, 10.236915489668846], [125.63970207968882, 10.237791809806316], [125.63983082959986, 10.238372500251087], [125.64018487993644, 10.238953190138867], [125.64049601950906, 10.239386060231112], [125.64027607010334, 10.24006176969873], [125.64028143977869, 10.240843060369404], [125.64009905011716, 10.24102254021734], [125.63986301034092, 10.241138680331197], [125.63954115007311, 10.24102254021734], [125.63909053989428, 10.24096448012864], [125.63903153046842, 10.241143960043512], [125.6390529905143, 10.241592669818173], [125.63920319010704, 10.241629619895631], [125.63948749995845, 10.241856620077698], [125.63999711956316, 10.242094170318833], [125.64042628006028, 10.242173359875402], [125.64072668960996, 10.242384510091714], [125.6410753702712, 10.243002150202212], [125.64102708983188, 10.243630339842747], [125.64127385963106, 10.244057930024361], [125.6416547303611, 10.24408959982522], [125.64185858006853, 10.244279640193218], [125.64249694025654, 10.24381510018685], [125.64259350009878, 10.243530039685218], [125.6429046396714, 10.243171070157391], [125.64315140014283, 10.243118279875215], [125.6435215501777, 10.242891289960442], [125.64410626957877, 10.242595669999606], [125.64464808028868, 10.242421460259031], [125.64500748993646, 10.242463699718911], [125.64519525030975, 10.242854339739797], [125.64559758004927, 10.242743480344583], [125.64582825015017, 10.242627339658213], [125.64620375949625, 10.242500649895227], [125.64705132973921, 10.241291769729362], [125.64686894007767, 10.241128120110574], [125.64646661033815, 10.240938079989983], [125.6462359402373, 10.240732200066658], [125.64596771972, 10.24066884997422], [125.64578533005842, 10.24076915004644], [125.64560294039686, 10.240996149628565], [125.64559758004927, 10.241297050240373], [125.64605892025106, 10.241402630222645], [125.64593017033998, 10.241703529617704], [125.64431012032261, 10.241687689657546], [125.64397216035653, 10.24175103994821], [125.64331234012265, 10.241978029864118], [125.6432157802804, 10.241851340353824], [125.64319432023453, 10.241270659629365], [125.64252376997773, 10.241112289733008], [125.64234673962737, 10.240959199623024], [125.64247011986306, 10.240763879894773], [125.6425076702795, 10.240558000081583], [125.64247011986306, 10.240452420373222], [125.64223409045101, 10.240357400098153], [125.6421643499658, 10.240241260262984], [125.64272225000984, 10.23994035983069], [125.64299582983827, 10.239855890329485], [125.64329088007679, 10.239861170021017], [125.64343034964662, 10.240003700226806], [125.64345717004007, 10.24033627970795], [125.64365566043632, 10.240510489925175], [125.64385951014376, 10.240542160177153], [125.64402580010702, 10.240389070335244], [125.64404726015293, 10.240019540105038], [125.64415455001809, 10.239681690017049], [125.64417601006393, 10.238932069839743], [125.64407407950995, 10.238657560218082], [125.64373398211092, 10.238191309993182], [125.64384341044547, 10.238266919658914], [125.64394533996308, 10.238229969963058], [125.6438863295008, 10.237739020396296], [125.64414918034274, 10.237649270217924], [125.6443637600731, 10.237638719664975], [125.64485191963193, 10.237860430239827], [125.64492702046472, 10.237760130267342], [125.6448572903437, 10.237116089920708], [125.6445568797576, 10.236646259793911], [125.64441741018777, 10.236560479796795], [125.64446434017606, 10.236441700303319], [125.64460784037071, 10.236377030141485]]], [[[125.63467561998138, 10.242727640333808], [125.63447713994928, 10.242922959647794], [125.63433229966769, 10.243345280299145], [125.63433229966769, 10.24377287010628], [125.63446640992638, 10.244073770099856], [125.63455223974566, 10.244406340203314], [125.63438594045464, 10.244643889916523], [125.6341230896127, 10.244754739608078], [125.6342142797796, 10.245155940340856], [125.63447177027398, 10.24547266981333], [125.6345307796998, 10.245863310260713], [125.6340587105115, 10.246158930004604], [125.6340587105115, 10.246533730283572], [125.63478827019415, 10.246934919673697], [125.63568413020425, 10.247753140192529], [125.63592016998052, 10.247821769892044], [125.63634395976588, 10.247563100184752], [125.63651562044092, 10.247225259783836], [125.63625812994655, 10.246512610288837], [125.63627957962827, 10.246206440189235], [125.63637614050695, 10.245799959965892], [125.63663899964018, 10.24557825035378], [125.6374168397622, 10.245567689989134], [125.63745439017859, 10.245530740260866], [125.63828588041522, 10.245240400070179], [125.63855946024371, 10.24525095962797], [125.63881159039045, 10.245382930242567], [125.63938022045744, 10.24585274988681], [125.63921392012998, 10.246148369621107], [125.6392621995329, 10.247008820249542], [125.63931584031981, 10.247357229606664], [125.63929438960169, 10.247505039725537], [125.63895642963563, 10.247684520062295], [125.63881159039045, 10.24784287962073], [125.63843071033264, 10.247969569870932], [125.6378513595705, 10.248017080319938], [125.63722372007769, 10.24850801035452], [125.63715397959248, 10.248671659703055], [125.63728808985114, 10.248961990215742], [125.63753485965029, 10.249136200272778], [125.63776552975122, 10.24902534032999], [125.63787281961638, 10.248819469622857], [125.63826442036935, 10.248402440010688], [125.63928365957877, 10.247885110229467], [125.63978255019695, 10.24747863985258], [125.63998103022904, 10.247088010205708], [125.6400024902749, 10.246697369880568], [125.64034580955214, 10.246275060007775], [125.64092516964202, 10.245699659935942], [125.64094662968789, 10.245477950392182], [125.64090370959619, 10.245055639713183], [125.64039945966681, 10.244707229635376], [125.64035653957508, 10.243598659735678], [125.64027070975574, 10.24303909964342], [125.63986301034092, 10.242659019670748], [125.6393480303886, 10.242796269769759], [125.63897252000616, 10.242722359799574], [125.63855409989611, 10.242511210160357], [125.63788890998691, 10.242395070353076], [125.63745974948975, 10.2421733598754], [125.63722372007769, 10.24195163999411], [125.63711643021253, 10.241529320354543], [125.63674091983003, 10.24073747977238], [125.63661218028317, 10.240251819658631], [125.63605428023912, 10.240040659678483], [125.63606501026209, 10.23981893965713], [125.63640832953932, 10.23923824981795], [125.63644051960813, 10.238266919658916], [125.63652635046387, 10.237971290361118], [125.63772798037124, 10.23798184968314], [125.63709497016666, 10.23694716992189], [125.63674091983003, 10.236588190134777], [125.63618301978602, 10.236239780359513], [125.6354105503758, 10.235996939632178], [125.63417673039962, 10.235880799759604], [125.63401579974754, 10.236070849668282], [125.63396752034461, 10.236651540229593], [125.63396752034461, 10.23678352009783], [125.6341284499603, 10.23719527985907], [125.63416064002911, 10.237707340066232], [125.63404798981632, 10.237786530148353], [125.63406943949803, 10.238087430182903], [125.63386023047943, 10.238636450288867], [125.63396214963288, 10.238969019615254], [125.6337368502437, 10.23929104026722], [125.63372075987319, 10.239713360188416], [125.6340211600951, 10.23996675033387], [125.63381195004008, 10.240151519745776], [125.63328624006488, 10.24048937032126], [125.63237428968425, 10.240779710255401], [125.63369393015196, 10.240742760274419], [125.63409625989148, 10.240906409699505], [125.63366710975852, 10.241967479967126], [125.63446640992638, 10.241803830008683], [125.63458979016207, 10.24187773021569], [125.63487411037762, 10.242421460259031], [125.63467561998138, 10.242727640333808]]], [[[125.63429475028774, 10.235432080338498], [125.6342840202648, 10.235854410383695], [125.63482046026294, 10.235886080182892], [125.63563584976491, 10.235991660003293], [125.63630103967411, 10.236229220297757], [125.6371861696613, 10.236435099762964], [125.63720226003183, 10.235896640233525], [125.63741148045102, 10.23566964022487], [125.63743293013273, 10.235379289718496], [125.63714862028134, 10.235104779906331], [125.63681601962642, 10.234909459708133], [125.63663362996488, 10.234666619972488], [125.63662826961728, 10.234508250102682], [125.63649951970622, 10.234149269818433], [125.6365907202373, 10.233922270231146], [125.6366014502602, 10.23377974029795], [125.63636005013639, 10.233621359712457], [125.63622593987778, 10.23341547963685], [125.63637078015934, 10.233367969726087], [125.63651024972916, 10.233251829994504], [125.63662826961728, 10.233056499760393], [125.636671189709, 10.232887569923584], [125.63664435998778, 10.23262361976677], [125.63655316982089, 10.232317430081862], [125.63677310989885, 10.232106260117465], [125.63700377999972, 10.231963730182434], [125.63770114961359, 10.231789519758953], [125.63772798037124, 10.231499170321698], [125.6377869804693, 10.231414699824574], [125.63797473980622, 10.23137775010968], [125.63843071033264, 10.23147804970964], [125.63842534998506, 10.231002929852684], [125.63858092028958, 10.23079704028471], [125.6389778896815, 10.230564760306912], [125.63920319010704, 10.230469739731161], [125.63936949043448, 10.230332479698472], [125.63931584031981, 10.230184659857741], [125.63923538017585, 10.23010548038139], [125.63907444019597, 10.230073799997378], [125.63905834982546, 10.230200500054753], [125.63877403997408, 10.229978780360945], [125.63865602008595, 10.229936549685695], [125.63833415981814, 10.229714819820996], [125.63771725034827, 10.22974650017011], [125.63752412962738, 10.229767610319506], [125.63720226003183, 10.229883749605559], [125.63692868020338, 10.23003684963832], [125.63664972966313, 10.229947099989252], [125.6362903096512, 10.230063240135447], [125.63641905956229, 10.230306079625262], [125.63593626035103, 10.230575320185087], [125.63583434016118, 10.230490849927396], [125.63562511974197, 10.230390549835063], [125.6354266397099, 10.230406390042088], [125.63562511974197, 10.23056476030691], [125.63574851034188, 10.230786489953642], [125.63620447983192, 10.2311876997537], [125.63651562044092, 10.231361909855462], [125.63636005013639, 10.231430540081353], [125.63615620042897, 10.231335509698868], [125.63572705029601, 10.231441099987583], [125.63544809975576, 10.231699769627228], [125.63521742965492, 10.231451650339826], [125.63479900021709, 10.231261610291249], [125.63465415993552, 10.231145469718012], [125.63463806956496, 10.230913179937591], [125.63442885950994, 10.230744249619464], [125.63417137005202, 10.230643950245335], [125.63394069995115, 10.230628110026785], [125.63364564971265, 10.23050669013928], [125.63299655950172, 10.230358879773817], [125.63280343981721, 10.230237459986625], [125.63263713948979, 10.230057970156993], [125.63240111007772, 10.22967258997615], [125.63227236016665, 10.22989958978795], [125.63219726037026, 10.230131870087883], [125.63222945043907, 10.230453900317265], [125.63234745996303, 10.230628110026785], [125.63277124974842, 10.231071560002995], [125.63268541992909, 10.231150750064563], [125.63277124974842, 10.231330239699824], [125.63305825013775, 10.231631140140832], [125.6332594196714, 10.231752559651065], [125.63329160041245, 10.23165225996662], [125.63336938971035, 10.231610029870732], [125.6335490898704, 10.231731450169288], [125.63381731971543, 10.231995399603441], [125.63378780982042, 10.232182810248807], [125.63383072991213, 10.232380780142421], [125.63344448950676, 10.232855899619683], [125.63313871960949, 10.23361872031536], [125.63375026044045, 10.23336269013981], [125.63404798981632, 10.233040660220773], [125.63423573982544, 10.23313305011497], [125.63445836007723, 10.233360049948594], [125.63402652977045, 10.233697910199727], [125.63379585966958, 10.233967140026607], [125.63386290961681, 10.234025210014709], [125.63424915002221, 10.234035770005013], [125.63435375971359, 10.23433932030936], [125.63409089954388, 10.234405310166496], [125.63413649980946, 10.234487130091777], [125.63440472032674, 10.234534640165737], [125.63444226970671, 10.234656059961742], [125.63433766001529, 10.234661340365179], [125.63432156964481, 10.234756359774645], [125.63438862995618, 10.234922650376532], [125.63440204015295, 10.235289549744762], [125.63429475028774, 10.235432080338498]]], [[[125.63482582993831, 10.262111270019139], [125.63509940976674, 10.262348810371106], [125.63530861982181, 10.262612740052436], [125.63585042949528, 10.262575789979692], [125.63623130022539, 10.262734140069945], [125.63668728007954, 10.262823879652005], [125.63686430006572, 10.262940010033667], [125.63747585022446, 10.263119479781075], [125.6376260498172, 10.262913620055132], [125.6376475098631, 10.262069039951319], [125.63683212036113, 10.26160451991905], [125.6367623798759, 10.261419770170694], [125.63688576011162, 10.261113609922294], [125.63696622958336, 10.261055550228406], [125.63747585022446, 10.260891909775545], [125.63747585022446, 10.260437949884569], [125.63739002040515, 10.260242639958278], [125.63723445010062, 10.26016874035606], [125.63689112978696, 10.260073719895122], [125.63649416039505, 10.260084279934574], [125.63626349029414, 10.259968149777334], [125.63610255964205, 10.259815069902798], [125.63601672982271, 10.259683099801485], [125.63583434016118, 10.259276649712046], [125.63616693045188, 10.259271369705399], [125.6366068095714, 10.259002160347038], [125.63681601962642, 10.258743500059936], [125.63697158993094, 10.258442619937252], [125.63686430006572, 10.25830008961517], [125.63640832953932, 10.2582261896584], [125.63614011005842, 10.258389830361457], [125.63593090000343, 10.25862737038181], [125.63554465959803, 10.258622090385701], [125.63513159983555, 10.25852179993761], [125.6348848300364, 10.258421499965356], [125.63441812948706, 10.258416219972608], [125.6341284499603, 10.258421499965356], [125.63388168948886, 10.25854819035574], [125.63332379048127, 10.258542910360916], [125.63310385040333, 10.258622090385705], [125.6329321897283, 10.25863793037427], [125.63284099023362, 10.25843733994416], [125.63317895019969, 10.258220909668825], [125.63343108034644, 10.25800448988896], [125.63353299949983, 10.25797282032569], [125.6338441401089, 10.258041440238157], [125.63387631981354, 10.257724720024305], [125.63416064002911, 10.25726019983177], [125.63411235958975, 10.256996260164986], [125.63369393015196, 10.257481899889813], [125.63268541992909, 10.257819739798467], [125.63235282963839, 10.25806254983401], [125.63223480975024, 10.258231469648075], [125.63222407972734, 10.258484850330056], [125.63199878033821, 10.258674879999228], [125.63180565961726, 10.258748780058015], [125.63210607020336, 10.259202750329496], [125.63252984962458, 10.25971477032769], [125.63252984962458, 10.259783400163098], [125.63241720044823, 10.25988369020426], [125.63237428968425, 10.260084279934574], [125.63253522033634, 10.26018985009009], [125.6328785396136, 10.260311260350024], [125.63289999965947, 10.260596310080626], [125.63266397024738, 10.260934139690375], [125.63260495978511, 10.26119806981505], [125.63261568980806, 10.26164146988133], [125.63270687997496, 10.261773439981752], [125.63328624006488, 10.262010980086703], [125.63367783978146, 10.262090149808806], [125.63388704983646, 10.262185170063168], [125.63415527035376, 10.262201010225416], [125.63457906013913, 10.262058479847362], [125.63482582993831, 10.262111270019139]]], [[[125.62793255041431, 10.272420209900801], [125.62814713014468, 10.272525780085004], [125.62859774032351, 10.27289527002793], [125.62901616043357, 10.273000840366658], [125.62917709004927, 10.272589119663861], [125.62961697953288, 10.27286359980892], [125.6298201244181, 10.272563766263804], [125.629815459565, 10.27299556013687], [125.6297618198145, 10.273153920086399], [125.63022316001626, 10.273734539920486], [125.6306254897558, 10.274045970019305], [125.63082933013546, 10.274262379785617], [125.63114046970809, 10.274325719703421], [125.63151598009055, 10.274119860038898], [125.63176811023727, 10.27422014972999], [125.63191830983007, 10.274378510277101], [125.63252449031341, 10.274779659991623], [125.63285172025655, 10.274901070132644], [125.63310920971448, 10.274959129913393], [125.63359200996213, 10.275164990110364], [125.63435912006116, 10.275122759937268], [125.63472927009606, 10.275043579870593], [125.63494921017403, 10.274763830363879], [125.63493311047577, 10.274568530135612], [125.63484192030882, 10.274320440248387], [125.6346219802309, 10.274024849828956], [125.63440740050052, 10.273428390357296], [125.63403189011805, 10.272773870192863], [125.6338441401089, 10.27190820968614], [125.63317895019969, 10.271253679846673], [125.63296437046934, 10.270936969842044], [125.6328570795677, 10.270625540337553], [125.63267468990617, 10.270308830149482], [125.63244939051704, 10.270145200163764], [125.6320846101575, 10.270018520379613], [125.63132286040606, 10.269891839848595], [125.63124775957324, 10.270013240198338], [125.63113511039691, 10.270414399646983], [125.63082933013546, 10.2708102897489], [125.63055037959522, 10.271264240249646], [125.63046992048766, 10.271311739771198], [125.63037871995661, 10.271501769778483], [125.63026071043267, 10.27189236984666], [125.63045919046475, 10.272261859864784], [125.63001393959709, 10.272314650102745], [125.6298972647268, 10.27242626236258], [125.62991737975484, 10.27204016962563], [125.62977791018501, 10.271786799868485], [125.62927364989152, 10.271375079909433], [125.6292522002098, 10.271111159828575], [125.62939166977964, 10.270847239962297], [125.62940239980254, 10.270562200345575], [125.62961697953288, 10.270308830149482], [125.62998175989242, 10.269992129825846], [125.63053965993646, 10.269992129825846], [125.63104390986584, 10.269844330183085], [125.63155890018227, 10.269854889743936], [125.63184857038127, 10.269865439749681], [125.63242793047117, 10.27006601971887], [125.6324815795494, 10.269295369657174], [125.63277124974842, 10.269020890140448], [125.6327498000667, 10.26879919017036], [125.63262105015568, 10.268651390274394], [125.63191294948247, 10.268450810382898], [125.63173055982092, 10.26844025007143], [125.63132286040606, 10.268197440242014], [125.63078642040789, 10.267659030045841], [125.63063621977871, 10.267447889691887], [125.63023925038681, 10.267004500013895], [125.62978864020798, 10.266571660043741], [125.6295418704088, 10.266233830145042], [125.62922001014097, 10.265896010153085], [125.62871574984747, 10.265705980241583], [125.6283187897833, 10.265969899910273], [125.62805057030243, 10.265864330265256], [125.62784671955856, 10.265695420019386], [125.62749267025839, 10.265473719930837], [125.62694550023731, 10.265315370097627], [125.62659143953655, 10.265779880307134], [125.62659143953655, 10.26587488969667], [125.62665581967418, 10.266339399910173], [125.62742829012076, 10.26705727984162], [125.62728881951456, 10.267542909921078], [125.62721371971817, 10.268207999749292], [125.62689185012265, 10.268999770277066], [125.62629104035102, 10.269527619960863], [125.62596916971907, 10.26964375035088], [125.62557220032716, 10.269944620145669], [125.62548101016026, 10.27024021003433], [125.62564193977593, 10.27044606962701], [125.62592625999149, 10.270651930146526], [125.62670946046107, 10.27100030990715], [125.62718688999695, 10.271174499927668], [125.6275087595925, 10.271512319837749], [125.6273531903244, 10.271860699725528], [125.6273531903244, 10.2719768301539], [125.62752484996301, 10.272304089665578], [125.62793255041431, 10.272420209900801]]], [[[125.62573849961817, 10.237580649828905], [125.62588870957508, 10.23767567008995], [125.62597454043083, 10.237802369918738], [125.62615693009236, 10.237739020396297], [125.62634468010157, 10.237860430239827], [125.62683283966037, 10.237316699850616], [125.62683283966037, 10.237052750086228], [125.62710106017765, 10.236445659831388], [125.62706350976123, 10.236287289892882], [125.62643587959622, 10.236392869843325], [125.6264787903602, 10.23609723985792], [125.62627493961634, 10.2360550099821], [125.62610864965305, 10.235917749985164], [125.62540053965212, 10.236018059740964], [125.62527180010522, 10.236076130094654], [125.62525034005935, 10.236218660236354], [125.62526107008232, 10.23662513964437], [125.62530397980987, 10.236741279782342], [125.62470853038585, 10.237068580266447], [125.62472999043175, 10.237242790328022], [125.62423377998734, 10.237255989849187], [125.62390923954575, 10.237403800158868], [125.62380462985438, 10.237533140106896], [125.6238851003625, 10.237609680366509], [125.62505186002724, 10.237622879902547], [125.62537372029507, 10.237617600247306], [125.62556147963197, 10.2375648100693], [125.62573849961817, 10.237580649828905]]], [[[125.62499820991258, 10.239581390279817], [125.62516183006625, 10.239465249925226], [125.62540053965212, 10.23938606023111], [125.62554269975989, 10.239156430291612], [125.62589943027028, 10.238953190138867], [125.62619715964614, 10.238897760304486], [125.62651365956636, 10.238918870250643], [125.6266504499988, 10.238868720097544], [125.62673897035606, 10.238794819777253], [125.62696964045698, 10.238953190138865], [125.62681407015245, 10.238631169820987], [125.62681407015245, 10.238509750135586], [125.6271037496792, 10.238322350182129], [125.62650292954345, 10.23780236991874], [125.62632322005564, 10.237889470356873], [125.62603623003046, 10.238501830233094], [125.62586187985386, 10.238712990011576], [125.62581897012635, 10.238683960171844], [125.62571436043493, 10.238712990011575], [125.62566071964801, 10.238683960171846], [125.62542199969799, 10.23816133989717], [125.62540858950123, 10.237963380026214], [125.62544345974385, 10.237667750207741], [125.62506257968606, 10.23766246975557], [125.62508403973192, 10.237968650132554], [125.62488555969982, 10.237966020254733], [125.62471390006118, 10.238013530039906], [125.6245610099305, 10.238116470320179], [125.62445372006529, 10.238285390129251], [125.62446981976355, 10.238520310271293], [125.62441349051151, 10.238673400030837], [125.6244456795439, 10.238834409772755], [125.62457173995341, 10.23909307970954], [125.62436789024599, 10.239700159771434], [125.62453418953703, 10.239760870228498], [125.6246106304567, 10.239574789675828], [125.62469109992844, 10.239519359735638], [125.62488555969982, 10.23957875003821], [125.62499820991258, 10.239581390279817]]]]}}]}