{"type": "Feature", "id": "bmb_protectedareas.184", "geometry": {"type": "Polygon", "coordinates": [[[121.14520163, 14.86368767], [121.14910103, 14.87322728], [121.15023063, 14.87238036], [121.15034083, 14.87214215], [121.15010006, 14.87154722], [121.15038117, 14.87087041], [121.15065903, 14.87057616], [121.15200145, 14.87114171], [121.15207841, 14.87134318], [121.15166199, 14.87174153], [121.15166767, 14.87222935], [121.15206766, 14.87260558], [121.15399555, 14.87255416], [121.15482399, 14.87227389], [121.15545689, 14.87185815], [121.15631409, 14.87166419], [121.15700153, 14.87177492], [121.15721575, 14.87202531], [121.1572012, 14.87257993], [121.15762006, 14.87305194], [121.15837618, 14.87433964], [121.15877993, 14.87543322], [121.15882252, 14.87620828], [121.15826284, 14.87726543], [121.15746876, 14.8781294], [121.1566564, 14.87883064], [121.15635529, 14.87954554], [121.15624208, 14.88013762], [121.15582614, 14.8804786], [121.15519362, 14.88084652], [121.15496476, 14.8811603], [121.15498093, 14.8815717], [121.15552682, 14.88214038], [121.15663307, 14.88273271], [121.15817421, 14.88307028], [121.15892873, 14.88339196], [121.15929055, 14.88363398], [121.15974218, 14.88372368], [121.1597189, 14.88405187], [121.15951964, 14.88435514], [121.15959004, 14.88475023], [121.15996329, 14.88495049], [121.16082689, 14.88458681], [121.16150993, 14.88449664], [121.16240642, 14.88532876], [121.16205548, 14.88539767], [121.16131819, 14.88536187], [121.16055683, 14.8852661], [121.16031987, 14.88566471], [121.16050574, 14.88621615], [121.16059307, 14.88679071], [121.16019423, 14.88743311], [121.16019871, 14.88835371], [121.16053955, 14.88875098], [121.16141761, 14.88885964], [121.16244576, 14.88866465], [121.16336176, 14.88864808], [121.16431588, 14.88921165], [121.16490106, 14.8897902], [121.16551494, 14.88988478], [121.16645669, 14.88973092], [121.16669781, 14.88956547], [121.16691056, 14.88984813], [121.16686438, 14.89013349], [121.16698545, 14.89035444], [121.16724605, 14.89035653], [121.16736455, 14.89030009], [121.167381, 14.89009937], [121.16736966, 14.88911414], [121.16788642, 14.88964432], [121.16804682, 14.88986558], [121.16807894, 14.89013842], [121.16797039, 14.89076402], [121.16801746, 14.89101307], [121.1681808, 14.89146869], [121.16891339, 14.89206275], [121.16956147, 14.89276613], [121.17007152, 14.89351145], [121.17045639, 14.89510215], [121.17060137, 14.89613149], [121.17109455, 14.89669136], [121.17265693, 14.89729562], [121.17374789, 14.89767494], [121.17469296, 14.89786181], [121.17535835, 14.8976818], [121.17583748, 14.89772148], [121.17593195, 14.89818252], [121.17588455, 14.8994315], [121.17618181, 14.89990013], [121.17646128, 14.90029091], [121.17694783, 14.90194331], [121.1772177, 14.90285985], [121.19531213, 14.90704937], [121.20398459, 14.90061472], [121.21543092, 14.90012616], [121.21567118, 14.89953629], [121.21755322, 14.8949156], [121.22021127, 14.88800699], [121.22310482, 14.87944875], [121.22298702, 14.87569059], [121.22168418, 14.87148973], [121.22181107, 14.87059895], [121.22215712, 14.86816968], [121.22225574, 14.86765033], [121.22308875, 14.86326357], [121.22119288, 14.8589136], [121.22132783, 14.85684809], [121.22153259, 14.85371389], [121.22855853, 14.84842132], [121.22915817, 14.84724222], [121.23004726, 14.84549394], [121.23097425, 14.84367109], [121.23307045, 14.84166407], [121.23589297, 14.84168575], [121.23636112, 14.8400306], [121.23650476, 14.83952279], [121.23287545, 14.82909016], [121.23288122, 14.82907045], [121.2331319, 14.82821364], [121.23301239, 14.82781843], [121.23265792, 14.82664617], [121.23137837, 14.82500383], [121.22426689, 14.81872004], [121.22029942, 14.81695341], [121.21888268, 14.81707158], [121.21511123, 14.81839098], [121.21080564, 14.8165068], [121.20818676, 14.81396136], [121.20633861, 14.81632857], [121.19624701, 14.81685229], [121.18138833, 14.82318862], [121.16699966, 14.8254285], [121.15716252, 14.83766407], [121.15229746, 14.84032696], [121.15186091, 14.84252325], [121.15074615, 14.8550914], [121.14406261, 14.85761985], [121.14490523, 14.86210869], [121.14520163, 14.86368767]]]}, "geometry_name": "wkb_geometry", "properties": {"wdpaid": null, "paname": "Angat Watershed and Forest Range (Pilot)", "status": "Validated***", "hectares": 6671.63282845, "stat": "Validated", "name": "Angat Watershed and Forest Range", "pa_type": "Watershed Forest Reserve", "region": "3", "ecosystem": "Terrestrial", "pa_code": "47", "legalbasis": "Proclamation 391 s.1968", "category": "Initial Component"}}
