{"type": "Feature", "id": "bmb_protectedareas.60", "geometry": {"type": "Polygon", "coordinates": [[[121.1987915, 14.7187071], [121.19392122, 14.7184252], [121.19076985, 14.72063647], [121.18336747, 14.72060537], [121.18271819, 14.72060263], [121.18109736, 14.72064986], [121.18075401, 14.72592135], [121.18031577, 14.73264911], [121.18103496, 14.73675384], [121.18053531, 14.74808313], [121.19237003, 14.74796917], [121.19767855, 14.74758329], [121.19912224, 14.74747833], [121.199055, 14.74162637], [121.1987915, 14.7187071]]]}, "geometry_name": "wkb_geometry", "properties": {"wdpaid": "145486", "paname": "Pamitinan Protected Landscape", "status": "Validated", "hectares": 609.148668223, "stat": "Validated", "name": "Pamitinan", "pa_type": "Protected Landscape", "region": "4A", "ecosystem": "Terrestrial", "pa_code": "82", "legalbasis": "Proclamation 901 s. 1996", "category": "Proclaimed"}}
