{"type": "Feature", "id": "bmb_protectedareas.183", "geometry": {"type": "Polygon", "coordinates": [[[121.32507376, 14.7890011], [121.29478973, 14.777743], [121.29755311, 14.76444504], [121.31348795, 14.73087156], [121.31937193, 14.70323113], [121.32343783, 14.69614084], [121.32717482, 14.66918055], [121.32742272, 14.66211824], [121.31150907, 14.64632919], [121.31937355, 14.60652339], [121.31770355, 14.5935664], [121.32117552, 14.58260596], [121.30509553, 14.57640717], [121.30237793, 14.57561015], [121.29906149, 14.57361195], [121.29745028, 14.57226771], [121.29658153, 14.57157045], [121.29297713, 14.57079154], [121.29193822, 14.57080863], [121.28619819, 14.57427059], [121.28295423, 14.57602344], [121.27941829, 14.57784811], [121.27488201, 14.58123226], [121.26592038, 14.58216613], [121.26958648, 14.58773214], [121.26351591, 14.58359116], [121.26118949, 14.58580676], [121.26146384, 14.59281666], [121.25673249, 14.59682411], [121.25413041, 14.60130388], [121.25238575, 14.60554007], [121.24095673, 14.62275216], [121.24265018, 14.62184188], [121.24447034, 14.62496019], [121.24797718, 14.63096786], [121.24914867, 14.6329747], [121.25109143, 14.63372081], [121.24947883, 14.63526142], [121.24978888, 14.63613827], [121.25118542, 14.63658602], [121.25150294, 14.63985497], [121.25374523, 14.64025762], [121.25294746, 14.64092037], [121.25421477, 14.64435078], [121.26076868, 14.64406549], [121.26298755, 14.64745152], [121.26429037, 14.64303722], [121.26325614, 14.63846573], [121.25982578, 14.63707489], [121.2649694, 14.63320963], [121.2680555, 14.63089041], [121.27437444, 14.62614137], [121.27907674, 14.62260708], [121.28510135, 14.6180786], [121.29066189, 14.62088906], [121.28523793, 14.62646763], [121.28514526, 14.63839696], [121.28189542, 14.63704304], [121.27495945, 14.6395869], [121.27231857, 14.63888319], [121.26595126, 14.64170049], [121.26785777, 14.65602204], [121.26905477, 14.65845837], [121.27288294, 14.6588789], [121.27425629, 14.65864097], [121.27498217, 14.65988496], [121.27430283, 14.66026185], [121.27467832, 14.66115272], [121.27423354, 14.6627208], [121.26548608, 14.66574678], [121.26091483, 14.66333655], [121.25987306, 14.66111718], [121.25912631, 14.65831805], [121.25850661, 14.65791962], [121.25942233, 14.65806786], [121.26044797, 14.65715098], [121.26312736, 14.65689705], [121.26359852, 14.6543848], [121.26422076, 14.65110808], [121.26174298, 14.65138696], [121.26075168, 14.65108189], [121.25929374, 14.65349734], [121.25811778, 14.65546889], [121.25728186, 14.65686427], [121.25509652, 14.65639535], [121.2510432, 14.6605621], [121.24617638, 14.65728628], [121.23642064, 14.6596771], [121.23300694, 14.64578611], [121.22918195, 14.64647862], [121.22703468, 14.64590088], [121.22488742, 14.64532312], [121.22294752, 14.64425675], [121.21967667, 14.65094824], [121.21667758, 14.65393136], [121.21270417, 14.65560862], [121.205404, 14.66683812], [121.20771073, 14.67824498], [121.19677243, 14.68803843], [121.19333675, 14.68969244], [121.19041996, 14.69418402], [121.19042232, 14.69718427], [121.19044058, 14.72063518], [121.19076985, 14.72063656], [121.19392122, 14.71842529], [121.1987915, 14.71870719], [121.1990828, 14.74404593], [121.2088994, 14.75080682], [121.21717931, 14.76647393], [121.23970826, 14.78391527], [121.24072163, 14.78908606], [121.2368233, 14.79277459], [121.23591157, 14.80500989], [121.24696845, 14.82215599], [121.25692527, 14.82002685], [121.26047909, 14.83112357], [121.28577297, 14.83130631], [121.30256022, 14.83282723], [121.32507376, 14.7890011]]]}, "geometry_name": "wkb_geometry", "properties": {"wdpaid": null, "paname": "Upper Marikina River Basin Protected Landscape", "status": "Validated***", "hectares": 26125.6396478, "stat": "Validated", "name": "Upper Marikina River Basin", "pa_type": "Protected Landscape", "region": "4A", "ecosystem": "Terrestrial", "pa_code": "81", "legalbasis": "Proclamation 296 s. 2011", "category": "Proclaimed"}}
