{"type": "FeatureCollection", "features": [{"type": "Feature", "properties": {"source": "Tang & Werner 2023", "polygons": 10}, "geometry": {"type": "MultiPolygon", "coordinates": [[[[123.76543879966853, 10.339340990259366], [123.76586794980152, 10.339478200086694], [123.76616566984966, 10.339483479808923], [123.76633733985246, 10.339404319825244], [123.76669407036282, 10.339042819627606], [123.76717015981183, 10.338871309774428], [123.7673887598029, 10.338740699643811], [123.76751214003859, 10.338585009958678], [123.76749738975498, 10.338468909775905], [123.76746519968616, 10.338443850090847], [123.76723990029703, 10.338364690362411], [123.76711382952334, 10.338368639985585], [123.76707628014336, 10.338325109709015], [123.76696631010441, 10.338371280235826], [123.76671419032179, 10.338362050112211], [123.76646072008815, 10.338428010179046], [123.76646741948622, 10.338346219761906], [123.76674771011336, 10.337937220200088], [123.76677856009525, 10.337835630053933], [123.76676514989849, 10.337606069717365], [123.76659213980884, 10.337561210262713], [123.76647145011108, 10.337686549780114], [123.76646072008815, 10.337744600123669], [123.76633465035088, 10.337813209867312], [123.76627833042657, 10.337757790199198], [123.76624346018399, 10.33721422987138], [123.76618444972172, 10.3371508999392], [123.76610934992533, 10.337156179623324], [123.76585721977855, 10.337422679935203], [123.76558095044855, 10.337420039692725], [123.76549244045545, 10.337288109631036], [123.76540123992437, 10.337285470186117], [123.76522958028579, 10.337325049915442], [123.76504451045044, 10.33748073023125], [123.76491040019178, 10.337396299812093], [123.76481384034953, 10.337443789929013], [123.76464217967447, 10.337580999745466], [123.76452683996015, 10.337784179909342], [123.76441418974737, 10.338203729918469], [123.76400649966028, 10.338211640311304], [123.76371950030737, 10.338298719954595], [123.76329035017433, 10.338834370109337], [123.76318841962035, 10.339056020110199], [123.76309990962724, 10.339066569983421], [123.76267611984186, 10.338668129721993], [123.76257419965202, 10.33849926031941], [123.7629309301624, 10.338084989625068], [123.76326084027937, 10.337989999651903], [123.76337349049213, 10.33783959002454], [123.76346200981298, 10.337557250295536], [123.76361758011748, 10.33756780967716], [123.76369536008768, 10.337520309984537], [123.76372218048115, 10.337090210259216], [123.76393676021151, 10.336860640099413], [123.76385896987712, 10.336675939782179], [123.76401722035546, 10.336401509827493], [123.76400112998495, 10.33621680977321], [123.76410037000099, 10.336045290272777], [123.76441150957358, 10.335963490106126], [123.7644946602555, 10.33587906008419], [123.76454561983222, 10.335741839841557], [123.76452147961258, 10.335638929874813], [123.76443564979327, 10.335538660167957], [123.76443564979327, 10.335409370305445], [123.76454830000603, 10.335211469697123], [123.76434445029862, 10.335142859710524], [123.7642854502005, 10.335016199875637], [123.76404941042426, 10.334836769907], [123.76359880024543, 10.33531174009871], [123.76324474990881, 10.335739209966675], [123.76285850950343, 10.335707539966933], [123.76219869030598, 10.33532757030006], [123.76206994039491, 10.335454230257225], [123.7620377503261, 10.335860580068646], [123.76195729018217, 10.336066400176426], [123.76169979968779, 10.336245830032688], [123.76130283029588, 10.336266939949446], [123.76104801997535, 10.337042709840489], [123.76091122954287, 10.337032160033482], [123.76076101958596, 10.337306580170937], [123.76062958950114, 10.337443789929011], [123.76087636033668, 10.337731410048653], [123.76106143017203, 10.338140399791964], [123.76117675952221, 10.338689239797331], [123.76118481040776, 10.339327800119069], [123.76150131032796, 10.339430700112635], [123.76157372995056, 10.339515139825544], [123.76166760961901, 10.33974207002087], [123.76183122044488, 10.339895109648026], [123.76218258957127, 10.339990100182472], [123.76242398969511, 10.339945240396137], [123.76285850950343, 10.339976910015618], [123.76296580040501, 10.339945240396137], [123.76308650046693, 10.339992739649547], [123.76321255984, 10.34010355985211], [123.76357466002575, 10.340124670021446], [123.76396357956854, 10.339744699928396], [123.7642881303743, 10.339602219820902], [123.76477360975933, 10.339404319825244], [123.7650901096795, 10.339343629721112], [123.76543879966853, 10.339340990259366]]], [[[123.75185609032798, 10.34602462985787], [123.7528216804591, 10.346214609789111], [123.75380873996389, 10.34622517025083], [123.75510692971346, 10.345053630149582], [123.7556111796428, 10.344452020293751], [123.75594378029771, 10.343977070087805], [123.7556111796428, 10.343554889794218], [123.75501036987126, 10.343333250239846], [123.75398039960247, 10.342678869739244], [123.75337958050312, 10.342372790303749], [123.7531650101005, 10.341918950262885], [123.7531006299629, 10.340863490181508], [123.75306845025825, 10.338203729918469], [123.75270366989872, 10.337211589630616], [123.75182390025918, 10.336683850137534], [123.75064373039766, 10.335206190044838], [123.74884128968229, 10.333031899751248], [123.74778986040411, 10.331891980044354], [123.74718904026834, 10.33051984021152], [123.7466096895062, 10.329823219726118], [123.74551535050043, 10.32908436990022], [123.74444246013995, 10.328218859820614], [123.7425112695135, 10.328134419878836], [123.74073028988039, 10.32821885982061], [123.73938918003905, 10.329306020369636], [123.73896002990607, 10.329833770093808], [123.73862743028761, 10.33118479981298], [123.73859524954655, 10.332314169757955], [123.73860597956946, 10.33350686967474], [123.739399910062, 10.335290630244454], [123.73941064008493, 10.335660039751854], [123.73953402032062, 10.336203610203292], [123.73992025968963, 10.337158810306205], [123.74097167964007, 10.337802649681198], [123.74241470967125, 10.338625910371906], [123.74205530002348, 10.339702489994854], [123.74193728013536, 10.339639160370407], [123.74169588001153, 10.339633879849183], [123.74169051966393, 10.339739429759405], [123.7417066100345, 10.340050789611837], [123.74202847030224, 10.34049936002691], [123.74220549961625, 10.340668229680663], [123.74220014030504, 10.340884599604149], [123.74187826967308, 10.341412330043863], [123.74211431048575, 10.342604990337163], [123.74226451007848, 10.34301662018004], [123.74253272955937, 10.343238260313125], [123.74348760003176, 10.343048279747212], [123.74398111993816, 10.34355488979422], [123.7445390199822, 10.343977070087806], [123.74548316043162, 10.345021960031268], [123.7464487598905, 10.345834650038658], [123.74716758955019, 10.346045739618571], [123.74813317968132, 10.346140730372873], [123.74906659010786, 10.346087959940567], [123.74983906988221, 10.345950749688733], [123.75034331981156, 10.345423030136201], [123.75062764002716, 10.345491639921303], [123.7509334099244, 10.345507469826071], [123.75123382051052, 10.345686889804435], [123.75150203999138, 10.345750219820733], [123.75174880046276, 10.345908530181175], [123.75185609032798, 10.34602462985787]]], [[[123.74553680018211, 10.282982180259614], [123.74566555009316, 10.282829110235422], [123.74632537032706, 10.282475470037104], [123.74673843008948, 10.282417409707236], [123.74717831957315, 10.282222109648584], [123.74738752962817, 10.282076960151308], [123.7474706803101, 10.281884300086771], [123.74741971036921, 10.281736510156541], [123.74731242983181, 10.281659969855239], [123.74715148985193, 10.281314250285169], [123.74694495997073, 10.280657099913226], [123.74712467049491, 10.280192609817975], [123.7469986100854, 10.280063290318399], [123.74678670949238, 10.280002589850367], [123.74655336025413, 10.279849519640054], [123.7465372698836, 10.279788820008342], [123.74658017961119, 10.279743950257973], [123.74694227979694, 10.279699090069549], [123.7470898002523, 10.27954602000249], [123.7470817597309, 10.279472119987584], [123.74674916011244, 10.279437810153734], [123.74667406031602, 10.279543380232472], [123.74647558028397, 10.279472119987588], [123.74637902044172, 10.279477400322785], [123.74591768023994, 10.279646300222675], [123.745724559519, 10.27976770979616], [123.74562263000142, 10.279794100348697], [123.74547510954608, 10.279643670007584], [123.74533563997625, 10.279559210093439], [123.74494672043345, 10.279448370026786], [123.74474823003722, 10.279210840254622], [123.74444514964149, 10.279184449749557], [123.74435663032064, 10.279126390008907], [123.74398111993816, 10.279078890139665], [123.74389260994505, 10.279171259673834], [123.74384700967948, 10.279659499873448], [123.74371827013263, 10.279841600322673], [123.74361366044127, 10.279941890190006], [123.7434044503862, 10.28005800997366], [123.74326497045223, 10.28010552033835], [123.74292701048617, 10.280134549896863], [123.74277949003078, 10.280110799887547], [123.742318149829, 10.279846879867561], [123.74193996030914, 10.279733399931041], [123.74181926024724, 10.27951434993056], [123.7417173400574, 10.279192369847197], [123.74156713010046, 10.279094719977968], [123.74141425033393, 10.279044580347422], [123.7415456804188, 10.280036899743957], [123.74154030970702, 10.280242749626018], [123.7419533705059, 10.280570010308866], [123.74205530002348, 10.28072835962217], [123.74253808990697, 10.281258820391411], [123.74252467971023, 10.281781369830485], [123.74278753987994, 10.28219836028269], [123.74327837961256, 10.282633809928782], [123.74363244031332, 10.282734099863362], [123.7438791997483, 10.283106219732588], [123.74402940037747, 10.283277759730362], [123.74419569966851, 10.283309430169833], [123.74445319016286, 10.283293600125804], [123.74495207974459, 10.283182750023148], [123.74508619000328, 10.283180110223535], [123.74553680018211, 10.282982180259614]]], [[[123.73885274004088, 10.345623570154723], [123.73959302974646, 10.34452590967692], [123.73962521981527, 10.34388207997132], [123.73959302974646, 10.343248810323226], [123.73983979021789, 10.342731639613305], [123.73981833017204, 10.341665639655615], [123.7396895895887, 10.340958480204835], [123.73950719992717, 10.340441309983849], [123.73938918003905, 10.339702489994856], [123.73905658974832, 10.338942549658812], [123.73884201001798, 10.338340940058297], [123.73884201001798, 10.337570449920849], [123.73804807952547, 10.33298968034252], [123.73815536006288, 10.33157533015732], [123.73806953024356, 10.328049979959154], [123.73795151968322, 10.32729002008315], [123.73756528031421, 10.3270050303146], [123.73546243004914, 10.327036700256617], [123.73464703951078, 10.327332240339052], [123.7337350798024, 10.328113309697741], [123.73331665969235, 10.328123870363129], [123.73257636998677, 10.328271640071794], [123.73246908012162, 10.328366630369212], [123.73121381046373, 10.328957710054395], [123.73103141976573, 10.328883820255957], [123.72925042976848, 10.327585560397523], [123.72799516011062, 10.327026139626799], [123.7273514302473, 10.326825600022076], [123.72700809956945, 10.326825600022078], [123.72665405026925, 10.326983920207363], [123.72613907031696, 10.327321690053116], [123.72598886036005, 10.327152800307504], [123.7255168004995, 10.326941699997025], [123.72488379029492, 10.326540609867104], [123.72448683023076, 10.326202850395727], [123.72399329996017, 10.326181740340935], [123.72353195975839, 10.326223959655461], [123.72224450003172, 10.327363910313156], [123.72119308008128, 10.328155530061316], [123.72010945969784, 10.32872549993519], [123.71931553024177, 10.329094920243756], [123.71908486014087, 10.32945378982312], [123.7187790902436, 10.329796829870789], [123.7184786796575, 10.330298189704852], [123.71800125012162, 10.330905099726406], [123.71809244028852, 10.331612269787499], [123.71827482995008, 10.332409170006203], [123.71815681006198, 10.332667760121154], [123.71799588044628, 10.332715259895613], [123.71795833002989, 10.332836640009994], [123.71799052009871, 10.33300550963349], [123.71876836022065, 10.333517420162877], [123.7188702804105, 10.333559639640674], [123.71900438963273, 10.3335279802087], [123.71919215000605, 10.333422429942056], [123.71921897039952, 10.333559639640672], [123.71939599971348, 10.333712689873527], [123.71963203016195, 10.333707410245768], [123.71986805957403, 10.333401320211461], [123.72011483040963, 10.333364380376441], [123.72059762029308, 10.333142730304973], [123.7210267797538, 10.332857749703646], [123.72129500027108, 10.33263082037013], [123.72143446984091, 10.332440830124819], [123.7216115001913, 10.332356389874725], [123.72191190974097, 10.333042459781165], [123.72271657025642, 10.334266809945218], [123.72315645041235, 10.334689009934788], [123.72351049971252, 10.335438389695822], [123.72338176016565, 10.336293330334044], [123.72353195975839, 10.337264360202669], [123.72415422957584, 10.338657579861804], [123.7242400604316, 10.33971303988923], [123.7242186097135, 10.340884599604149], [123.72356414982721, 10.341201240312976], [123.72364997964651, 10.342119480136263], [123.72353195975839, 10.342689430085107], [123.72370899010878, 10.34329631006345], [123.72416495959881, 10.343723769809959], [123.72498035013717, 10.344288430051401], [123.72540413992256, 10.344330650143139], [123.72569382048569, 10.344425640391847], [123.72590840021608, 10.344552290383485], [123.72602642010422, 10.34473698963826], [123.72603713976298, 10.344969189782168], [123.72635365004733, 10.345676339714515], [123.72654140005648, 10.345866320236851], [123.72679888951443, 10.34594548021472], [123.72703493032706, 10.345855759786899], [123.72708857007756, 10.345639400065988], [123.72765720014453, 10.345122230298347], [123.72793614964834, 10.345238329691721], [123.72779666971437, 10.345671059890837], [123.7279629700418, 10.345802990197736], [123.72849404969239, 10.34581354984949], [123.72860133955754, 10.345982419898334], [123.72913240988036, 10.346362370265354], [123.72993171004822, 10.346789830096881], [123.73003363956582, 10.346916480221337], [123.73069882014724, 10.347159229684662], [123.73098314036285, 10.347338649786378], [123.73129964028303, 10.347333380289683], [123.7316536895832, 10.347180340316164], [123.73200237957222, 10.346948140171678], [123.7324154403711, 10.346805660065446], [123.73263538044904, 10.346610399946625], [123.73283386048115, 10.346631509745693], [123.73320401051599, 10.346768720287443], [123.73332202003995, 10.34686897994746], [123.733450769951, 10.346890089763466], [123.73356878983913, 10.34684259984769], [123.73360634025553, 10.346589290148941], [123.73347759034448, 10.34637292993544], [123.73354732979325, 10.346204059681913], [123.7336868003995, 10.34622517025083], [123.73370290009774, 10.346029909687338], [123.73380482028759, 10.345702719718796], [123.7340140303426, 10.345486360100647], [123.73424470044354, 10.345391370335726], [123.73454510999316, 10.345391370335726], [123.7346309398125, 10.3456499501547], [123.73511374006017, 10.345539129637956], [123.73541950995741, 10.345576070071456], [123.73554289019313, 10.345781879656467], [123.7356716401042, 10.3459190898364], [123.73589158018213, 10.346003520098566], [123.7360525097978, 10.346130180268089], [123.73605788050959, 10.346314879630865], [123.73612760959419, 10.346647339706461], [123.73586475978865, 10.346773989774906], [123.73632073031511, 10.34675289032069], [123.73728632977398, 10.346589290148945], [123.73781203974922, 10.346457360316546], [123.73831630004274, 10.346246280024655], [123.73885274004088, 10.345623570154723]]], [[[123.7214076504839, 10.349539229728821], [123.72206211037013, 10.349370360204903], [123.72289895991797, 10.349074839746688], [123.72355341980425, 10.348673780228621], [123.72385383039034, 10.348346589964361], [123.72388601009496, 10.34760779008231], [123.72413277989413, 10.345285820167522], [123.72344612993909, 10.344430920195117], [123.72293114998676, 10.343375470206446], [123.72241615967033, 10.34278441985007], [123.7219333604591, 10.341855620203006], [123.72164369026011, 10.341222349757723], [123.72111796992071, 10.34081071981684], [123.72036695019223, 10.34033575984383], [123.71989489033169, 10.339871360027647], [123.71911167949794, 10.339333070281333], [123.7183606597694, 10.339227530061637], [123.71711612013445, 10.33945973021885], [123.71615051963916, 10.33951250036239], [123.71583939043069, 10.339301410282589], [123.71554970986753, 10.339269750286944], [123.71466994022799, 10.339269750286944], [123.71425152011791, 10.339333070281329], [123.71381163996202, 10.339311969721333], [123.71284604050317, 10.340314649660685], [123.71272801957862, 10.341317339886798], [123.71239543032428, 10.341908389942281], [123.71199845989597, 10.342320019691979], [123.71133326998675, 10.342794969845311], [123.71080756001153, 10.343037720186077], [123.71052861050774, 10.34276331030301], [123.70972394999225, 10.342805530194964], [123.70902658037843, 10.343037720186077], [123.70911241019776, 10.343185490356115], [123.70993852972262, 10.343892640356595], [123.71114015962999, 10.344705329905185], [123.71200918991887, 10.344884759791032], [123.7124490700748, 10.344895309855037], [123.71272801957862, 10.346383480048162], [123.71277093967035, 10.347797770150656], [123.71321081982624, 10.34865267029573], [123.71424079009503, 10.35049438970909], [123.71449292024175, 10.351048490046994], [123.71480405048662, 10.351518150050632], [123.71494353042058, 10.351903379704954], [123.71534586016013, 10.352214729807187], [123.715367320206, 10.352563010294393], [123.71575355957495, 10.353280700156745], [123.7161397896162, 10.353454839735052], [123.71650993965109, 10.353349299668258], [123.71694981980701, 10.353344019718811], [123.71756135960155, 10.352847979646292], [123.71828555997298, 10.352415259717397], [123.71825336990419, 10.351940320071845], [123.71817827010783, 10.35158674998314], [123.71834992974644, 10.35130178971231], [123.71870934975843, 10.351307060070416], [123.71879517957771, 10.351433719935956], [123.71921897039952, 10.351433719935956], [123.71961593979144, 10.351212079739858], [123.7199109796658, 10.350921839890809], [123.72025429997942, 10.350383569915213], [123.7204206003069, 10.349993059794942], [123.72072100985656, 10.349591999930015], [123.7214076504839, 10.349539229728821]]], [[[123.72264147046002, 10.326603940105992], [123.7231671804353, 10.326392840154453], [123.72344612993909, 10.326139520235511], [123.72353195975839, 10.325611770180053], [123.72318864048114, 10.325210669756087], [123.72266293050593, 10.324820130387744], [123.72182607992167, 10.324102389984155], [123.7214076504839, 10.322677440204378], [123.72095704030501, 10.321526920156943], [123.72102141007846, 10.32047140014675], [123.72136473971989, 10.319194209641786], [123.72136473971989, 10.318571450042759], [123.72162223021427, 10.317969790011128], [123.72245371008674, 10.316882590374473], [123.72252882024728, 10.316555370230375], [123.72281849044624, 10.315900939696647], [123.72299551976022, 10.314914010291075], [123.72311889999594, 10.314549849679183], [123.72315645041235, 10.313985129970776], [123.72308670992716, 10.312787080313354], [123.72328520032339, 10.312491520089482], [123.72322082951352, 10.312090409673699], [123.7233012896575, 10.311884580159791], [123.72365533999408, 10.311573190130591], [123.72374653948876, 10.311435969863235], [123.72374653948876, 10.311193189928243], [123.72359097022066, 10.311024299853953], [123.72354268978134, 10.31060207983252], [123.72389137977032, 10.31023790974306], [123.72361778957767, 10.309789300138474], [123.72331201968044, 10.309847359801966], [123.72300624978317, 10.309857910313644], [123.72262001041418, 10.309963469603595], [123.72251271951257, 10.310084860281197], [123.72243226040503, 10.310327640180347], [123.72242153038212, 10.31060207983252], [123.72186898964925, 10.311024299853951], [123.72115552033712, 10.31133041964922], [123.7209409499345, 10.311530970341487], [123.72072637020416, 10.311573190130593], [123.71959447974557, 10.311383189973586], [123.71837138979232, 10.311689299755605], [123.71779202970245, 10.311942640199538], [123.7169015404041, 10.312259300304929], [123.71661185984095, 10.312174859756626], [123.71625780950431, 10.312153749822105], [123.71602178009229, 10.31231208033761], [123.71598959002348, 10.31274486036571], [123.71519565953096, 10.31366318967111], [123.7141871503445, 10.313905960311619], [123.71343612957955, 10.314497070077499], [123.71286749951258, 10.315024840201046], [123.71355414013992, 10.315637059784777], [123.71384381966666, 10.315964270238572], [123.713114259984, 10.316259820099319], [123.71252418023533, 10.316671480052344], [123.71253489989411, 10.317473689656916], [123.71276020964741, 10.318043679701491], [123.71273874960156, 10.318603110397246], [123.71252418023533, 10.31876144009045], [123.71235251023255, 10.318592560396489], [123.71180534021147, 10.318486999881118], [123.71150493998954, 10.318328670322408], [123.71130109028212, 10.318634780311701], [123.71074319023809, 10.31931031961567], [123.71073246021513, 10.319764200332616], [123.71088265980792, 10.320196960077569], [123.71207355969233, 10.320576950160808], [123.71237397027842, 10.320714170327673], [123.71266364980517, 10.321104710305395], [123.71274947962446, 10.32160080986454], [123.71324300989505, 10.32295186963859], [123.71384381966666, 10.323711850363457], [123.71406913045638, 10.324123499902976], [123.71432661991433, 10.325020679896635], [123.71460557045455, 10.325326780300202], [123.71513128042979, 10.325791199797928], [123.71569991049674, 10.326097300135622], [123.71696591017752, 10.326983920207363], [123.7176954698602, 10.3270578103673], [123.71929407019586, 10.327005030314597], [123.72047424005738, 10.326762269739689], [123.72102141007846, 10.326730599824607], [123.7216973300106, 10.326646160272157], [123.72214794018947, 10.326646160272158], [123.72264147046002, 10.326603940105992]]], [[[123.71716975988495, 10.338931999789647], [123.71766329015553, 10.338794790194752], [123.719969990128, 10.338752570031643], [123.72101068005553, 10.338900330272795], [123.72156858009957, 10.33923807994047], [123.72190117971806, 10.339565280072074], [123.7225878203454, 10.339670819605871], [123.72308134957956, 10.339618050232874], [123.72337103014272, 10.339343629721112], [123.72375726951171, 10.338773680112508], [123.72376799953463, 10.338509810174415], [123.72341393987027, 10.337580999745468], [123.72315645041235, 10.336799949677605], [123.72281313009867, 10.33658885978063], [123.72238397996568, 10.336377770021837], [123.7219333604591, 10.336050569938806], [123.72104287012435, 10.336229999786248], [123.72064589969601, 10.336145560137147], [123.72001289985559, 10.335913359977038], [123.71929407019586, 10.335828919614388], [123.7171375801803, 10.33525896028877], [123.71641874015644, 10.334952879932429], [123.71604860048576, 10.334504299710918], [123.71559799030688, 10.334066269822884], [123.71529757972078, 10.334039889974289], [123.71433198026193, 10.334045160050135], [123.71414958956393, 10.334002950066145], [123.71375262949978, 10.333812959809197], [123.7135058597006, 10.33380239975406], [123.71343612957955, 10.333432989984757], [123.71314645005282, 10.332873579784582], [123.71307670956764, 10.332388060341888], [123.71259391035639, 10.332446109731833], [123.71228278011152, 10.332746920044263], [123.7119340901225, 10.333005509633486], [123.71158003978591, 10.33307940037576], [123.71133326998675, 10.332968569843793], [123.71131182030503, 10.332572770150495], [123.7112528098428, 10.332377500333392], [123.71107042018122, 10.332176959792607], [123.71079146964102, 10.331981690215063], [123.71016919982354, 10.331981690215063], [123.70953618961899, 10.33206086032357], [123.70865106999597, 10.332303620105606], [123.70787322987398, 10.333132170271771], [123.70787859022155, 10.333316879709967], [123.70823801023352, 10.333696859751415], [123.70866178965473, 10.333987110372457], [123.70924652045639, 10.334240430080238], [123.7097936904775, 10.334435689874729], [123.71011019039766, 10.334446249950613], [123.71060907997943, 10.334599290250313], [123.70999752982074, 10.335290630244453], [123.70974541003812, 10.335802530064242], [123.70917141029585, 10.336425259988768], [123.70914458990238, 10.336631079660464], [123.70935379995738, 10.336926610213006], [123.71026038999045, 10.336858010215412], [123.71073246021513, 10.336995219782635], [123.71120988975102, 10.337306580170937], [123.71159076980888, 10.337306580170935], [123.71211647978409, 10.337375189821387], [123.71252418023533, 10.337507119918707], [123.71271728955566, 10.337702380098053], [123.71278166969329, 10.338019020070954], [123.71267974017567, 10.33826706005742], [123.71268510985104, 10.3384148200761], [123.71295868967947, 10.338736739662147], [123.7137311704903, 10.339348910237595], [123.71451973959883, 10.338800069905794], [123.71484696954194, 10.33849926031941], [123.71530830974372, 10.338372599962726], [123.71563017001152, 10.33864175029343], [123.71587157013533, 10.338968940262378], [123.71651529999869, 10.339005879942867], [123.71716975988495, 10.338931999789647]]], [[[123.71471018014591, 10.298341530016767], [123.71550946994962, 10.298222770129286], [123.71568382012622, 10.298117209891686], [123.71571599983083, 10.297964150236282], [123.7156623600803, 10.29770288983558], [123.7157374598767, 10.297362460053508], [123.71569185961118, 10.297180369666682], [123.71527611967493, 10.296810910175266], [123.71523589012115, 10.296755490372108], [123.71521979975064, 10.296612979847595], [123.71515006030184, 10.296496859705904], [123.71492474951214, 10.296246160113318], [123.71457338038574, 10.295950590313117], [123.71449292024175, 10.295916280327305], [123.71433466976345, 10.295910999724248], [123.71429174967172, 10.295942669805905], [123.71439098968777, 10.296029760356463], [123.71416569029863, 10.29652588993651], [123.71369898042151, 10.296969249905676], [123.71349514004186, 10.297399399755404], [123.71343880975337, 10.297758309800916], [123.71349514004186, 10.297911370155354], [123.71359974040544, 10.298016930325831], [123.71395110953183, 10.298243890303763], [123.71435880998312, 10.298238609662754], [123.71471018014591, 10.298341530016767]]], [[[123.71169805967403, 10.329939319982913], [123.71198772987303, 10.328619949646622], [123.71234178953736, 10.328102760182723], [123.71277093967035, 10.327786110031532], [123.71361852027755, 10.327342800182455], [123.71445536982537, 10.326983920207365], [123.71470213029677, 10.326593389843874], [123.7148415998666, 10.326255630317261], [123.71454119964467, 10.325780650358798], [123.71414423025278, 10.325632880197558], [123.71376871987029, 10.32580176038735], [123.71313572002987, 10.325865089684868], [123.71285676948968, 10.325812309827166], [123.7126421897593, 10.325337329724503], [123.71255099959241, 10.324762079980093], [123.71259391035639, 10.324514040021567], [123.71256172961535, 10.324234320229875], [123.71230422979323, 10.323875450081527], [123.7122344996722, 10.323511300074637], [123.71224522969511, 10.323173530233113], [123.712309600505, 10.322893820363243], [123.71215939987583, 10.322593000119054], [123.71182680025734, 10.32236605968436], [123.71139765012437, 10.322292180155102], [123.71071100016928, 10.322355510357129], [123.71014237010233, 10.322503279814926], [123.70952010028488, 10.32248217000202], [123.7092626097905, 10.322624660071318], [123.70932162025277, 10.322899099814116], [123.7092679701381, 10.323199920343422], [123.70898901959785, 10.323352969645917], [123.70871543976942, 10.32333714003191], [123.70844722028856, 10.323210480051682], [123.70830774035454, 10.32305214977044], [123.70827555961347, 10.322851599891326], [123.70800197045727, 10.322724940101542], [123.70783030978224, 10.32256132981651], [123.7074172500198, 10.322561329816507], [123.70668231962536, 10.322888540116033], [123.70605469049673, 10.322893820363241], [123.70568991013721, 10.322682719651706], [123.70549141974095, 10.322666879717131], [123.70532512977768, 10.322608829696593], [123.70527147966298, 10.32241883977516], [123.70478868045178, 10.322556059928152], [123.7047940501271, 10.322767159760481], [123.70488524029398, 10.323120760372413], [123.7047940501271, 10.323358249900698], [123.70441318043343, 10.323469080318423], [123.70423615008308, 10.323653789801607], [123.703898190117, 10.323706570102877], [123.70360850955385, 10.32362212974847], [123.70290577026468, 10.323131309724642], [123.70269656020963, 10.323036320171179], [123.70251954022342, 10.323036320171177], [123.70211720011973, 10.323194640091225], [123.7018704396483, 10.32319992034342], [123.70174170010144, 10.323257969673813], [123.701366189719, 10.323579909977747], [123.70135009002067, 10.323854340178922], [123.70143055949241, 10.324112940164877], [123.70163976954743, 10.32419210037911], [123.70174170010144, 10.324360990168747], [123.70175241976018, 10.324593200334133], [123.70195091015647, 10.324719860060318], [123.70193481045818, 10.32504178987549], [123.70180606987486, 10.325310949793003], [123.70159685981987, 10.325548440135803], [123.70177387980611, 10.326239790207426], [123.70177925051784, 10.326572279763546], [123.70182216024543, 10.326788660143327], [123.70170951003261, 10.327057810367304], [123.70158612979694, 10.32724252031081], [123.70153785039403, 10.327464179868949], [123.70159149014451, 10.327691110347812], [123.70156466975105, 10.327981369902494], [123.70183824957954, 10.32795498975493], [123.70227814009961, 10.327728050329823], [123.70256781962635, 10.327717500030962], [123.70268046983912, 10.32803942964978], [123.70281458009778, 10.328261080198002], [123.70292186996294, 10.328572449678566], [123.70294333000881, 10.328894380150121], [123.70315254006384, 10.329279640113798], [123.70352267973453, 10.329612120058362], [123.7035441397804, 10.329833770093806], [123.70347440033161, 10.330018480033106], [123.70346367030871, 10.330292910132966], [123.70353340975747, 10.33049345029923], [123.70378553990425, 10.330567339669777], [123.70388746009407, 10.330488180281382], [123.7042146900372, 10.330087089726378], [123.70448828022984, 10.329939319982913], [123.70461166046555, 10.329775720377377], [123.7045311899574, 10.329517119837167], [123.70493889040867, 10.329437959909955], [123.70500862985745, 10.329670169745349], [123.70535195017112, 10.330076529793187], [123.70540558992167, 10.330255969857394], [123.70532512977768, 10.330519840211519], [123.70543777999043, 10.330741490074004], [123.70552360980976, 10.331010639612247], [123.70571135981892, 10.331184799812979], [123.70610296989966, 10.33123230016557], [123.70641410014453, 10.331163690228786], [123.70664477024539, 10.331221740194886], [123.70677352015645, 10.3314328401192], [123.70695055050683, 10.331401180099492], [123.70736361026931, 10.331417010108964], [123.70756744961255, 10.331527829754245], [123.70818972979419, 10.33149089013374], [123.70905876008308, 10.330910369751049], [123.70950400991431, 10.330535670177756], [123.70980977981162, 10.330562060093488], [123.7102496599675, 10.330810099921006], [123.71078609996566, 10.33074676965323], [123.7111347899547, 10.330788990361324], [123.71135473003258, 10.330604279980996], [123.71158003978591, 10.33027708017864], [123.71169805967403, 10.329939319982913]]], [[[123.7123256898391, 10.29579225028451], [123.71250004001568, 10.295578480379062], [123.71261001005465, 10.29554681988922], [123.71283798961757, 10.295639179782956], [123.71292919014867, 10.295710440397531], [123.7129801497254, 10.29577377017214], [123.71297746955157, 10.29586349978385], [123.7129238204733, 10.2959215601341], [123.71287555039818, 10.296116839781533], [123.71288090970933, 10.296246160113316], [123.71293455049627, 10.296343800020198], [123.71315448953779, 10.296246160113318], [123.71327251046233, 10.296122120387935], [123.71374725982442, 10.295808080142866], [123.71375530967354, 10.295676129640807], [123.71368289005099, 10.29563126963591], [123.71340393951075, 10.295607509730983], [123.71292919014867, 10.29548875960618], [123.71241956950756, 10.295019009869643], [123.71217549024634, 10.294908170089851], [123.7119206799258, 10.294741910093103], [123.7117758396442, 10.294741910093101], [123.71144860970105, 10.294897620065575], [123.71131182030503, 10.29500581994581], [123.7112286696231, 10.295354170131805], [123.71123402997071, 10.295739460205068], [123.71143519950432, 10.295987529853956], [123.71208698025323, 10.295971699986824], [123.7123256898391, 10.29579225028451]]]]}}]}