{"type": "FeatureCollection", "features": [{"type": "Feature", "properties": {"source": "Tang & Werner 2023", "polygons": 15}, "geometry": {"type": "MultiPolygon", "coordinates": [[[[125.9525334803969, 9.450522309785208], [125.95275342047485, 9.450606979992648], [125.95294654015935, 9.450786899782527], [125.9535473602951, 9.450125439856327], [125.95350444020333, 9.449553950292934], [125.95404624987687, 9.449389910365724], [125.95462024029139, 9.449416369668953], [125.95541954045927, 9.450458819654132], [125.95569312961545, 9.450215399617237], [125.95582187019876, 9.449702110252128], [125.9553980804134, 9.449442820236207], [125.95489383048404, 9.448834290080633], [125.95481872965128, 9.448553830290383], [125.95482945034641, 9.447686000228217], [125.95452905012452, 9.447167420166748], [125.95413207969618, 9.446691170339939], [125.954024789831, 9.446045579686533], [125.95409988962736, 9.445124829867396], [125.95352053990165, 9.444743829931332], [125.95311284048678, 9.44483908027404], [125.95286608001537, 9.44501900030588], [125.9527695201731, 9.445304750044617], [125.95224379983375, 9.446394829971211], [125.95035553033544, 9.446363079714441], [125.94971180047212, 9.445802169837622], [125.94927192031622, 9.445855079965519], [125.94886421986492, 9.446172579822353], [125.94875692999976, 9.446447749720022], [125.94900369979891, 9.446754670120905], [125.94926119029329, 9.44699807983118], [125.9491217103593, 9.447897669717374], [125.94896077970716, 9.44864908007079], [125.94891786997958, 9.449104159708275], [125.94813466018226, 9.44944282023621], [125.94761968022996, 9.449717990296262], [125.94726562989338, 9.450204820320215], [125.94732999966683, 9.450659900372031], [125.947726959731, 9.451178469670056], [125.94820975997862, 9.451453640287092], [125.94863892047579, 9.451432469703764], [125.94889640993374, 9.451167890344205], [125.94965815968517, 9.450532900212808], [125.95041990010891, 9.450744560285727], [125.95082759952373, 9.450945640371827], [125.95161079999332, 9.451009140122716], [125.95187902051062, 9.450919189692112], [125.9525334803969, 9.450522309785208]]], [[[125.92838824032812, 9.387773980274101], [125.92934310043633, 9.38918180005222], [125.92958987023549, 9.38968459032248], [125.92977225989704, 9.389763980289501], [125.93010485018775, 9.389848659816572], [125.93071102963472, 9.390192680381473], [125.93102752955494, 9.390272060136944], [125.93123138029875, 9.390102700107175], [125.93101679953199, 9.389758689954213], [125.93088269030976, 9.389335279919905], [125.93086659993922, 9.389123580254182], [125.93025506014469, 9.38894892965366], [125.93003510970259, 9.388631369825127], [125.92987954976219, 9.388102119958504], [125.92969716010064, 9.38705947997013], [125.92946112032443, 9.386482589679062], [125.92941820956045, 9.386228540059827], [125.92886030951642, 9.385715159826589], [125.92808782974204, 9.384529619958895], [125.92769623002543, 9.38413266978587], [125.92740655049873, 9.383910380010812], [125.92703104011623, 9.383825700308346], [125.92651069048863, 9.38387333000768], [125.92629610972182, 9.384116790295046], [125.92604398993923, 9.385090629932769], [125.9261727294861, 9.385291749838304], [125.92622637960078, 9.385641069773252], [125.92650533014101, 9.386038009715248], [125.92681646038588, 9.38625500974164], [125.92713296030608, 9.386281469894827], [125.92708467986677, 9.38667840975685], [125.92728317026301, 9.386853070361985], [125.92763721956321, 9.386810729761065], [125.92780888023825, 9.386874240267232], [125.92805028036206, 9.38732410998631], [125.92821657965308, 9.387260600194072], [125.92854916994382, 9.387043600348722], [125.92838824032812, 9.387773980274101]]], [[[125.92483163000892, 9.378231340164236], [125.92493891987411, 9.378940560373419], [125.92516422029969, 9.379120509742187], [125.92629075041064, 9.37953335029148], [125.9262692903648, 9.379173440108879], [125.92621564957786, 9.37897231968832], [125.92602252989336, 9.378771200175544], [125.92580795016302, 9.378654760023192], [125.92615127980444, 9.377405669710134], [125.9265589698915, 9.376961079636216], [125.92708467986677, 9.376294200330813], [125.92726706952831, 9.375764920356767], [125.92835068991171, 9.375659070174493], [125.92844724975397, 9.375214479897561], [125.9286081804061, 9.37408181961675], [125.92895149968331, 9.373351420122024], [125.92839359963928, 9.372959750254871], [125.92836141993465, 9.37248339984109], [125.92761040020613, 9.372324619688042], [125.9267413595531, 9.37265276975718], [125.92622637960078, 9.372896239847494], [125.92542170975761, 9.372917409717301], [125.92502474969342, 9.373457269618807], [125.9248959997824, 9.374028900331005], [125.92517495032257, 9.374727539892396], [125.92534660996122, 9.37537325974979], [125.92508912050327, 9.3765270799246], [125.92486382007773, 9.37789261019886], [125.92483163000892, 9.378231340164236]]], [[[125.92761040020613, 9.372324619688042], [125.92831849984292, 9.372356369677176], [125.92839359963928, 9.3696676198999], [125.92801809029325, 9.369572339686366], [125.92795371948338, 9.369032469784793], [125.92765330993372, 9.36894778964759], [125.92706323018506, 9.368492599906471], [125.92556118969158, 9.367857459826181], [125.92542170975761, 9.369228309654703], [125.92541099009881, 9.370419199833753], [125.9252232297255, 9.370953780190915], [125.92555045966864, 9.371382490200507], [125.92572212034368, 9.371768869854785], [125.92579722014005, 9.372202879655122], [125.92543243978052, 9.3728909497628], [125.92630683974478, 9.37285390011166], [125.9272187901254, 9.37242518039048], [125.92761040020613, 9.372324619688042]]], [[[125.92608689966681, 9.449802649984337], [125.92507839048032, 9.44855383029038], [125.92439174985303, 9.448172829836695], [125.92398405043818, 9.44751666997087], [125.92376946967136, 9.446564170017849], [125.92449903039044, 9.446627669776007], [125.92488526975944, 9.446331330254853], [125.9249925596246, 9.4457810003871], [125.92477797989423, 9.445188330161438], [125.92406988025748, 9.444278160105018], [125.92349052016758, 9.444151159855208], [125.92293262012353, 9.444256989951382], [125.92273950976679, 9.444172319675992], [125.92213868963103, 9.443558479651438], [125.92162370967878, 9.442299049728955], [125.92249273996767, 9.440362269610235], [125.9228575203272, 9.439759009620845], [125.92290044041891, 9.43943091986504], [125.92278241949438, 9.43873240003003], [125.92327594976497, 9.437462370242871], [125.92324375969615, 9.437028440352728], [125.92316865989977, 9.43689085983479], [125.9223425403749, 9.437028440352728], [125.92217087969986, 9.436975519629978], [125.92159151960995, 9.436488680013051], [125.92139839992545, 9.436467510325482], [125.92126966037858, 9.436531009860015], [125.9211623705134, 9.436954360239604], [125.92152714983652, 9.437166029661809], [125.92198849003829, 9.43751529024409], [125.92147349972183, 9.438584230368239], [125.92080832017682, 9.43913458001853], [125.92010021017583, 9.439240419734668], [125.91956377017766, 9.439198080031606], [125.91793299013733, 9.439240419734672], [125.9168171900493, 9.439536759669815], [125.91608763036663, 9.44012942995826], [125.9152293197365, 9.440531609945985], [125.9142637296054, 9.440595110209777], [125.91400622978328, 9.440658609690615], [125.9137916604171, 9.441399459786032], [125.91381311009879, 9.442267299839884], [125.9145641298273, 9.443050479959492], [125.91501474000616, 9.443113979881094], [125.91548681023087, 9.443262149851305], [125.91606617032076, 9.444066489605163], [125.91658115027303, 9.44470149036391], [125.91722488013642, 9.445886830176674], [125.91726780022813, 9.447114500310237], [125.91726780022813, 9.448469159780407], [125.91795443981904, 9.449993150243854], [125.91816901954941, 9.451136139658702], [125.91813407172195, 9.453032406607022], [125.92556117669359, 9.452970588698717], [125.92572212034368, 9.452617789985812], [125.92623710962373, 9.451919299706352], [125.92615127980444, 9.451517140129265], [125.92623710962373, 9.450924480145636], [125.92608689966681, 9.449802649984337]]], [[[125.90926409029144, 9.36597318962223], [125.90907096957051, 9.3654439003524], [125.90883492979427, 9.365105149977397], [125.90843796973012, 9.36477699017668], [125.90789079970904, 9.364152419945398], [125.90769768002453, 9.363527860337573], [125.9077191400704, 9.362860949772914], [125.90762258022815, 9.362596299804027], [125.90723633982275, 9.362066999660989], [125.90672134950631, 9.361093099836781], [125.90543388977963, 9.360563800335058], [125.90515494027578, 9.360479110295762], [125.90477942989334, 9.360468520170729], [125.9043824698292, 9.360309730277425], [125.9039211296274, 9.36026738965329], [125.90383529980807, 9.360055669930576], [125.903846029831, 9.359727499684805], [125.90370654989704, 9.359282890355376], [125.90351343021254, 9.359102930350101], [125.90320229996767, 9.35915586012772], [125.90305209001076, 9.358975900186493], [125.90268730965124, 9.35894414027019], [125.90233326035104, 9.359367580110828], [125.90171098949712, 9.359388749971819], [125.90134621017404, 9.359367580110824], [125.90109944037486, 9.359124100195396], [125.90090631965397, 9.358827689915096], [125.90078831013, 9.358573629828994], [125.90061665049137, 9.358330149660965], [125.90019822001716, 9.35819252971487], [125.90025187013183, 9.359092340265905], [125.89992999949988, 9.35957930021953], [125.90000510033268, 9.360002740019526], [125.9001231202208, 9.361431850373325], [125.89939355950173, 9.36355961033767], [125.89949012038038, 9.3638030901028], [125.89950085040334, 9.36455469023853], [125.8990180501557, 9.365560340159991], [125.89841723001989, 9.366311929703189], [125.90015531028963, 9.367190549902475], [125.90038120153649, 9.367027105341089], [125.90126038035474, 9.368873690374599], [125.90134621017404, 9.369657030296255], [125.90138911990162, 9.370884969761649], [125.90136717705569, 9.372791303137191], [125.90132475012817, 9.371012000195382], [125.9011101703978, 9.36925477013151], [125.90027331981354, 9.367328170142514], [125.89859961968148, 9.366481310188572], [125.89822411966314, 9.366407209839739], [125.89778423017951, 9.366925910222397], [125.89623927995848, 9.366100219894486], [125.89392184996305, 9.365867329640578], [125.89122890958515, 9.365517999706935], [125.89057446006308, 9.365465069779729], [125.88836431993283, 9.365189840320577], [125.88805318036022, 9.36498871031838], [125.88775276977412, 9.365263939622348], [125.8870339401144, 9.365380380165362], [125.88614344977967, 9.365369800219074], [125.88557481971266, 9.365242770206951], [125.8850491004097, 9.364893429766573], [125.88465214034554, 9.364565270160643], [125.8844804796705, 9.364480590289924], [125.88405132020979, 9.36477699017668], [125.8830964601016, 9.366417789816799], [125.8817446202373, 9.366343690275334], [125.88194846994472, 9.367635160350584], [125.88204502978697, 9.36935003993584], [125.8820557598099, 9.37071559989135], [125.88248490994289, 9.37294917008368], [125.88290334041709, 9.373107949720762], [125.88421226018963, 9.372441060154296], [125.88478087989242, 9.372049389699168], [125.8854675298475, 9.372282269695686], [125.88567137955492, 9.372493990322882], [125.88555335966683, 9.372705699957205], [125.88567137955492, 9.373139710104136], [125.8861219897338, 9.373266730222781], [125.88690519020334, 9.373414929816319], [125.88705540016028, 9.373668990149822], [125.88705540016028, 9.374134750029016], [125.88713049995667, 9.37449465988641], [125.88752747038501, 9.374896910080851], [125.88799953024555, 9.374642859990603], [125.88818191990711, 9.374378220337586], [125.88887929988512, 9.374166509709694], [125.8891797104712, 9.37415591997239], [125.88953375977138, 9.374251190292474], [125.88982344033454, 9.374420560254523], [125.89010951856578, 9.374349998654791], [125.8898663500621, 9.374462900176487], [125.8907997604886, 9.375436769804429], [125.89073538967875, 9.375701410243625], [125.89067100954112, 9.376294200330813], [125.89074611970166, 9.376495320033516], [125.89116453981174, 9.376908159922833], [125.89105724994653, 9.377162210039954], [125.8912718296769, 9.377892610198858], [125.89115380978878, 9.378125479718753], [125.89077830044273, 9.378400709635818], [125.89070319960994, 9.37873944008438], [125.89087486028498, 9.379173440108879], [125.89054226999424, 9.379607439868005], [125.89026332049045, 9.380295490125329], [125.8903276902639, 9.38072948966343], [125.89064955985941, 9.38109998024316], [125.89068173956407, 9.381322269851946], [125.89048861987958, 9.381459879665513], [125.89022040039869, 9.381872710219515], [125.89011311986128, 9.382264370031402], [125.890134569543, 9.382899489729027], [125.89103580026486, 9.384328499689776], [125.89119672988053, 9.384741320068606], [125.8913469305097, 9.385429360392042], [125.89233397965027, 9.38640319964996], [125.89414715971635, 9.38772635005276], [125.8950698401199, 9.388583740283218], [125.89643239964298, 9.389324700056372], [125.8978486103171, 9.389367040162224], [125.89829922049597, 9.389430550330447], [125.89892149031346, 9.389790439909405], [125.89965104999605, 9.390679589914077], [125.90003729040146, 9.390658419782415], [125.90053081963568, 9.389790439909406], [125.90048789954392, 9.388266190311287], [125.90087413994932, 9.388012140212922], [125.90183973008045, 9.387969800268305], [125.90201138971908, 9.387440549797274], [125.90207576985667, 9.386572560301499], [125.90235472039689, 9.386255009741642], [125.90254784008138, 9.385746919745792], [125.902590749809, 9.385175320260963], [125.9024405502162, 9.384307329935968], [125.90211867958425, 9.383968599750236], [125.90151786981268, 9.383778060290618], [125.90085267990342, 9.383714550336924], [125.90023041008597, 9.383502850043637], [125.89969397008784, 9.383269969859379], [125.8992433495448, 9.383015920150426], [125.89735508004655, 9.382465489928615], [125.89653968950813, 9.382020899891906], [125.89666843009147, 9.381512810379895], [125.8972263301355, 9.381047050384348], [125.89666843009147, 9.380581299734262], [125.89613199009331, 9.380284909736282], [125.89570283996031, 9.380115540162882], [125.89533805960076, 9.379713299959754], [125.89490891050423, 9.379141690306465], [125.89450121005295, 9.378781779725424], [125.8941793404574, 9.378231340164234], [125.89415788973929, 9.37744802031141], [125.89402913982823, 9.376812889686512], [125.89364290045923, 9.376071900358665], [125.89302062960537, 9.374674610186267], [125.89248418960722, 9.37408181961675], [125.8916749248929, 9.373850689313562], [125.89205503014648, 9.373774839740927], [125.89205503014648, 9.373097360014913], [125.89263439023637, 9.372239930032785], [125.89340687001078, 9.371541280258276], [125.89445828996122, 9.37126605008007], [125.89525222978148, 9.370969650358983], [125.89583157950723, 9.370694430152316], [125.89671135018322, 9.370736769631645], [125.89720488045378, 9.370948479810677], [125.89896441040517, 9.372853900111659], [125.90048789954392, 9.374102990351167], [125.90131994757745, 9.37288158930962], [125.90068102026484, 9.374102990351169], [125.90136765985575, 9.375098040113503], [125.90220451043999, 9.376177760193917], [125.90115309048954, 9.376495320033516], [125.89935064044641, 9.37633653968123], [125.89881420044824, 9.376505909840342], [125.89998364028679, 9.377088109853279], [125.90015531028963, 9.377130450092242], [125.90133548015108, 9.37732098996602], [125.9019684799915, 9.377215140115629], [125.90234399037399, 9.377204550287717], [125.90320229996767, 9.377257480369689], [125.90368508985115, 9.377564460069294], [125.90414643005293, 9.376643520175667], [125.90452194043542, 9.376982260072088], [125.90527296016393, 9.377490359798951], [125.90465069034646, 9.377098699677735], [125.9043824698292, 9.377596209731117], [125.90383529980807, 9.37806196997899], [125.9034168703703, 9.378337190316586], [125.90293407012264, 9.37873944008438], [125.90275168046107, 9.378845290387728], [125.90248345994378, 9.379300470320707], [125.90241909017033, 9.380083790276483], [125.90219378041708, 9.380782420269243], [125.90191482987683, 9.381364609800055], [125.90167880046475, 9.381989149835633], [125.90160369963196, 9.382772459821714], [125.90171098949712, 9.38314295014461], [125.90206503983376, 9.383407579631529], [125.90261220985484, 9.383513429734094], [125.90310574012543, 9.383492260028744], [125.90379237971636, 9.383513429734093], [125.90403914018775, 9.383132360140426], [125.90423225987226, 9.382941829864697], [125.90463996032352, 9.382793630278472], [125.90507984047942, 9.382772459821712], [125.90530515023272, 9.382592510195895], [125.90540171007498, 9.382169099950707], [125.90538025002911, 9.381459879665513], [125.90540171007498, 9.380634219993384], [125.90614199978056, 9.380496620029342], [125.90644240000249, 9.38065539985347], [125.90636730020611, 9.38028490973628], [125.90601324986953, 9.379512169703927], [125.90591362240163, 9.37909934066092], [125.90661407000528, 9.380676570184354], [125.90704322013825, 9.381237589970823], [125.90734362968793, 9.381872710219515], [125.90775131977502, 9.38261367984774], [125.90903877950173, 9.382804220272579], [125.91028332950081, 9.382941829864697], [125.91095924010521, 9.382613679847742], [125.91084122954486, 9.381999730275318], [125.91014384956685, 9.381068219944313], [125.91066956990622, 9.380560130203246], [125.91165662008322, 9.380327250355252], [125.91328740012355, 9.380687149790834], [125.91557264005017, 9.381957390251682], [125.91610909041249, 9.381766859810522], [125.91649532045375, 9.381470469619954], [125.91698884968791, 9.381152910109835], [125.91724634018226, 9.381237589970823], [125.91754674973195, 9.382147930325294], [125.91876983968515, 9.38206325024781], [125.91876983968515, 9.381152910109833], [125.91907023990711, 9.380496620029344], [125.919649599997, 9.380496620029344], [125.91979979958974, 9.380771830335268], [125.91982125963561, 9.381385780173106], [125.91977834990803, 9.382528999659487], [125.91977834990803, 9.383714550336926], [125.9198427196815, 9.385069460133625], [125.92145205004012, 9.38542936039204], [125.92231035030606, 9.38587394038977], [125.92280387954023, 9.386424370322656], [125.92329740981081, 9.38655138961997], [125.92394113967416, 9.386487879965657], [125.92467070039322, 9.386339690022076], [125.9247136101208, 9.385323509719733], [125.92464924034736, 9.384624880346532], [125.92428445998785, 9.38390508976255], [125.92351198021343, 9.383121779667078], [125.92299700026116, 9.382444320285579], [125.92308283008047, 9.381406960077896], [125.92284679030423, 9.380538959879283], [125.9224820099447, 9.37958627039488], [125.92218160972277, 9.378908809797565], [125.9211730994999, 9.377320989966021], [125.92085122990437, 9.37662235008449], [125.91995000954667, 9.376135420068179], [125.91977834990803, 9.375690829991031], [125.91973542981631, 9.375203890129097], [125.9193706504932, 9.374992179804854], [125.91881275044916, 9.374865150335078], [125.91866254982, 9.374441730214878], [125.9188556695045, 9.374145339765686], [125.91962813995116, 9.373489030033308], [125.91962813995116, 9.373234980152553], [125.9194135695485, 9.372388129993558], [125.91911315999883, 9.370546230101509], [125.91726780022813, 9.369932260026413], [125.91655969955492, 9.369614690150973], [125.91610909041249, 9.3692971197642], [125.91531514955584, 9.36864079989783], [125.91486454041339, 9.368132689755605], [125.91439247018867, 9.367518710335476], [125.9135770796503, 9.366608339847648], [125.91299771956042, 9.366311929703187], [125.91218233005843, 9.366100219894486], [125.91177463997134, 9.36552857965761], [125.91312647050788, 9.365211009732832], [125.91327667010064, 9.36493577967555], [125.91269732037489, 9.36442765972249], [125.91188192050878, 9.363792499879121], [125.91136693952006, 9.363538440229235], [125.9108734102859, 9.363496100016151], [125.9105515500181, 9.363728990310323], [125.91031551024186, 9.36616372988547], [125.90855598029047, 9.368238540085386], [125.906539466873, 9.368369957798276], [125.90712904995756, 9.36829146963003], [125.90856671031344, 9.368196200108548], [125.9093713801566, 9.367179969902494], [125.90941428988418, 9.366820049957967], [125.9093713801566, 9.366735370346138], [125.909307000019, 9.366375450056125], [125.90926409029144, 9.36597318962223]], [[125.9051973841477, 9.368345119999713], [125.90501546966958, 9.368323230378461], [125.90497395607538, 9.368296448610758], [125.9051973841477, 9.368345119999713]], [[125.90144277001629, 9.366258999658177], [125.90222597048583, 9.365994359875145], [125.90278386949349, 9.366290760225594], [125.90335249956041, 9.366872980086248], [125.90491150492886, 9.368256159328578], [125.90445756962554, 9.367963310074247], [125.90347052048496, 9.36709527988092], [125.90280532953933, 9.366375450056127], [125.9022903402593, 9.366057869847268], [125.90131661970823, 9.366350276930493], [125.90144277001629, 9.366258999658177]], [[125.89161665478039, 9.37386231701168], [125.89091104518265, 9.374043328124147], [125.89110017003829, 9.373965380202819], [125.89161665478039, 9.37386231701168]]], [[[125.9125256503721, 9.361590629647617], [125.91241836983467, 9.361950560199372], [125.91275096012544, 9.362373990106349], [125.91308355041613, 9.362649230099777], [125.91335176989699, 9.362808020239935], [125.91346978978514, 9.363146770022029], [125.91369509953842, 9.36327380008199], [125.91393112998693, 9.36350669023103], [125.91402768982913, 9.363803090102802], [125.91421007949073, 9.364141840035527], [125.91475724951181, 9.364639370126826], [125.91510056982547, 9.365263939622348], [125.91503620005204, 9.365740300245413], [125.9151327598943, 9.366089630396777], [125.9154117104345, 9.366767119837546], [125.91562629016484, 9.3674446097711], [125.91604471027492, 9.367857459826181], [125.91609836038958, 9.366460130376675], [125.91630219973284, 9.36638603003224], [125.91652750948612, 9.366513059657363], [125.91676353993464, 9.367486959982987], [125.91698884968791, 9.368651390265468], [125.91735363004744, 9.36986873983409], [125.91857672000066, 9.370292169611254], [125.91857672000066, 9.370006360313585], [125.91832995020154, 9.368788999950773], [125.91801881995667, 9.368302059987291], [125.91761111950537, 9.367042349719648], [125.91745018988969, 9.365952020164734], [125.91717124038588, 9.365634440332897], [125.91657042957789, 9.365348619679004], [125.91620563989059, 9.364491170209835], [125.91607690034373, 9.3640042202307], [125.91586231957692, 9.363559610337672], [125.91585158955398, 9.362829190305023], [125.91600179951091, 9.361622389799445], [125.91578721978054, 9.360796690303715], [125.91601252953384, 9.360203870387823], [125.9157979498035, 9.359642820167995], [125.91567992991538, 9.359018239863273], [125.91607690034373, 9.35851011007078], [125.91604471027492, 9.357694990346001], [125.91557264005017, 9.356774000109292], [125.91537952036566, 9.355461320296891], [125.91518641000894, 9.349236619804357], [125.91524004975946, 9.348569680342619], [125.9152507797824, 9.347786289811483], [125.9149503702327, 9.34612422962153], [125.91383457014469, 9.34600778026925], [125.9135448895815, 9.345944260363112], [125.91331959019237, 9.345711360225486], [125.91286898001354, 9.345616080052464], [125.91283678994472, 9.346028950132586], [125.91226815987777, 9.346378299912203], [125.91230034994655, 9.3471934501964], [125.9132552100548, 9.349427170194232], [125.91241836983467, 9.349998829914956], [125.91221452012726, 9.35009410966819], [125.91178535963009, 9.350379940344837], [125.91148496044461, 9.350771629900432], [125.91142058030698, 9.351300949828982], [125.91161369999148, 9.351872599841645], [125.91193556958702, 9.352094910147581], [125.91260075949626, 9.351999640184571], [125.91259003050973, 9.352306640238627], [125.91233252965122, 9.352528950020565], [125.91201067041982, 9.353142949714103], [125.91207504019327, 9.353460539873518], [125.912117960285, 9.35479438986116], [125.91203213046572, 9.355598939984368], [125.91209650023914, 9.356932790018066], [125.91261148019142, 9.357546779812244], [125.91299771956042, 9.358922969641416], [125.91301917960627, 9.359515780282353], [125.91334105023822, 9.360659070200754], [125.91327667010064, 9.361273060051388], [125.91301917960627, 9.361389500086094], [125.91263294023732, 9.361474190341456], [125.9125256503721, 9.361590629647617]]], [[[125.90671061948335, 9.394648959846732], [125.9067535395751, 9.393918599957008], [125.906635519687, 9.392775420124181], [125.90697885036482, 9.391261770219876], [125.90725779986862, 9.389070660321323], [125.90736508040607, 9.388827199821868], [125.9074187294843, 9.388043900337127], [125.9074187294843, 9.387482889678905], [125.90722560979981, 9.386540809839223], [125.90719341973099, 9.38553521030162], [125.90703249011531, 9.384836590043466], [125.90658187993648, 9.384698979718905], [125.90600251984657, 9.384624880346534], [125.90561628047757, 9.384741320068606], [125.90529442020981, 9.38514356039276], [125.90519786036756, 9.385704580070685], [125.90500473964661, 9.386149150087384], [125.903846029831, 9.3860644698523], [125.9036207200777, 9.386604320297222], [125.90326666974113, 9.386921870374538], [125.9029555301685, 9.386614900079852], [125.90255857010435, 9.386456130305158], [125.90236545041984, 9.3865831496138], [125.90224742949529, 9.386826610166317], [125.90233326035104, 9.387239430265847], [125.9026014798319, 9.387419379858347], [125.90303062996489, 9.387578150062804], [125.90327739976404, 9.387768689968407], [125.9034812505079, 9.388065070313216], [125.90349197016667, 9.388340280116951], [125.90343833041617, 9.388906590391795], [125.90262293987779, 9.388975390007158], [125.90232790000344, 9.389202970096012], [125.90220451043999, 9.389700470061756], [125.90219915009239, 9.390192680381475], [125.9020060304079, 9.390637249652011], [125.90252101036019, 9.39102360016337], [125.90293943979796, 9.391648119821117], [125.9031164597842, 9.391780429760235], [125.90339541032442, 9.391748679627426], [125.90352951954665, 9.391891579868512], [125.90374410031342, 9.392521380307384], [125.90380847008684, 9.39314060982684], [125.90377629038223, 9.394008570077423], [125.90385674948978, 9.394617210252058], [125.9040123197943, 9.394871249977632], [125.9043234604033, 9.39504060036467], [125.90457021983832, 9.395114700318102], [125.90488136044735, 9.395294640392757], [125.9057879401162, 9.39515174990348], [125.90608834966586, 9.395262889946183], [125.906249280318, 9.395358150031011], [125.90659260995942, 9.394987680345645], [125.90671061948335, 9.394648959846732]]], [[[125.90477739886666, 9.326669718497007], [125.90427455520535, 9.326673825364365], [125.90452194043542, 9.327068160305343], [125.90477739886666, 9.326669718497007]]], [[[125.90285897032625, 9.32770338036388], [125.90341759057235, 9.32668082280131], [125.90223072506349, 9.326690510594261], [125.9022903402593, 9.327121099634684], [125.90240836014742, 9.3273328403544], [125.90285897032625, 9.32770338036388]]], [[[125.89995145954576, 9.442415470249774], [125.89966178001902, 9.441992130017466], [125.899522300085, 9.441198370036075], [125.89937210049229, 9.440944370204896], [125.89900732013275, 9.44088086034634], [125.8987176395696, 9.440965529833854], [125.89862107972735, 9.441219540006667], [125.89829922049597, 9.441187790214471], [125.8978593299759, 9.440870279739887], [125.89773059042899, 9.440669190290738], [125.89734435002359, 9.440478690288016], [125.89717269038496, 9.440478690288016], [125.896850819753, 9.440510440016562], [125.89649677045286, 9.440605690013648], [125.89582085984843, 9.441018450358984], [125.89562774016395, 9.441325370020056], [125.8951449399163, 9.442531890014552], [125.89503765005111, 9.442870560134747], [125.89520930968976, 9.44314572984616], [125.89539170038768, 9.44314572984616], [125.89567064989153, 9.443029309879345], [125.89604616027397, 9.442690639607166], [125.89641093959713, 9.441812209936678], [125.89676498993371, 9.441208949858002], [125.89710831957514, 9.441092529734245], [125.89775205047489, 9.441484119865565], [125.8980631796833, 9.442097969794105], [125.8981382805161, 9.442362550309996], [125.89823484035834, 9.442521310153078], [125.89890003026757, 9.44318805969519], [125.89911460999797, 9.443706649807849], [125.8989107602905, 9.444108820358739], [125.89892149031346, 9.444458079851483], [125.89903951020155, 9.444616830308636], [125.89937210049229, 9.444881410325745], [125.89936137046932, 9.445082499786558], [125.89920043981722, 9.44506133037912], [125.89883566049409, 9.444934329848056], [125.89817046954852, 9.444881410325745], [125.8979129800906, 9.444923740382519], [125.89770913038313, 9.445050749647615], [125.89752673968513, 9.445241249729667], [125.8973979897741, 9.44545290981177], [125.8972263301355, 9.445855079965515], [125.89679718000251, 9.44623608030455], [125.89643239964298, 9.446458329698956], [125.89605689029693, 9.446744079806495], [125.89598179050053, 9.446924000013297], [125.89606762031984, 9.447294419911172], [125.89611053004742, 9.44765424985548], [125.89594960043172, 9.448172829836693], [125.89625000998143, 9.448172829836697], [125.89648604042989, 9.44807758018462], [125.89672208020613, 9.44781300015892], [125.89702248975577, 9.4476013299261], [125.89740871979701, 9.447410830161191], [125.8977627804978, 9.447315579920067], [125.89853524990805, 9.447484919613338], [125.89876055966133, 9.4475801699001], [125.89899659010979, 9.44763308029407], [125.90019822001716, 9.4475801699001], [125.90092777969983, 9.447347330262373], [125.90106725963382, 9.447135669840595], [125.90159296960903, 9.446701750326175], [125.90172171952008, 9.446627669776008], [125.9018611901263, 9.44641600025283], [125.9018611901263, 9.446130249616084], [125.9019362899227, 9.445347080152063], [125.90180755037584, 9.44506133037912], [125.90189338019512, 9.444870830393974], [125.9019362899227, 9.44459566013473], [125.90210794956134, 9.444521580025787], [125.90238690010153, 9.444680329717116], [125.90292335046388, 9.444754409859298], [125.9034168703703, 9.44456391003949], [125.9035670803272, 9.444331070004889], [125.90355635030426, 9.444098239655737], [125.90336322958338, 9.443854820026345], [125.90309501010249, 9.443569069870446], [125.90268730965124, 9.443262149851305], [125.90238690010153, 9.443145729846156], [125.90211867958425, 9.443145729846158], [125.9014749497209, 9.44275414025849], [125.90100287949622, 9.44259538984305], [125.90029477985941, 9.44261655989723], [125.89995145954576, 9.442415470249774]]], [[[125.89458703987228, 9.328465639886133], [125.89480161960265, 9.329153790141671], [125.89537024034183, 9.329831359648923], [125.89615345013918, 9.330847699637802], [125.89641093959713, 9.331048850131085], [125.89678644997956, 9.330879460234486], [125.89704394047394, 9.330572439662982], [125.89733362000068, 9.329873699844786], [125.8975374697081, 9.330339529679803], [125.89796661984106, 9.330646550051608], [125.89874982963842, 9.330498330083765], [125.89883566049409, 9.330233659606582], [125.8988249304712, 9.329820769637674], [125.8987283695925, 9.329238490230424], [125.8987283695925, 9.328836180273512], [125.89880347042532, 9.328105689842365], [125.8989107602905, 9.327438710364154], [125.89941501954759, 9.32735400990696], [125.89944720028868, 9.327713970312526], [125.89959741024559, 9.328328009993706], [125.90000510033268, 9.328857360238109], [125.90033769995117, 9.328730320173841], [125.90026258979063, 9.327470469864409], [125.90057373039963, 9.32725872985742], [125.90058446042259, 9.326951699684612], [125.90048142590474, 9.326704782037156], [125.89400379653202, 9.326757554110376], [125.89427590029966, 9.327523399724154], [125.89427590029966, 9.327777490158768], [125.89458703987228, 9.328465639886133]]], [[[125.87893367033544, 9.450935060258583], [125.8792018898163, 9.451051479651214], [125.87948084035655, 9.451062059767944], [125.87982415963377, 9.4509138897063], [125.88016747994743, 9.451273720157785], [125.88030695988142, 9.451612380381532], [125.88052153961179, 9.451792299888917], [125.88067174024096, 9.451845210119044], [125.88139056990067, 9.451781719750308], [125.88216304967506, 9.451771130079647], [125.88361144005387, 9.451951049667848], [125.88387965953476, 9.451813469699438], [125.88433026971359, 9.451517140129265], [125.8844804796705, 9.451146719777983], [125.88519931036662, 9.450257730312673], [125.88503837971454, 9.449781489826572], [125.88505983043267, 9.449474569975223], [125.88523149007129, 9.449411069705684], [125.88562846049959, 9.449442820236209], [125.88558554973562, 9.449188830370346], [125.88526368014007, 9.448839579708595], [125.88483453000708, 9.448871330187776], [125.88466287036847, 9.448987740162707], [125.88461995027674, 9.44926290986848], [125.88461995027674, 9.449749740059987], [125.88443755957874, 9.450151900008976], [125.88395476036754, 9.450342399662373], [125.88352561023456, 9.451114969888756], [125.8831071901245, 9.451114969888758], [125.88287115034827, 9.451072639885005], [125.8827960495155, 9.450892730276376], [125.8824098101465, 9.450225979708955], [125.88232398032719, 9.449760320137763], [125.88238835010064, 9.44869140978429], [125.88238835010064, 9.448321000338003], [125.88232398032719, 9.448003500140532], [125.88176608028314, 9.447696580244212], [125.88153004983468, 9.447622500279962], [125.8811759901703, 9.447601329926101], [125.88063955017219, 9.447707169792796], [125.88028549983555, 9.4478553297723], [125.87995290954484, 9.4478553297723], [125.87933063972736, 9.447717749809438], [125.87908386992821, 9.447061579667285], [125.87847233013369, 9.446278420055712], [125.87805389965945, 9.445452909811769], [125.87775350047397, 9.445029580242082], [125.87694882959435, 9.444849660204866], [125.8766377003859, 9.445156580012986], [125.87598324049961, 9.446087920209234], [125.87592959038498, 9.446468920004802], [125.87589740964391, 9.448479750146493], [125.87580084980166, 9.448395079654265], [125.87537169034094, 9.448225749851636], [125.87516784996123, 9.448331580373013], [125.87471723978241, 9.448289249908248], [125.87392329996216, 9.448299829942295], [125.87374091030058, 9.44879724997735], [125.8734297800557, 9.448828990126085], [125.87321520032532, 9.450141319919474], [125.87324739039416, 9.450490559952078], [125.87322593034828, 9.450702230326344], [125.87292551976219, 9.45106205976794], [125.87255001041615, 9.450924480145636], [125.87235688969525, 9.45073398017849], [125.87222815014835, 9.450543480314028], [125.87173461987778, 9.450183649811683], [125.87110162003736, 9.450617560096084], [125.87021112037486, 9.45060697999265], [125.869760510196, 9.450659900372031], [125.86954593979341, 9.450765730033487], [125.86936355013188, 9.45090331038837], [125.86919188012904, 9.45114671977798], [125.86921334017492, 9.451622970047435], [125.86933136006304, 9.45174996980403], [125.86896657970351, 9.451686469920018], [125.8686661701538, 9.451951049667848], [125.86832284984018, 9.451167890344205], [125.86797952952651, 9.452046300363806], [125.86798995733456, 9.453445661394955], [125.87040062010607, 9.453425958082487], [125.8704257001052, 9.452691870202717], [125.87100506019512, 9.45271302974037], [125.87138056954116, 9.452840029888744], [125.87172388985482, 9.453104609705957], [125.8719384695852, 9.453136359773957], [125.87226032985299, 9.452977610256848], [125.87280749987407, 9.452247380396262], [125.87338685996399, 9.452226209765366], [125.8739125699392, 9.452109789985721], [125.8743310004134, 9.451898129889493], [125.87470650975945, 9.4516547199823], [125.87529658950811, 9.45155947018626], [125.8757042899594, 9.451612380381532], [125.87607980034186, 9.451390139661981], [125.87630509973103, 9.451178469670054], [125.87649822045191, 9.45089273027638], [125.87719560042993, 9.450818640109933], [125.87791443008965, 9.450691650220374], [125.87825775040331, 9.45082922975204], [125.87847233013369, 9.450839809862131], [125.87893367033544, 9.450935060258583]]]]}}]}